{"type": "FeatureCollection", "features": [{"type": "Feature", "geometry": {"type": "Polygon", "coordinates": [[[-66.90823, 10.51012], [-66.9118, 10.51094], [-66.91119, 10.51377], [-66.91263, 10.51359], [-66.91177, 10.51777], [-66.9109, 10.51761], [-66.91129, 10.55188], [-66.91465, 10.55222], [-66.91604, 10.55266], [-66.91546, 10.52123], [-66.91626, 10.52008], [-66.91661, 10.51834], [-66.91587, 10.51747], [-66.91635, 10.51339], [-66.9183, 10.51355], [-66.92124, 10.51418], [-66.92182, 10.5113], [-66.92227, 10.51049], [-66.92175, 10.50923], [-66.90894, 10.50667], [-66.90823, 10.51012]]]}, "properties": {"parroquia": "Altagracia", "nombre_original_hdx": "Altagracia", "municipio": "Libertador", "estado": "Distrito Capital", "pcode": "VE010101", "area_sqkm": 2.9508224}}, {"type": "Feature", "geometry": {"type": "Polygon", "coordinates": [[[-66.96361, 10.47322], [-66.96483, 10.47573], [-66.96732, 10.47897], [-66.9671, 10.48177], [-66.96762, 10.48278], [-66.96752, 10.48555], [-66.96673, 10.48778], [-66.96689, 10.48908], [-66.96771, 10.48971], [-66.97053, 10.49378], [-66.97128, 10.49541], [-66.97136, 10.49699], [-66.97424, 10.49619], [-66.97607, 10.49523], [-66.97776, 10.49515], [-66.98039, 10.49548], [-66.98191, 10.49361], [-66.98246, 10.49217], [-66.98383, 10.49152], [-66.98409, 10.48941], [-66.98609, 10.48838], [-66.98658, 10.48515], [-66.98736, 10.48417], [-66.98876, 10.48371], [-66.98996, 10.48232], [-66.99168, 10.48226], [-66.99351, 10.47995], [-66.99366, 10.47885], [-66.99302, 10.47744], [-66.99324, 10.47599], [-66.99596, 10.4785], [-66.99596, 10.47461], [-67.0018, 10.47544], [-67.00263, 10.47433], [-66.99902, 10.47128], [-67.00877, 10.46927], [-67.00751, 10.46661], [-67.00803, 10.46477], [-67.00793, 10.46022], [-67.00831, 10.45761], [-67.00819, 10.45628], [-67.00907, 10.45526], [-67.01093, 10.4546], [-67.01216, 10.45518], [-67.01243, 10.45654], [-67.01368, 10.45774], [-67.01555, 10.45851], [-67.01674, 10.46132], [-67.0181, 10.461], [-67.01937, 10.46191], [-67.02073, 10.46092], [-67.02355, 10.46026], [-67.02655, 10.46103], [-67.03016, 10.45904], [-67.0319, 10.45772], [-67.03235, 10.45632], [-67.03719, 10.45535], [-67.0394, 10.45531], [-67.04059, 10.45455], [-67.04387, 10.45644], [-67.04763, 10.45572], [-67.04546, 10.45152], [-67.04178, 10.44941], [-67.04133, 10.44811], [-67.03886, 10.44817], [-67.03701, 10.44792], [-67.03399, 10.44706], [-67.0329, 10.44623], [-67.03135, 10.44717], [-67.02925, 10.44614], [-67.0282, 10.44452], [-67.02665, 10.44481], [-67.02501, 10.44437], [-67.02379, 10.44318], [-67.02197, 10.44486], [-67.01913, 10.44545], [-67.01828, 10.4452], [-67.01636, 10.44552], [-67.01434, 10.44434], [-67.01187, 10.4438], [-67.00955, 10.44482], [-67.00833, 10.44418], [-67.00619, 10.44554], [-67.00365, 10.44489], [-67.00257, 10.44498], [-67.00063, 10.44656], [-66.99893, 10.44513], [-66.9977, 10.44625], [-66.99557, 10.44363], [-66.99333, 10.44369], [-66.99143, 10.44229], [-66.99138, 10.44143], [-66.98804, 10.43982], [-66.98519, 10.44301], [-66.98376, 10.44309], [-66.98168, 10.44538], [-66.97903, 10.44582], [-66.9782, 10.44696], [-66.97643, 10.44744], [-66.97563, 10.44851], [-66.97353, 10.44861], [-66.97158, 10.45025], [-66.96995, 10.45046], [-66.97038, 10.45212], [-66.96977, 10.4547], [-66.96878, 10.45636], [-66.96861, 10.45836], [-66.96622, 10.4599], [-66.96514, 10.45977], [-66.96407, 10.46065], [-66.96229, 10.46077], [-66.96207, 10.46263], [-66.96123, 10.46494], [-66.96117, 10.46708], [-66.96209, 10.46881], [-66.96216, 10.47011], [-66.96549, 10.46914], [-66.97229, 10.46584], [-66.97449, 10.46566], [-66.97622, 10.46695], [-66.97388, 10.46843], [-66.96361, 10.47322]]]}, "properties": {"parroquia": "Antímano", "nombre_original_hdx": "Antimano", "municipio": "Libertador", "estado": "Distrito Capital", "pcode": "VE010102", "area_sqkm": 24.84466541}}, {"type": "Feature", "geometry": {"type": "Polygon", "coordinates": [[[-66.90894, 10.50667], [-66.90997, 10.50137], [-66.91026, 10.49953], [-66.90915, 10.49927], [-66.90867, 10.50174], [-66.90329, 10.50065], [-66.90236, 10.50162], [-66.89784, 10.50078], [-66.89599, 10.50204], [-66.89709, 10.50449], [-66.89556, 10.50712], [-66.89495, 10.50881], [-66.89338, 10.51071], [-66.89208, 10.51119], [-66.89068, 10.51546], [-66.89202, 10.51505], [-66.89266, 10.51361], [-66.89554, 10.51066], [-66.89777, 10.50947], [-66.89886, 10.50772], [-66.89903, 10.50663], [-66.90022, 10.50523], [-66.90283, 10.50583], [-66.9026, 10.50841], [-66.90299, 10.5092], [-66.90823, 10.51012], [-66.90894, 10.50667]]]}, "properties": {"parroquia": "La Candelaria", "nombre_original_hdx": "Candelaria", "municipio": "Libertador", "estado": "Distrito Capital", "pcode": "VE010103", "area_sqkm": 1.31842686}}, {"type": "Feature", "geometry": {"type": "Polygon", "coordinates": [[[-66.96995, 10.45046], [-66.97158, 10.45025], [-66.97353, 10.44861], [-66.97563, 10.44851], [-66.97643, 10.44744], [-66.9782, 10.44696], [-66.97903, 10.44582], [-66.98168, 10.44538], [-66.98376, 10.44309], [-66.98519, 10.44301], [-66.98804, 10.43982], [-66.99138, 10.44143], [-66.99143, 10.44229], [-66.99333, 10.44369], [-66.99557, 10.44363], [-66.9977, 10.44625], [-66.99893, 10.44513], [-67.00063, 10.44656], [-67.00257, 10.44498], [-67.00365, 10.44489], [-67.00619, 10.44554], [-67.00833, 10.44418], [-67.00955, 10.44482], [-67.01187, 10.4438], [-67.01434, 10.44434], [-67.01636, 10.44552], [-67.01828, 10.4452], [-67.01913, 10.44545], [-67.02197, 10.44486], [-67.02379, 10.44318], [-67.02119, 10.44178], [-67.0205, 10.43902], [-67.01926, 10.43867], [-67.0189, 10.43543], [-67.01809, 10.43241], [-67.01807, 10.42848], [-67.01691, 10.42663], [-67.01479, 10.42564], [-67.0118, 10.42622], [-67.00965, 10.42444], [-67.00777, 10.42473], [-67.00516, 10.42363], [-67.00416, 10.42387], [-67.00355, 10.42282], [-67.00058, 10.42112], [-66.99933, 10.42083], [-66.99787, 10.41924], [-66.99778, 10.4182], [-66.99657, 10.41772], [-66.99057, 10.41914], [-66.98775, 10.41825], [-66.985, 10.41688], [-66.98332, 10.41421], [-66.98449, 10.41219], [-66.98297, 10.41166], [-66.98214, 10.40986], [-66.98252, 10.40822], [-66.98204, 10.40609], [-66.98209, 10.40382], [-66.98128, 10.40076], [-66.97908, 10.40023], [-66.97678, 10.40166], [-66.97574, 10.40298], [-66.9737, 10.40482], [-66.97266, 10.40531], [-66.97096, 10.40695], [-66.96918, 10.40691], [-66.9685, 10.40814], [-66.9673, 10.40876], [-66.96613, 10.4102], [-66.96387, 10.41184], [-66.96123, 10.41245], [-66.9577, 10.41434], [-66.9562, 10.41661], [-66.95552, 10.41869], [-66.95548, 10.42037], [-66.95182, 10.42354], [-66.9508, 10.42417], [-66.95134, 10.42669], [-66.953, 10.42886], [-66.95222, 10.43179], [-66.95084, 10.43335], [-66.95055, 10.43529], [-66.9498, 10.43773], [-66.95027, 10.43923], [-66.95138, 10.44035], [-66.95118, 10.44259], [-66.9517, 10.44364], [-66.95368, 10.44358], [-66.95564, 10.44456], [-66.95763, 10.44384], [-66.95996, 10.44426], [-66.96068, 10.44493], [-66.96193, 10.44475], [-66.96275, 10.44652], [-66.9646, 10.4474], [-66.96713, 10.44732], [-66.96767, 10.44878], [-66.96992, 10.44968], [-66.96995, 10.45046]]]}, "properties": {"parroquia": "Caricuao", "nombre_original_hdx": "Caricuao", "municipio": "Libertador", "estado": "Distrito Capital", "pcode": "VE010104", "area_sqkm": 24.00620624}}, {"type": "Feature", "geometry": {"type": "Polygon", "coordinates": [[[-66.91367, 10.50157], [-66.9116, 10.50109], [-66.90997, 10.50137], [-66.90894, 10.50667], [-66.92175, 10.50923], [-66.92227, 10.51049], [-66.92295, 10.51114], [-66.92253, 10.51024], [-66.92321, 10.50712], [-66.92427, 10.50727], [-66.92396, 10.50553], [-66.92187, 10.50506], [-66.91974, 10.50539], [-66.9196, 10.5043], [-66.91795, 10.50378], [-66.91468, 10.50302], [-66.91488, 10.50186], [-66.91367, 10.50157]]]}, "properties": {"parroquia": "Catedral", "nombre_original_hdx": "Catedral", "municipio": "Libertador", "estado": "Distrito Capital", "pcode": "VE010105", "area_sqkm": 0.84258876}}, {"type": "Feature", "geometry": {"type": "Polygon", "coordinates": [[[-66.9082, 10.4087], [-66.90717, 10.41083], [-66.90756, 10.41219], [-66.9102, 10.41365], [-66.91129, 10.41468], [-66.91242, 10.41653], [-66.91405, 10.41845], [-66.91492, 10.42147], [-66.91805, 10.42385], [-66.91992, 10.42395], [-66.92635, 10.42246], [-66.92817, 10.4226], [-66.92893, 10.42328], [-66.9292, 10.42501], [-66.928, 10.42641], [-66.92523, 10.42823], [-66.92395, 10.43041], [-66.92382, 10.43221], [-66.9252, 10.43663], [-66.92516, 10.4382], [-66.92358, 10.44612], [-66.92278, 10.44831], [-66.91933, 10.45235], [-66.92155, 10.4537], [-66.9242, 10.45637], [-66.92497, 10.45636], [-66.92673, 10.4551], [-66.92831, 10.45503], [-66.93137, 10.45579], [-66.93199, 10.45668], [-66.93358, 10.45744], [-66.93471, 10.4586], [-66.93558, 10.45813], [-66.93631, 10.45673], [-66.93726, 10.45635], [-66.9371, 10.45463], [-66.93788, 10.45326], [-66.94112, 10.45089], [-66.9422, 10.44719], [-66.94534, 10.44667], [-66.94693, 10.44665], [-66.94845, 10.44573], [-66.9492, 10.44466], [-66.9517, 10.44364], [-66.95118, 10.44259], [-66.95138, 10.44035], [-66.95027, 10.43923], [-66.9498, 10.43773], [-66.95055, 10.43529], [-66.95084, 10.43335], [-66.95222, 10.43179], [-66.953, 10.42886], [-66.95134, 10.42669], [-66.9508, 10.42417], [-66.9482, 10.4246], [-66.945, 10.42402], [-66.9417, 10.42288], [-66.94051, 10.42047], [-66.9385, 10.41993], [-66.93613, 10.41831], [-66.93223, 10.41406], [-66.93102, 10.41366], [-66.92827, 10.41389], [-66.92445, 10.41461], [-66.92339, 10.41526], [-66.92084, 10.41442], [-66.91923, 10.41315], [-66.91631, 10.41203], [-66.91523, 10.41119], [-66.91456, 10.41256], [-66.90947, 10.40887], [-66.9082, 10.4087]]]}, "properties": {"parroquia": "Coche", "nombre_original_hdx": "Coche", "municipio": "Libertador", "estado": "Distrito Capital", "pcode": "VE010106", "area_sqkm": 12.29543577}}, {"type": "Feature", "geometry": {"type": "Polygon", "coordinates": [[[-66.97607, 10.49523], [-66.97738, 10.49594], [-66.97848, 10.49718], [-66.98094, 10.49712], [-66.98253, 10.49836], [-66.9849, 10.4963], [-66.98674, 10.49511], [-66.98733, 10.49362], [-66.98878, 10.49503], [-66.99025, 10.49481], [-66.99036, 10.49625], [-66.98948, 10.49969], [-66.99283, 10.50029], [-66.99219, 10.50243], [-66.99427, 10.50233], [-66.99688, 10.50326], [-66.9986, 10.50339], [-66.99767, 10.50541], [-66.99985, 10.50683], [-67.00041, 10.50906], [-67.00013, 10.51183], [-66.99707, 10.51433], [-66.99652, 10.51683], [-66.9943, 10.52017], [-66.99488, 10.52162], [-66.99356, 10.52413], [-66.99274, 10.52713], [-66.99288, 10.52759], [-66.99577, 10.52711], [-66.9962, 10.52781], [-66.99426, 10.52996], [-66.99659, 10.53076], [-66.9993, 10.53128], [-67.00069, 10.53267], [-67.00291, 10.53433], [-67.00346, 10.53628], [-67.00624, 10.53378], [-67.00735, 10.53489], [-67.00846, 10.53378], [-67.01069, 10.53267], [-67.01263, 10.53295], [-67.01319, 10.53183], [-67.01569, 10.53295], [-67.01846, 10.53267], [-67.01874, 10.53183], [-67.02041, 10.53211], [-67.02096, 10.53128], [-67.02263, 10.53128], [-67.02446, 10.535], [-67.0268, 10.53572], [-67.02826, 10.5358], [-67.0277, 10.53272], [-67.03002, 10.53271], [-67.03135, 10.53323], [-67.03515, 10.53284], [-67.038, 10.53153], [-67.03934, 10.53157], [-67.04083, 10.53084], [-67.04255, 10.5295], [-67.04648, 10.52725], [-67.04906, 10.52815], [-67.05057, 10.52666], [-67.05043, 10.52139], [-67.05249, 10.52054], [-67.05305, 10.51799], [-67.05396, 10.51795], [-67.06194, 10.51947], [-67.06419, 10.51939], [-67.06555, 10.51839], [-67.0668, 10.51641], [-67.06714, 10.51399], [-67.06586, 10.51202], [-67.06414, 10.51045], [-67.06236, 10.50839], [-67.05871, 10.50545], [-67.05598, 10.5024], [-67.05618, 10.50015], [-67.05796, 10.49632], [-67.05808, 10.49452], [-67.05762, 10.49351], [-67.05807, 10.492], [-67.05887, 10.49099], [-67.05888, 10.48842], [-67.05982, 10.48627], [-67.05969, 10.48354], [-67.05811, 10.48274], [-67.05709, 10.48277], [-67.05576, 10.48093], [-67.05569, 10.47943], [-67.05634, 10.47749], [-67.05678, 10.47477], [-67.05632, 10.47352], [-67.05742, 10.47133], [-67.05848, 10.4708], [-67.05856, 10.4674], [-67.06046, 10.46706], [-67.06136, 10.46583], [-67.0635, 10.46494], [-67.06398, 10.46381], [-67.06563, 10.46251], [-67.06712, 10.46268], [-67.07048, 10.46109], [-67.07295, 10.46049], [-67.07542, 10.46195], [-67.07876, 10.46069], [-67.08086, 10.46088], [-67.08211, 10.46194], [-67.08468, 10.46004], [-67.08703, 10.45927], [-67.08832, 10.45838], [-67.09366, 10.45959], [-67.09511, 10.45943], [-67.09551, 10.45864], [-67.09804, 10.4588], [-67.09844, 10.45961], [-67.10059, 10.46096], [-67.10172, 10.46077], [-67.10243, 10.45975], [-67.10402, 10.45921], [-67.10632, 10.45696], [-67.10669, 10.45702], [-67.10399, 10.45551], [-67.09984, 10.45461], [-67.09513, 10.45459], [-67.09284, 10.45385], [-67.09141, 10.4542], [-67.09115, 10.45307], [-67.08976, 10.45414], [-67.08871, 10.45424], [-67.08696, 10.45561], [-67.0852, 10.45498], [-67.08239, 10.4553], [-67.08104, 10.45432], [-67.08066, 10.45563], [-67.07831, 10.45617], [-67.07719, 10.45454], [-67.07618, 10.45502], [-67.07382, 10.45461], [-67.07235, 10.45575], [-67.07144, 10.45568], [-67.07054, 10.45466], [-67.06968, 10.45691], [-67.06836, 10.45793], [-67.06668, 10.45709], [-67.06456, 10.45696], [-67.06359, 10.45769], [-67.05938, 10.45677], [-67.05685, 10.45741], [-67.05512, 10.46155], [-67.05307, 10.46346], [-67.05214, 10.46348], [-67.05071, 10.46148], [-67.05055, 10.45999], [-67.04936, 10.45765], [-67.04926, 10.45651], [-67.04763, 10.45572], [-67.04387, 10.45644], [-67.04059, 10.45455], [-67.0394, 10.45531], [-67.03719, 10.45535], [-67.03235, 10.45632], [-67.0319, 10.45772], [-67.03016, 10.45904], [-67.02655, 10.46103], [-67.02355, 10.46026], [-67.02073, 10.46092], [-67.01937, 10.46191], [-67.0181, 10.461], [-67.01674, 10.46132], [-67.01555, 10.45851], [-67.01368, 10.45774], [-67.01243, 10.45654], [-67.01216, 10.45518], [-67.01093, 10.4546], [-67.00907, 10.45526], [-67.00819, 10.45628], [-67.00831, 10.45761], [-67.00793, 10.46022], [-67.00803, 10.46477], [-67.00751, 10.46661], [-67.00877, 10.46927], [-66.99902, 10.47128], [-67.00263, 10.47433], [-67.0018, 10.47544], [-66.99596, 10.47461], [-66.99596, 10.4785], [-66.99324, 10.47599], [-66.99302, 10.47744], [-66.99366, 10.47885], [-66.99351, 10.47995], [-66.99168, 10.48226], [-66.98996, 10.48232], [-66.98876, 10.48371], [-66.98736, 10.48417], [-66.98658, 10.48515], [-66.98609, 10.48838], [-66.98409, 10.48941], [-66.98383, 10.49152], [-66.98246, 10.49217], [-66.98191, 10.49361], [-66.98039, 10.49548], [-66.97776, 10.49515], [-66.97607, 10.49523]]]}, "properties": {"parroquia": "El Junquito", "nombre_original_hdx": "El Junquito", "municipio": "Libertador", "estado": "Distrito Capital", "pcode": "VE010107", "area_sqkm": 58.73882787}}, {"type": "Feature", "geometry": {"type": "Polygon", "coordinates": [[[-66.96361, 10.47322], [-66.95533, 10.47711], [-66.95364, 10.4783], [-66.94895, 10.48222], [-66.94652, 10.47629], [-66.94601, 10.47465], [-66.94475, 10.47446], [-66.94231, 10.4734], [-66.94151, 10.47155], [-66.93814, 10.47047], [-66.93645, 10.47136], [-66.93336, 10.47239], [-66.93397, 10.47412], [-66.9333, 10.47578], [-66.93176, 10.47687], [-66.93231, 10.47814], [-66.93214, 10.47968], [-66.93144, 10.48128], [-66.9281, 10.48302], [-66.92741, 10.483], [-66.92582, 10.4842], [-66.92418, 10.48468], [-66.92153, 10.48606], [-66.92011, 10.48593], [-66.91809, 10.48672], [-66.91729, 10.48631], [-66.91613, 10.48761], [-66.91608, 10.48886], [-66.91437, 10.48927], [-66.91534, 10.49149], [-66.91513, 10.49323], [-66.91741, 10.4915], [-66.91865, 10.49122], [-66.92054, 10.49201], [-66.9234, 10.49493], [-66.92529, 10.49594], [-66.92694, 10.49603], [-66.92853, 10.49548], [-66.93453, 10.492], [-66.93799, 10.48963], [-66.94052, 10.4884], [-66.94145, 10.49074], [-66.94094, 10.49113], [-66.94373, 10.49526], [-66.94386, 10.4968], [-66.94587, 10.49963], [-66.94804, 10.49897], [-66.9516, 10.49624], [-66.95618, 10.49543], [-66.9581, 10.49372], [-66.96001, 10.49315], [-66.96066, 10.49337], [-66.96285, 10.49532], [-66.96422, 10.49573], [-66.96573, 10.49757], [-66.96737, 10.49819], [-66.97136, 10.49699], [-66.97128, 10.49541], [-66.97053, 10.49378], [-66.96771, 10.48971], [-66.96689, 10.48908], [-66.96673, 10.48778], [-66.96752, 10.48555], [-66.96762, 10.48278], [-66.9671, 10.48177], [-66.96732, 10.47897], [-66.96483, 10.47573], [-66.96361, 10.47322]]]}, "properties": {"parroquia": "El Paraíso", "nombre_original_hdx": "El Paraíso", "municipio": "Libertador", "estado": "Distrito Capital", "pcode": "VE010108", "area_sqkm": 10.3434603}}, {"type": "Feature", "geometry": {"type": "Polygon", "coordinates": [[[-66.88061, 10.49057], [-66.87851, 10.49055], [-66.8745, 10.48765], [-66.87279, 10.48732], [-66.87048, 10.48768], [-66.869, 10.48751], [-66.86961, 10.48901], [-66.86951, 10.49139], [-66.87061, 10.49387], [-66.8697, 10.49434], [-66.86994, 10.49574], [-66.86911, 10.49763], [-66.8688, 10.49965], [-66.86762, 10.49985], [-66.86723, 10.50135], [-66.8662, 10.50252], [-66.86575, 10.50475], [-66.86414, 10.50565], [-66.86409, 10.50723], [-66.86337, 10.5075], [-66.86208, 10.50968], [-66.86135, 10.51258], [-66.86159, 10.51385], [-66.86392, 10.51476], [-66.86408, 10.51889], [-66.86332, 10.51977], [-66.86335, 10.52096], [-66.86621, 10.52437], [-66.86823, 10.52815], [-66.86882, 10.5299], [-66.87159, 10.53551], [-66.87187, 10.53698], [-66.87146, 10.53926], [-66.87196, 10.54346], [-66.87271, 10.54607], [-66.87576, 10.54314], [-66.87808, 10.54183], [-66.88137, 10.54158], [-66.88339, 10.54185], [-66.88754, 10.54383], [-66.89048, 10.54565], [-66.89068, 10.51546], [-66.89208, 10.51119], [-66.89338, 10.51071], [-66.89495, 10.50881], [-66.89556, 10.50712], [-66.89709, 10.50449], [-66.89599, 10.50204], [-66.89477, 10.49822], [-66.89424, 10.4974], [-66.89027, 10.49766], [-66.88778, 10.49736], [-66.88511, 10.49539], [-66.88542, 10.49366], [-66.88412, 10.49117], [-66.88191, 10.49036], [-66.88061, 10.49057]]]}, "properties": {"parroquia": "El Recreo", "nombre_original_hdx": "El Recreo", "municipio": "Libertador", "estado": "Distrito Capital", "pcode": "VE010109", "area_sqkm": 15.54573253}}, {"type": "Feature", "geometry": {"type": "Polygon", "coordinates": [[[-66.89014, 10.46451], [-66.89143, 10.46584], [-66.89065, 10.46776], [-66.89145, 10.46975], [-66.89053, 10.47047], [-66.89329, 10.47164], [-66.89348, 10.47289], [-66.89536, 10.47449], [-66.89599, 10.47419], [-66.90041, 10.4781], [-66.9016, 10.47668], [-66.90269, 10.47635], [-66.90378, 10.47419], [-66.90543, 10.47481], [-66.90588, 10.47381], [-66.90913, 10.47364], [-66.90962, 10.4722], [-66.91112, 10.47247], [-66.91351, 10.4703], [-66.9145, 10.47036], [-66.91586, 10.46868], [-66.91894, 10.46809], [-66.92131, 10.46694], [-66.92265, 10.46734], [-66.9264, 10.46583], [-66.92897, 10.46583], [-66.93112, 10.46358], [-66.93142, 10.46249], [-66.93298, 10.45998], [-66.93471, 10.4586], [-66.93358, 10.45744], [-66.93199, 10.45668], [-66.93137, 10.45579], [-66.92831, 10.45503], [-66.92673, 10.4551], [-66.92497, 10.45636], [-66.9242, 10.45637], [-66.92155, 10.4537], [-66.91933, 10.45235], [-66.92278, 10.44831], [-66.92358, 10.44612], [-66.92516, 10.4382], [-66.9252, 10.43663], [-66.92382, 10.43221], [-66.92395, 10.43041], [-66.92523, 10.42823], [-66.928, 10.42641], [-66.9292, 10.42501], [-66.92893, 10.42328], [-66.92817, 10.4226], [-66.92635, 10.42246], [-66.91992, 10.42395], [-66.91805, 10.42385], [-66.91492, 10.42147], [-66.91405, 10.41845], [-66.91242, 10.41653], [-66.91129, 10.41468], [-66.9102, 10.41365], [-66.90756, 10.41219], [-66.90717, 10.41083], [-66.9082, 10.4087], [-66.90393, 10.40815], [-66.90018, 10.40871], [-66.89881, 10.40954], [-66.89694, 10.41155], [-66.89568, 10.41203], [-66.89555, 10.41355], [-66.89653, 10.41686], [-66.89564, 10.41972], [-66.89821, 10.42203], [-66.89929, 10.42332], [-66.89998, 10.42513], [-66.90009, 10.42715], [-66.89977, 10.42955], [-66.89831, 10.4311], [-66.89747, 10.43421], [-66.89638, 10.43562], [-66.89681, 10.4372], [-66.89564, 10.43999], [-66.89602, 10.44257], [-66.89594, 10.4463], [-66.89649, 10.44795], [-66.89559, 10.44856], [-66.89464, 10.45039], [-66.89561, 10.45182], [-66.8922, 10.45643], [-66.89257, 10.45936], [-66.89205, 10.46056], [-66.89229, 10.46179], [-66.89149, 10.46288], [-66.89102, 10.46449], [-66.89014, 10.46451]]]}, "properties": {"parroquia": "El Valle", "nombre_original_hdx": "El Valle", "municipio": "Libertador", "estado": "Distrito Capital", "pcode": "VE010110", "area_sqkm": 20.85087021}}, {"type": "Feature", "geometry": {"type": "Polygon", "coordinates": [[[-66.92227, 10.51049], [-66.92182, 10.5113], [-66.92124, 10.51418], [-66.9183, 10.51355], [-66.91635, 10.51339], [-66.91587, 10.51747], [-66.91661, 10.51834], [-66.91626, 10.52008], [-66.91546, 10.52123], [-66.91604, 10.55266], [-66.91732, 10.55265], [-66.92253, 10.55153], [-66.9245, 10.55078], [-66.92806, 10.55008], [-66.92928, 10.54499], [-66.92949, 10.54188], [-66.9305, 10.53968], [-66.93098, 10.53716], [-66.93245, 10.53567], [-66.9332, 10.53546], [-66.93391, 10.53318], [-66.93334, 10.5324], [-66.93385, 10.53026], [-66.93522, 10.52762], [-66.93498, 10.52563], [-66.93396, 10.52409], [-66.93324, 10.52176], [-66.93404, 10.52049], [-66.93261, 10.5176], [-66.93259, 10.51591], [-66.93147, 10.51493], [-66.93155, 10.51396], [-66.92683, 10.51292], [-66.9256, 10.51208], [-66.92295, 10.51114], [-66.92227, 10.51049]]]}, "properties": {"parroquia": "La Pastora", "nombre_original_hdx": "La Pastora", "municipio": "Libertador", "estado": "Distrito Capital", "pcode": "VE010111", "area_sqkm": 7.51928825}}, {"type": "Feature", "geometry": {"type": "Polygon", "coordinates": [[[-66.93336, 10.47239], [-66.93645, 10.47136], [-66.93814, 10.47047], [-66.94151, 10.47155], [-66.94231, 10.4734], [-66.94475, 10.47446], [-66.94601, 10.47465], [-66.94652, 10.47629], [-66.94895, 10.48222], [-66.95364, 10.4783], [-66.95533, 10.47711], [-66.96361, 10.47322], [-66.97388, 10.46843], [-66.97622, 10.46695], [-66.97449, 10.46566], [-66.97229, 10.46584], [-66.96549, 10.46914], [-66.96216, 10.47011], [-66.96209, 10.46881], [-66.96117, 10.46708], [-66.96123, 10.46494], [-66.96207, 10.46263], [-66.96229, 10.46077], [-66.96407, 10.46065], [-66.96514, 10.45977], [-66.96622, 10.4599], [-66.96861, 10.45836], [-66.96878, 10.45636], [-66.96977, 10.4547], [-66.97038, 10.45212], [-66.96995, 10.45046], [-66.96992, 10.44968], [-66.96767, 10.44878], [-66.96713, 10.44732], [-66.9646, 10.4474], [-66.96275, 10.44652], [-66.96193, 10.44475], [-66.96068, 10.44493], [-66.95996, 10.44426], [-66.95763, 10.44384], [-66.95564, 10.44456], [-66.95368, 10.44358], [-66.9517, 10.44364], [-66.9492, 10.44466], [-66.94845, 10.44573], [-66.94693, 10.44665], [-66.94534, 10.44667], [-66.9422, 10.44719], [-66.94112, 10.45089], [-66.93788, 10.45326], [-66.9371, 10.45463], [-66.93726, 10.45635], [-66.93631, 10.45673], [-66.93558, 10.45813], [-66.93471, 10.4586], [-66.93298, 10.45998], [-66.93142, 10.46249], [-66.93112, 10.46358], [-66.92897, 10.46583], [-66.92933, 10.46741], [-66.93008, 10.46841], [-66.93184, 10.46922], [-66.9314, 10.47165], [-66.93336, 10.47239]]]}, "properties": {"parroquia": "La Vega", "nombre_original_hdx": "La Vega", "municipio": "Libertador", "estado": "Distrito Capital", "pcode": "VE010112", "area_sqkm": 11.45325634}}, {"type": "Feature", "geometry": {"type": "Polygon", "coordinates": [[[-67.04763, 10.45572], [-67.04926, 10.45651], [-67.04936, 10.45765], [-67.05055, 10.45999], [-67.05071, 10.46148], [-67.05214, 10.46348], [-67.05307, 10.46346], [-67.05512, 10.46155], [-67.05685, 10.45741], [-67.05938, 10.45677], [-67.06359, 10.45769], [-67.06456, 10.45696], [-67.06668, 10.45709], [-67.06836, 10.45793], [-67.06968, 10.45691], [-67.07054, 10.45466], [-67.07144, 10.45568], [-67.07235, 10.45575], [-67.07382, 10.45461], [-67.07618, 10.45502], [-67.07719, 10.45454], [-67.07831, 10.45617], [-67.08066, 10.45563], [-67.08104, 10.45432], [-67.08239, 10.4553], [-67.0852, 10.45498], [-67.08696, 10.45561], [-67.08871, 10.45424], [-67.08976, 10.45414], [-67.09115, 10.45307], [-67.09141, 10.4542], [-67.09284, 10.45385], [-67.09513, 10.45459], [-67.09984, 10.45461], [-67.10399, 10.45551], [-67.10669, 10.45702], [-67.10838, 10.45728], [-67.1132, 10.45977], [-67.11639, 10.45815], [-67.11978, 10.45893], [-67.12237, 10.45822], [-67.13131, 10.45362], [-67.13358, 10.45311], [-67.1378, 10.45146], [-67.14399, 10.44962], [-67.14554, 10.44738], [-67.14756, 10.44518], [-67.15073, 10.44212], [-67.15389, 10.44109], [-67.15665, 10.4409], [-67.1608, 10.43955], [-67.16191, 10.43715], [-67.16279, 10.43679], [-67.15898, 10.43347], [-67.1585, 10.43216], [-67.15861, 10.4308], [-67.1595, 10.4275], [-67.1583, 10.42548], [-67.16225, 10.42104], [-67.16262, 10.41783], [-67.16387, 10.41673], [-67.16338, 10.41413], [-67.15979, 10.4131], [-67.15762, 10.41358], [-67.15688, 10.41467], [-67.1552, 10.4161], [-67.1532, 10.41613], [-67.15158, 10.41551], [-67.14857, 10.41168], [-67.14169, 10.40912], [-67.14066, 10.40946], [-67.13784, 10.41113], [-67.13183, 10.40961], [-67.12851, 10.40941], [-67.12478, 10.40769], [-67.12202, 10.4075], [-67.11942, 10.40527], [-67.11867, 10.40553], [-67.11582, 10.40543], [-67.11334, 10.40488], [-67.10899, 10.40566], [-67.1064, 10.40389], [-67.10432, 10.40428], [-67.10282, 10.40535], [-67.09883, 10.40512], [-67.09467, 10.40609], [-67.09067, 10.40493], [-67.0869, 10.40126], [-67.08417, 10.39716], [-67.07973, 10.39301], [-67.07764, 10.39293], [-67.07415, 10.39384], [-67.07216, 10.39386], [-67.07074, 10.39428], [-67.06738, 10.3922], [-67.06433, 10.39135], [-67.06072, 10.39132], [-67.05709, 10.3898], [-67.0554, 10.39058], [-67.05032, 10.38798], [-67.04545, 10.38586], [-67.04473, 10.38635], [-67.04203, 10.38711], [-67.04081, 10.38804], [-67.03742, 10.3895], [-67.03616, 10.39094], [-67.03408, 10.39146], [-67.03181, 10.39167], [-67.02352, 10.39028], [-67.02143, 10.38945], [-67.01938, 10.38819], [-67.01737, 10.38648], [-67.01627, 10.38348], [-67.01455, 10.38318], [-67.0112, 10.38377], [-67.00815, 10.38506], [-67.00758, 10.38592], [-67.00379, 10.38662], [-67.002, 10.38666], [-66.99885, 10.38741], [-66.99768, 10.38847], [-66.99666, 10.39066], [-66.99549, 10.39232], [-66.99394, 10.39373], [-66.99232, 10.39447], [-66.98806, 10.39551], [-66.98545, 10.39728], [-66.98483, 10.39842], [-66.98322, 10.39849], [-66.98128, 10.40076], [-66.98209, 10.40382], [-66.98204, 10.40609], [-66.98252, 10.40822], [-66.98214, 10.40986], [-66.98297, 10.41166], [-66.98449, 10.41219], [-66.98332, 10.41421], [-66.985, 10.41688], [-66.98775, 10.41825], [-66.99057, 10.41914], [-66.99657, 10.41772], [-66.99778, 10.4182], [-66.99787, 10.41924], [-66.99933, 10.42083], [-67.00058, 10.42112], [-67.00355, 10.42282], [-67.00416, 10.42387], [-67.00516, 10.42363], [-67.00777, 10.42473], [-67.00965, 10.42444], [-67.0118, 10.42622], [-67.01479, 10.42564], [-67.01691, 10.42663], [-67.01807, 10.42848], [-67.01809, 10.43241], [-67.0189, 10.43543], [-67.01926, 10.43867], [-67.0205, 10.43902], [-67.02119, 10.44178], [-67.02379, 10.44318], [-67.02501, 10.44437], [-67.02665, 10.44481], [-67.0282, 10.44452], [-67.02925, 10.44614], [-67.03135, 10.44717], [-67.0329, 10.44623], [-67.03399, 10.44706], [-67.03701, 10.44792], [-67.03886, 10.44817], [-67.04133, 10.44811], [-67.04178, 10.44941], [-67.04546, 10.45152], [-67.04763, 10.45572]]]}, "properties": {"parroquia": "Macarao", "nombre_original_hdx": "Macarao", "municipio": "Libertador", "estado": "Distrito Capital", "pcode": "VE010113", "area_sqkm": 104.40731635}}, {"type": "Feature", "geometry": {"type": "Polygon", "coordinates": [[[-66.91083, 10.49066], [-66.90909, 10.49111], [-66.90826, 10.49022], [-66.90678, 10.4908], [-66.90311, 10.49164], [-66.90056, 10.49168], [-66.89967, 10.49224], [-66.8986, 10.49638], [-66.89698, 10.49716], [-66.89424, 10.4974], [-66.89477, 10.49822], [-66.89599, 10.50204], [-66.89784, 10.50078], [-66.90236, 10.50162], [-66.90329, 10.50065], [-66.90867, 10.50174], [-66.90915, 10.49927], [-66.90965, 10.49661], [-66.91067, 10.49686], [-66.9113, 10.49178], [-66.91083, 10.49066]]]}, "properties": {"parroquia": "San Agustín", "nombre_original_hdx": "San Agustín", "municipio": "Libertador", "estado": "Distrito Capital", "pcode": "VE010114", "area_sqkm": 1.55371325}}, {"type": "Feature", "geometry": {"type": "Polygon", "coordinates": [[[-66.89048, 10.54565], [-66.89231, 10.54754], [-66.89391, 10.54833], [-66.89862, 10.54933], [-66.90328, 10.55133], [-66.90679, 10.55154], [-66.90698, 10.52312], [-66.90758, 10.52222], [-66.90732, 10.52086], [-66.90488, 10.51738], [-66.90501, 10.51522], [-66.90456, 10.51379], [-66.90489, 10.51264], [-66.90299, 10.5092], [-66.9026, 10.50841], [-66.90283, 10.50583], [-66.90022, 10.50523], [-66.89903, 10.50663], [-66.89886, 10.50772], [-66.89777, 10.50947], [-66.89554, 10.51066], [-66.89266, 10.51361], [-66.89202, 10.51505], [-66.89068, 10.51546], [-66.89048, 10.54565]]]}, "properties": {"parroquia": "San Bernardino", "nombre_original_hdx": "San Bernandino", "municipio": "Libertador", "estado": "Distrito Capital", "pcode": "VE010115", "area_sqkm": 7.61041906}}, {"type": "Feature", "geometry": {"type": "Polygon", "coordinates": [[[-66.90299, 10.5092], [-66.90489, 10.51264], [-66.90456, 10.51379], [-66.90501, 10.51522], [-66.90488, 10.51738], [-66.90732, 10.52086], [-66.90758, 10.52222], [-66.90698, 10.52312], [-66.90679, 10.55154], [-66.91129, 10.55188], [-66.9109, 10.51761], [-66.91177, 10.51777], [-66.91263, 10.51359], [-66.91119, 10.51377], [-66.9118, 10.51094], [-66.90823, 10.51012], [-66.90299, 10.5092]]]}, "properties": {"parroquia": "San José", "nombre_original_hdx": "San José", "municipio": "Libertador", "estado": "Distrito Capital", "pcode": "VE010116", "area_sqkm": 2.4127559}}, {"type": "Feature", "geometry": {"type": "Polygon", "coordinates": [[[-66.92396, 10.50553], [-66.92335, 10.50428], [-66.92624, 10.50331], [-66.92917, 10.50309], [-66.9333, 10.50253], [-66.93601, 10.50361], [-66.93895, 10.50345], [-66.94084, 10.50289], [-66.94381, 10.50268], [-66.9445, 10.50215], [-66.94516, 10.49958], [-66.94587, 10.49963], [-66.94386, 10.4968], [-66.94373, 10.49526], [-66.94094, 10.49113], [-66.94145, 10.49074], [-66.94052, 10.4884], [-66.93799, 10.48963], [-66.93453, 10.492], [-66.92853, 10.49548], [-66.92694, 10.49603], [-66.92529, 10.49594], [-66.9234, 10.49493], [-66.92054, 10.49201], [-66.92043, 10.49218], [-66.91795, 10.50378], [-66.9196, 10.5043], [-66.91974, 10.50539], [-66.92187, 10.50506], [-66.92396, 10.50553]]]}, "properties": {"parroquia": "San Juan", "nombre_original_hdx": "San Juan", "municipio": "Libertador", "estado": "Distrito Capital", "pcode": "VE010117", "area_sqkm": 3.21184248}}, {"type": "Feature", "geometry": {"type": "Polygon", "coordinates": [[[-66.88061, 10.49057], [-66.88191, 10.49036], [-66.88412, 10.49117], [-66.88542, 10.49366], [-66.88511, 10.49539], [-66.88778, 10.49736], [-66.89027, 10.49766], [-66.89424, 10.4974], [-66.89698, 10.49716], [-66.8986, 10.49638], [-66.89967, 10.49224], [-66.90056, 10.49168], [-66.90311, 10.49164], [-66.90678, 10.4908], [-66.90826, 10.49022], [-66.90909, 10.49111], [-66.91083, 10.49066], [-66.91127, 10.49029], [-66.91109, 10.48822], [-66.90965, 10.4862], [-66.90041, 10.4781], [-66.89599, 10.47419], [-66.89536, 10.47449], [-66.89348, 10.47289], [-66.89329, 10.47164], [-66.89053, 10.47047], [-66.89145, 10.46975], [-66.89065, 10.46776], [-66.89143, 10.46584], [-66.89014, 10.46451], [-66.88774, 10.46638], [-66.88754, 10.46702], [-66.88535, 10.46921], [-66.88382, 10.47], [-66.88348, 10.47134], [-66.88154, 10.47099], [-66.88097, 10.47208], [-66.88187, 10.47452], [-66.88173, 10.4758], [-66.88319, 10.47566], [-66.88361, 10.47786], [-66.88297, 10.47864], [-66.88331, 10.4799], [-66.88214, 10.48064], [-66.88301, 10.48159], [-66.88207, 10.48468], [-66.88255, 10.48563], [-66.8815, 10.48669], [-66.88037, 10.48701], [-66.881, 10.48818], [-66.88033, 10.48962], [-66.88061, 10.49057]]]}, "properties": {"parroquia": "San Pedro", "nombre_original_hdx": "San Pedro", "municipio": "Libertador", "estado": "Distrito Capital", "pcode": "VE010118", "area_sqkm": 6.55567204}}, {"type": "Feature", "geometry": {"type": "Polygon", "coordinates": [[[-66.93336, 10.47239], [-66.9314, 10.47165], [-66.93184, 10.46922], [-66.93008, 10.46841], [-66.92933, 10.46741], [-66.92897, 10.46583], [-66.9264, 10.46583], [-66.92265, 10.46734], [-66.92131, 10.46694], [-66.91894, 10.46809], [-66.91586, 10.46868], [-66.9145, 10.47036], [-66.91351, 10.4703], [-66.91112, 10.47247], [-66.90962, 10.4722], [-66.90913, 10.47364], [-66.90588, 10.47381], [-66.90543, 10.47481], [-66.90378, 10.47419], [-66.90269, 10.47635], [-66.9016, 10.47668], [-66.90041, 10.4781], [-66.90965, 10.4862], [-66.91109, 10.48822], [-66.91127, 10.49029], [-66.91083, 10.49066], [-66.9113, 10.49178], [-66.91067, 10.49686], [-66.90965, 10.49661], [-66.90915, 10.49927], [-66.91026, 10.49953], [-66.90997, 10.50137], [-66.9116, 10.50109], [-66.91367, 10.50157], [-66.91513, 10.49323], [-66.91534, 10.49149], [-66.91437, 10.48927], [-66.91608, 10.48886], [-66.91613, 10.48761], [-66.91729, 10.48631], [-66.91809, 10.48672], [-66.92011, 10.48593], [-66.92153, 10.48606], [-66.92418, 10.48468], [-66.92582, 10.4842], [-66.92741, 10.483], [-66.9281, 10.48302], [-66.93144, 10.48128], [-66.93214, 10.47968], [-66.93231, 10.47814], [-66.93176, 10.47687], [-66.9333, 10.47578], [-66.93397, 10.47412], [-66.93336, 10.47239]]]}, "properties": {"parroquia": "Santa Rosalía", "nombre_original_hdx": "Santa Rosalía", "municipio": "Libertador", "estado": "Distrito Capital", "pcode": "VE010119", "area_sqkm": 6.21578897}}, {"type": "Feature", "geometry": {"type": "Polygon", "coordinates": [[[-66.92054, 10.49201], [-66.91865, 10.49122], [-66.91741, 10.4915], [-66.91513, 10.49323], [-66.91367, 10.50157], [-66.91488, 10.50186], [-66.91468, 10.50302], [-66.91795, 10.50378], [-66.92043, 10.49218], [-66.92054, 10.49201]]]}, "properties": {"parroquia": "Santa Teresa", "nombre_original_hdx": "Santa Teresa", "municipio": "Libertador", "estado": "Distrito Capital", "pcode": "VE010120", "area_sqkm": 0.66299781}}, {"type": "Feature", "geometry": {"type": "Polygon", "coordinates": [[[-66.92806, 10.55008], [-66.93085, 10.54952], [-66.93428, 10.54928], [-66.93784, 10.54639], [-66.94409, 10.54322], [-66.94873, 10.54322], [-66.95213, 10.54346], [-66.95373, 10.5439], [-66.95669, 10.54648], [-66.9608, 10.54849], [-66.96513, 10.54949], [-66.9673, 10.55072], [-66.96842, 10.55203], [-66.97261, 10.55388], [-66.98423, 10.55931], [-66.99139, 10.56089], [-66.99652, 10.5618], [-67.00205, 10.56245], [-67.00868, 10.5624], [-67.00961, 10.56131], [-67.01151, 10.56248], [-67.01422, 10.56255], [-67.01744, 10.56073], [-67.01953, 10.55867], [-67.02294, 10.55385], [-67.02571, 10.55191], [-67.02823, 10.55086], [-67.02936, 10.55089], [-67.03078, 10.54978], [-67.02826, 10.5358], [-67.0268, 10.53572], [-67.02446, 10.535], [-67.02263, 10.53128], [-67.02096, 10.53128], [-67.02041, 10.53211], [-67.01874, 10.53183], [-67.01846, 10.53267], [-67.01569, 10.53295], [-67.01319, 10.53183], [-67.01263, 10.53295], [-67.01069, 10.53267], [-67.00846, 10.53378], [-67.00735, 10.53489], [-67.00624, 10.53378], [-67.00346, 10.53628], [-67.00291, 10.53433], [-67.00069, 10.53267], [-66.9993, 10.53128], [-66.99659, 10.53076], [-66.99426, 10.52996], [-66.9962, 10.52781], [-66.99577, 10.52711], [-66.99288, 10.52759], [-66.99274, 10.52713], [-66.99356, 10.52413], [-66.99488, 10.52162], [-66.9943, 10.52017], [-66.99652, 10.51683], [-66.99707, 10.51433], [-67.00013, 10.51183], [-67.00041, 10.50906], [-66.99985, 10.50683], [-66.99767, 10.50541], [-66.9986, 10.50339], [-66.99688, 10.50326], [-66.99427, 10.50233], [-66.99219, 10.50243], [-66.99283, 10.50029], [-66.98948, 10.49969], [-66.99036, 10.49625], [-66.99025, 10.49481], [-66.98878, 10.49503], [-66.98733, 10.49362], [-66.98674, 10.49511], [-66.9849, 10.4963], [-66.98253, 10.49836], [-66.98094, 10.49712], [-66.97848, 10.49718], [-66.97738, 10.49594], [-66.97607, 10.49523], [-66.97424, 10.49619], [-66.97136, 10.49699], [-66.96737, 10.49819], [-66.96573, 10.49757], [-66.96422, 10.49573], [-66.96285, 10.49532], [-66.96066, 10.49337], [-66.96001, 10.49315], [-66.9581, 10.49372], [-66.95618, 10.49543], [-66.9516, 10.49624], [-66.94804, 10.49897], [-66.94587, 10.49963], [-66.94663, 10.50138], [-66.94752, 10.50222], [-66.9468, 10.5052], [-66.94619, 10.50629], [-66.94531, 10.51055], [-66.94078, 10.50969], [-66.94063, 10.50857], [-66.93955, 10.50789], [-66.93907, 10.50612], [-66.93713, 10.5086], [-66.93538, 10.50858], [-66.93471, 10.50922], [-66.93471, 10.51188], [-66.93262, 10.5142], [-66.93155, 10.51396], [-66.93147, 10.51493], [-66.93259, 10.51591], [-66.93261, 10.5176], [-66.93404, 10.52049], [-66.93324, 10.52176], [-66.93396, 10.52409], [-66.93498, 10.52563], [-66.93522, 10.52762], [-66.93385, 10.53026], [-66.93334, 10.5324], [-66.93391, 10.53318], [-66.9332, 10.53546], [-66.93245, 10.53567], [-66.93098, 10.53716], [-66.9305, 10.53968], [-66.92949, 10.54188], [-66.92928, 10.54499], [-66.92806, 10.55008]]]}, "properties": {"parroquia": "Sucre", "nombre_original_hdx": "Sucre", "municipio": "Libertador", "estado": "Distrito Capital", "pcode": "VE010121", "area_sqkm": 50.70001361}}, {"type": "Feature", "geometry": {"type": "Polygon", "coordinates": [[[-66.94587, 10.49963], [-66.94516, 10.49958], [-66.9445, 10.50215], [-66.94381, 10.50268], [-66.94084, 10.50289], [-66.93895, 10.50345], [-66.93601, 10.50361], [-66.9333, 10.50253], [-66.92917, 10.50309], [-66.92624, 10.50331], [-66.92335, 10.50428], [-66.92396, 10.50553], [-66.92427, 10.50727], [-66.92321, 10.50712], [-66.92253, 10.51024], [-66.92295, 10.51114], [-66.9256, 10.51208], [-66.92683, 10.51292], [-66.93155, 10.51396], [-66.93262, 10.5142], [-66.93471, 10.51188], [-66.93471, 10.50922], [-66.93538, 10.50858], [-66.93713, 10.5086], [-66.93907, 10.50612], [-66.93955, 10.50789], [-66.94063, 10.50857], [-66.94078, 10.50969], [-66.94531, 10.51055], [-66.94619, 10.50629], [-66.9468, 10.5052], [-66.94752, 10.50222], [-66.94663, 10.50138], [-66.94587, 10.49963]]]}, "properties": {"parroquia": "23 de Enero", "nombre_original_hdx": "23 de Enero", "municipio": "Libertador", "estado": "Distrito Capital", "pcode": "VE010122", "area_sqkm": 2.24878105}}]}