{"type": "FeatureCollection", "features": [{"type": "Feature", "properties": {"parroquia": "Capital Bolívar", "municipio": "Bolívar", "estado": "Aragua", "pcode": "VE050101", "estado_pcode": "VE05", "municipio_pcode": "VE0501", "center_lat": 10.250126, "center_lon": -67.40816764, "area_sqkm": 56.33368143}, "geometry": {"type": "Polygon", "coordinates": [[[-67.43811499999987, 10.188214], [-67.382999, 10.216209], [-67.37617299999988, 10.216718], [-67.373933, 10.225023], [-67.376345, 10.235919000000138], [-67.38684699999988, 10.253963], [-67.392437, 10.270743], [-67.399158, 10.312795000000108], [-67.400155, 10.313693000000171], [-67.404706, 10.288197], [-67.416564, 10.276824000000147], [-67.427831, 10.272913000000187], [-67.43216399999989, 10.248618000000135], [-67.441271, 10.234859], [-67.454064, 10.230694], [-67.45577099999986, 10.226881000000162], [-67.452044, 10.207761], [-67.43811499999987, 10.188214]]]}}, {"type": "Feature", "properties": {"parroquia": "Camatagua", "municipio": "Camatagua", "estado": "Aragua", "pcode": "VE050201", "estado_pcode": "VE05", "municipio_pcode": "VE0502", "center_lat": 9.78722233, "center_lon": -66.93691862, "area_sqkm": 553.78684054}, "geometry": {"type": "Polygon", "coordinates": [[[-66.974028, 9.909481], [-67.049436, 9.903080000000102], [-67.058757, 9.895789], [-67.06927, 9.894356], [-67.068286, 9.887023000000113], [-67.07143999999988, 9.882807000000128], [-67.095742, 9.888856], [-67.09804899999989, 9.886201000000142], [-67.098992, 9.873525], [-67.107222, 9.8716960000001], [-67.104572, 9.868758000000184], [-67.10604599999988, 9.864045000000147], [-67.101687, 9.853443], [-67.11984925999997, 9.829475250000087], [-67.11304903899997, 9.828514213000062], [-67.11238519199992, 9.826515521999966], [-67.10697871399998, 9.817580969000176], [-67.11389098399997, 9.812145795000049], [-67.11492098399992, 9.80329056200003], [-67.10558447999989, 9.786913189000018], [-67.10025723399991, 9.784203152999964], [-67.09290294399989, 9.788529305000168], [-67.08157143099999, 9.78571729700002], [-67.07031798099996, 9.793803563000097], [-67.05500727999993, 9.787531480000098], [-67.0459759179999, 9.793862693000051], [-67.03717950999993, 9.788499610000088], [-67.03728546199994, 9.779156362000094], [-67.03361924599989, 9.76901313000019], [-67.02738493699991, 9.762226987000133], [-67.00207278699997, 9.755433947000085], [-66.99746059199992, 9.75637900300012], [-66.9921133449999, 9.753047938000122], [-66.9825489559999, 9.758971145000032], [-66.97541062299985, 9.754751074000183], [-66.97138639799994, 9.746114873000181], [-66.9656281199999, 9.740726774000109], [-66.96415996899992, 9.72543738100012], [-66.9584166919999, 9.721267312000123], [-66.96346101399985, 9.693874897000057], [-66.9466140319999, 9.693533660000128], [-66.93774259799989, 9.684952485000053], [-66.91542162399992, 9.685628623000014], [-66.90922531299998, 9.679494503000171], [-66.9006509329999, 9.676788482000177], [-66.87878898999992, 9.679540668000186], [-66.86169018599992, 9.66886149100003], [-66.85027865699988, 9.665177449000055], [-66.846021, 9.669443000000115], [-66.847771, 9.67721100000017], [-66.83590699999985, 9.691763], [-66.83698999999984, 9.698791], [-66.829662, 9.703671], [-66.831681, 9.715755], [-66.825679, 9.719818], [-66.817061, 9.72049], [-66.81579499999987, 9.722729], [-66.82028699999984, 9.725859], [-66.814399, 9.729946], [-66.81250199999988, 9.735264], [-66.812811, 9.739713000000108], [-66.81833699999987, 9.742170000000158], [-66.815185, 9.747841], [-66.81708, 9.753949], [-66.8307989999999, 9.758256], [-66.830839, 9.7651350000001], [-66.838095, 9.774661000000151], [-66.8356639999999, 9.78494400000011], [-66.841786, 9.799396000000172], [-66.841851, 9.816385], [-66.854161, 9.831048], [-66.846783, 9.844106], [-66.8378699999999, 9.847273], [-66.841192, 9.85079700000017], [-66.839207, 9.854318], [-66.841692, 9.858342], [-66.853531, 9.864222], [-66.86448499999989, 9.86058300000019], [-66.860328, 9.85717], [-66.866493, 9.856947000000105], [-66.868656, 9.860534], [-66.865494, 9.862995000000126], [-66.864846, 9.868082000000186], [-66.8622309999999, 9.867336], [-66.859639, 9.871886000000188], [-66.860628, 9.878908000000138], [-66.8576149999999, 9.884396000000152], [-66.86195, 9.889346000000103], [-66.86110299999984, 9.893878], [-66.974028, 9.909481]]]}}, {"type": "Feature", "properties": {"parroquia": "No Urbana Carmen de Cura", "municipio": "Camatagua", "estado": "Aragua", "pcode": "VE050202", "estado_pcode": "VE05", "municipio_pcode": "VE0502", "center_lat": 9.857409, "center_lon": -66.76831172, "area_sqkm": 361.10337116}, "geometry": {"type": "Polygon", "coordinates": [[[-66.81250199999988, 9.735264], [-66.806502, 9.733307000000138], [-66.804236, 9.739278000000127], [-66.792704, 9.74258900000018], [-66.782331, 9.73625], [-66.772994, 9.740243], [-66.76218199999983, 9.740117000000112], [-66.75901, 9.73688200000015], [-66.745019, 9.734690000000171], [-66.740633, 9.736103000000185], [-66.72714, 9.750592000000154], [-66.721533, 9.763443000000109], [-66.72058, 9.791309], [-66.72154399999988, 9.796442000000184], [-66.726324, 9.800828], [-66.694296, 9.820495000000108], [-66.70326128199991, 9.98141889600015], [-66.791903, 9.965443000000107], [-66.798143, 9.960638], [-66.797892, 9.950762], [-66.808409, 9.946886000000177], [-66.813325, 9.938993], [-66.818531, 9.91351200000014], [-66.828323, 9.909791], [-66.84919299999984, 9.89372], [-66.86110299999984, 9.893878], [-66.86195, 9.889346000000103], [-66.8576149999999, 9.884396000000152], [-66.860628, 9.878908000000138], [-66.859639, 9.871886000000188], [-66.8622309999999, 9.867336], [-66.864846, 9.868082000000186], [-66.865494, 9.862995000000126], [-66.868656, 9.860534], [-66.866493, 9.856947000000105], [-66.860328, 9.85717], [-66.86448499999989, 9.86058300000019], [-66.853531, 9.864222], [-66.841692, 9.858342], [-66.839207, 9.854318], [-66.841192, 9.85079700000017], [-66.8378699999999, 9.847273], [-66.846783, 9.844106], [-66.854161, 9.831048], [-66.841851, 9.816385], [-66.841786, 9.799396000000172], [-66.8356639999999, 9.78494400000011], [-66.838095, 9.774661000000151], [-66.830839, 9.7651350000001], [-66.8307989999999, 9.758256], [-66.81708, 9.753949], [-66.815185, 9.747841], [-66.81833699999987, 9.742170000000158], [-66.812811, 9.739713000000108], [-66.81250199999988, 9.735264]]]}}, {"type": "Feature", "properties": {"parroquia": "No Urbana Choroni", "municipio": "Girardot", "estado": "Aragua", "pcode": "VE050302", "estado_pcode": "VE05", "municipio_pcode": "VE0503", "center_lat": 10.4374315, "center_lon": -67.60843856, "area_sqkm": 127.90403547}, "geometry": {"type": "Polygon", "coordinates": [[[-67.556466, 10.362448], [-67.56511, 10.374563], [-67.5726489999999, 10.396347000000162], [-67.572402, 10.426231], [-67.566961, 10.452902000000108], [-67.569854, 10.466751], [-67.568247, 10.487412000000177], [-67.57159899999988, 10.497964000000138], [-67.568126, 10.512611], [-67.56466470999999, 10.516510966000112], [-67.56931892199998, 10.518104552000182], [-67.57649419599989, 10.51023230200002], [-67.58315046999996, 10.507840203000114], [-67.59555799699984, 10.506826096000111], [-67.59854315799993, 10.512365221000039], [-67.60432441899997, 10.512665195000181], [-67.61775193799997, 10.502802862000124], [-67.63833781899996, 10.500441674000172], [-67.64469467799995, 10.50217626000017], [-67.647071, 10.48938], [-67.657873, 10.46408600000018], [-67.63402899999988, 10.417002000000139], [-67.6277429999999, 10.399233], [-67.627667, 10.392187], [-67.63429, 10.382781], [-67.631057, 10.371337], [-67.632175, 10.365587], [-67.622647, 10.360844], [-67.60483499999987, 10.363157000000115], [-67.57376099999988, 10.356413], [-67.556466, 10.362448]]]}}, {"type": "Feature", "properties": {"parroquia": "Urbana las Delicias", "municipio": "Girardot", "estado": "Aragua", "pcode": "VE050303", "estado_pcode": "VE05", "municipio_pcode": "VE0503", "center_lat": 10.299786, "center_lon": -67.55976013, "area_sqkm": 77.12626869}, "geometry": {"type": "Polygon", "coordinates": [[[-67.526936, 10.292041], [-67.53131499999984, 10.29873], [-67.529386, 10.307898], [-67.53161699999987, 10.316446], [-67.53061, 10.338866], [-67.53620199999989, 10.348959], [-67.556466, 10.362448], [-67.57376099999988, 10.356413], [-67.60483499999987, 10.363157000000115], [-67.622647, 10.360844], [-67.609263, 10.353547], [-67.59626, 10.339028], [-67.58746799999989, 10.328365000000133], [-67.58783999999986, 10.283425], [-67.585143, 10.270101], [-67.58788199999987, 10.265328000000181], [-67.5771749999999, 10.255932], [-67.577812, 10.253668000000175], [-67.565116, 10.249023], [-67.564109, 10.245694000000128], [-67.553719, 10.238393], [-67.54924, 10.24576], [-67.542843, 10.245286000000135], [-67.539321, 10.251072000000136], [-67.539165, 10.259960000000149], [-67.543174, 10.263853], [-67.54165199999989, 10.269657], [-67.526936, 10.292041]]]}}, {"type": "Feature", "properties": {"parroquia": "Urbana Madre María de San José", "municipio": "Girardot", "estado": "Aragua", "pcode": "VE050304", "estado_pcode": "VE05", "municipio_pcode": "VE0503", "center_lat": 10.259201, "center_lon": -67.5912882, "area_sqkm": 10.45578946}, "geometry": {"type": "Polygon", "coordinates": [[[-67.587405, 10.243819], [-67.55511, 10.235120000000109], [-67.553719, 10.238393], [-67.564109, 10.245694000000128], [-67.565116, 10.249023], [-67.577812, 10.253668000000175], [-67.5771749999999, 10.255932], [-67.58788199999987, 10.265328000000181], [-67.585143, 10.270101], [-67.58783999999986, 10.283425], [-67.59849999999989, 10.276687000000152], [-67.603356, 10.269979], [-67.600968, 10.263861000000134], [-67.602103, 10.247232], [-67.587405, 10.243819]]]}}, {"type": "Feature", "properties": {"parroquia": "Urbana Joaquín Crespo", "municipio": "Girardot", "estado": "Aragua", "pcode": "VE050305", "estado_pcode": "VE05", "municipio_pcode": "VE0503", "center_lat": 10.232021, "center_lon": -67.57127714, "area_sqkm": 6.1085753}, "geometry": {"type": "Polygon", "coordinates": [[[-67.56207, 10.22034], [-67.556021, 10.228606], [-67.555392, 10.233699000000115], [-67.55511, 10.235120000000109], [-67.587405, 10.243819], [-67.587576, 10.227271], [-67.562132, 10.220123], [-67.56207, 10.22034]]]}}, {"type": "Feature", "properties": {"parroquia": "Urbana Pedro José Ovalles", "municipio": "Girardot", "estado": "Aragua", "pcode": "VE050306", "estado_pcode": "VE05", "municipio_pcode": "VE0503", "center_lat": 10.2162005, "center_lon": -67.57945294, "area_sqkm": 5.71317641}, "geometry": {"type": "Polygon", "coordinates": [[[-67.594858, 10.203913000000114], [-67.578583, 10.206531], [-67.568974, 10.213618], [-67.562132, 10.220123], [-67.587576, 10.227271], [-67.591963, 10.224157], [-67.594858, 10.203913000000114]]]}}, {"type": "Feature", "properties": {"parroquia": "Urbana José Casanova Godoy", "municipio": "Girardot", "estado": "Aragua", "pcode": "VE050307", "estado_pcode": "VE05", "municipio_pcode": "VE0503", "center_lat": 10.224248, "center_lon": -67.59961322, "area_sqkm": 8.88923813}, "geometry": {"type": "Polygon", "coordinates": [[[-67.587405, 10.243819], [-67.602103, 10.247232], [-67.61046587699991, 10.211571301000049], [-67.60919143399997, 10.200993869000115], [-67.604385, 10.201693000000148], [-67.594858, 10.203913000000114], [-67.591963, 10.224157], [-67.587576, 10.227271], [-67.587405, 10.243819]]]}}, {"type": "Feature", "properties": {"parroquia": "Urbana Andrés Eloy Blanco", "municipio": "Girardot", "estado": "Aragua", "pcode": "VE050308", "estado_pcode": "VE05", "municipio_pcode": "VE0503", "center_lat": 10.2747185, "center_lon": -67.60488076, "area_sqkm": 18.03785569}, "geometry": {"type": "Polygon", "coordinates": [[[-67.58783999999986, 10.283425], [-67.58746799999989, 10.328365000000133], [-67.59626, 10.339028], [-67.595113, 10.333362], [-67.59949199999983, 10.330336000000159], [-67.602559, 10.318293], [-67.59720799999985, 10.304569000000185], [-67.603182, 10.282108000000164], [-67.60941899999989, 10.279892000000132], [-67.60786699999989, 10.267789], [-67.612191, 10.262418], [-67.616113, 10.248329], [-67.615267, 10.242397], [-67.620282, 10.235357], [-67.62412199499988, 10.217312969000147], [-67.62265944599994, 10.218812424000134], [-67.62284444599987, 10.217073369000047], [-67.61624715299996, 10.216624400000114], [-67.61545810099994, 10.213583325000116], [-67.61361702799996, 10.214560366], [-67.61046587699991, 10.211571301000049], [-67.602103, 10.247232], [-67.600968, 10.263861000000134], [-67.603356, 10.269979], [-67.59849999999989, 10.276687000000152], [-67.58783999999986, 10.283425]]]}}, {"type": "Feature", "properties": {"parroquia": "Urbana los Tacariguas", "municipio": "Girardot", "estado": "Aragua", "pcode": "VE050309", "estado_pcode": "VE05", "municipio_pcode": "VE0503", "center_lat": 10.27862516, "center_lon": -67.65755078, "area_sqkm": 34.8876102}, "geometry": {"type": "Polygon", "coordinates": [[[-67.62412199499988, 10.217312969000147], [-67.620282, 10.235357], [-67.615267, 10.242397], [-67.616113, 10.248329], [-67.612191, 10.262418], [-67.60786699999989, 10.267789], [-67.60941899999989, 10.279892000000132], [-67.603182, 10.282108000000164], [-67.59720799999985, 10.304569000000185], [-67.602559, 10.318293], [-67.59949199999983, 10.330336000000159], [-67.595113, 10.333362], [-67.59626, 10.339028], [-67.608223, 10.32612300000011], [-67.61441899999988, 10.300049000000115], [-67.61586299999988, 10.284115000000156], [-67.613934, 10.281649], [-67.616146, 10.280769], [-67.615606, 10.27560000000011], [-67.618315, 10.275493000000154], [-67.614183, 10.269334000000185], [-67.615229, 10.263634], [-67.62986099999989, 10.265343], [-67.637348, 10.26009], [-67.640875, 10.260332000000176], [-67.65207609399982, 10.280922863000058], [-67.66327557199992, 10.27964176200004], [-67.66629161099996, 10.263868329000104], [-67.67992212799999, 10.252042951000078], [-67.67251275199993, 10.24331576200018], [-67.67523291899994, 10.251806969000086], [-67.67115475999992, 10.253837044000136], [-67.6633053509999, 10.24230179500006], [-67.65699705499992, 10.238555727000062], [-67.65745005199994, 10.234132609000028], [-67.64775061299997, 10.230678587000057], [-67.6368930839999, 10.222286428000132], [-67.62835269899989, 10.21879238200006], [-67.62441653299999, 10.219584429000122], [-67.62412199499988, 10.217312969000147]]]}}, {"type": "Feature", "properties": {"parroquia": "Capital José Ángel Lamas", "municipio": "José Ángel Lamas", "estado": "Aragua", "pcode": "VE050401", "estado_pcode": "VE05", "municipio_pcode": "VE0504", "center_lat": 10.1603535, "center_lon": -67.50721304, "area_sqkm": 27.01470579}, "geometry": {"type": "Polygon", "coordinates": [[[-67.488934, 10.185121], [-67.502757, 10.182317000000126], [-67.509799, 10.188082000000179], [-67.52490499999988, 10.188686], [-67.531388, 10.180942], [-67.52919, 10.180822], [-67.53219, 10.17327900000015], [-67.532259, 10.162134], [-67.533289, 10.132596], [-67.516276, 10.130954], [-67.516314, 10.134931000000165], [-67.512553, 10.133491], [-67.50713, 10.136571000000117], [-67.50853199999983, 10.142307], [-67.492615, 10.146597], [-67.483905, 10.150575000000117], [-67.483874, 10.15284], [-67.479939, 10.152141], [-67.488934, 10.185121]]]}}, {"type": "Feature", "properties": {"parroquia": "Urbana Juan Vicente Bolívar y Ponte", "municipio": "José Félix Ribas", "estado": "Aragua", "pcode": "VE050501", "estado_pcode": "VE05", "municipio_pcode": "VE0505", "center_lat": 10.273404, "center_lon": -67.3581203, "area_sqkm": 124.10556137}, "geometry": {"type": "Polygon", "coordinates": [[[-67.317482, 10.221917000000133], [-67.324696, 10.220424], [-67.325079, 10.224871000000121], [-67.31249499999984, 10.232622], [-67.309943, 10.248954], [-67.324297, 10.257583], [-67.324815, 10.271671], [-67.297316, 10.313457], [-67.2906, 10.317811000000177], [-67.28723, 10.323614], [-67.279961, 10.32537600000012], [-67.28046199999983, 10.334274], [-67.275142, 10.339374000000134], [-67.274824, 10.343796], [-67.298523, 10.351155], [-67.399158, 10.312795000000108], [-67.392437, 10.270743], [-67.38684699999988, 10.253963], [-67.376345, 10.235919000000138], [-67.373933, 10.225023], [-67.37617299999988, 10.216718], [-67.382999, 10.216209], [-67.3436099999999, 10.196965], [-67.329192, 10.208275], [-67.310509, 10.212585], [-67.308075, 10.220365000000129], [-67.318843, 10.220984], [-67.317482, 10.221917000000133]]]}}, {"type": "Feature", "properties": {"parroquia": "Urbana Castor Nieves Ríos", "municipio": "José Félix Ribas", "estado": "Aragua", "pcode": "VE050502", "estado_pcode": "VE05", "municipio_pcode": "VE0505", "center_lat": 10.273404, "center_lon": -67.30902762, "area_sqkm": 28.41392593}, "geometry": {"type": "Polygon", "coordinates": [[[-67.294017, 10.221126], [-67.295438, 10.269181000000117], [-67.293767, 10.27868], [-67.280133, 10.299516], [-67.276786, 10.311043], [-67.279961, 10.32537600000012], [-67.28723, 10.323614], [-67.2906, 10.317811000000177], [-67.297316, 10.313457], [-67.324815, 10.271671], [-67.324297, 10.257583], [-67.309943, 10.248954], [-67.31249499999984, 10.232622], [-67.325079, 10.224871000000121], [-67.324696, 10.220424], [-67.317482, 10.221917000000133], [-67.294017, 10.221126]]]}}, {"type": "Feature", "properties": {"parroquia": "No Urbana las Guacamayas", "municipio": "José Félix Ribas", "estado": "Aragua", "pcode": "VE050503", "estado_pcode": "VE05", "municipio_pcode": "VE0505", "center_lat": 10.1995445, "center_lon": -67.3101515, "area_sqkm": 27.77570895}, "geometry": {"type": "Polygon", "coordinates": [[[-67.259969, 10.177349000000106], [-67.293803, 10.212078000000133], [-67.294017, 10.221126], [-67.317482, 10.221917000000133], [-67.318843, 10.220984], [-67.308075, 10.220365000000129], [-67.310509, 10.212585], [-67.329192, 10.208275], [-67.3436099999999, 10.196965], [-67.334344, 10.181905000000143], [-67.32994699999989, 10.17457], [-67.259969, 10.177349000000106]]]}}, {"type": "Feature", "properties": {"parroquia": "No Urbana Pao de Zarate", "municipio": "José Félix Ribas", "estado": "Aragua", "pcode": "VE050504", "estado_pcode": "VE05", "municipio_pcode": "VE0505", "center_lat": 10.1331215, "center_lon": -67.2726063, "area_sqkm": 138.14939267}, "geometry": {"type": "Polygon", "coordinates": [[[-67.208223, 10.172570000000121], [-67.259969, 10.177349000000106], [-67.32994699999989, 10.17457], [-67.334344, 10.181905000000143], [-67.343494, 10.126318], [-67.334691, 10.111516], [-67.332663, 10.09709800000013], [-67.303366, 10.100657], [-67.287412, 10.093074], [-67.266265, 10.088098000000116], [-67.25785999999988, 10.08313], [-67.230391, 10.08701], [-67.221038, 10.08613400000013], [-67.21166199999988, 10.089042], [-67.205497, 10.079782], [-67.19869, 10.082114], [-67.208223, 10.172570000000121]]]}}, {"type": "Feature", "properties": {"parroquia": "No Urbana Zuata", "municipio": "José Félix Ribas", "estado": "Aragua", "pcode": "VE050505", "estado_pcode": "VE05", "municipio_pcode": "VE0505", "center_lat": 10.1716365, "center_lon": -67.37657888, "area_sqkm": 71.86674833}, "geometry": {"type": "Polygon", "coordinates": [[[-67.3436099999999, 10.196965], [-67.382999, 10.216209], [-67.43811499999987, 10.188214], [-67.431745, 10.176997], [-67.41537499999987, 10.172733000000107], [-67.417722, 10.167103], [-67.41274, 10.151927], [-67.399814, 10.149397], [-67.38635, 10.137332], [-67.388984, 10.13388], [-67.38076599999988, 10.127536], [-67.370424, 10.129061], [-67.343494, 10.126318], [-67.334344, 10.181905000000143], [-67.3436099999999, 10.196965]]]}}, {"type": "Feature", "properties": {"parroquia": "Capital José Rafael Revenga", "municipio": "José Rafael Revenga", "estado": "Aragua", "pcode": "VE050601", "estado_pcode": "VE05", "municipio_pcode": "VE0506", "center_lat": 10.264141, "center_lon": -67.24667506, "area_sqkm": 179.73913531}, "geometry": {"type": "Polygon", "coordinates": [[[-67.18825471499991, 10.325241666000181], [-67.211023, 10.322582], [-67.213384, 10.329493], [-67.227163, 10.346737], [-67.230828, 10.348019], [-67.232836, 10.352132], [-67.23668, 10.350827], [-67.238304, 10.35349500000018], [-67.252221, 10.347897000000103], [-67.271781, 10.3491590000001], [-67.274824, 10.343796], [-67.275142, 10.339374000000134], [-67.28046199999983, 10.334274], [-67.279961, 10.32537600000012], [-67.276786, 10.311043], [-67.280133, 10.299516], [-67.293767, 10.27868], [-67.295438, 10.269181000000117], [-67.294017, 10.221126], [-67.293803, 10.212078000000133], [-67.259969, 10.177349000000106], [-67.208223, 10.172570000000121], [-67.199098, 10.17252], [-67.195025, 10.247532000000149], [-67.202984, 10.292778000000169], [-67.18637969299994, 10.312003620000155], [-67.18825471499991, 10.325241666000181]]]}}, {"type": "Feature", "properties": {"parroquia": "Libertador", "municipio": "Libertador", "estado": "Aragua", "pcode": "VE050701", "estado_pcode": "VE05", "municipio_pcode": "VE0507", "center_lat": 10.18368, "center_lon": -67.55549164, "area_sqkm": 21.63803489}, "geometry": {"type": "Polygon", "coordinates": [[[-67.57342899999986, 10.194454000000178], [-67.578482, 10.193402000000162], [-67.582245, 10.196072], [-67.577755, 10.165403], [-67.5521159999999, 10.168582000000185], [-67.55247999999989, 10.161243000000127], [-67.532259, 10.162134], [-67.53219, 10.17327900000015], [-67.52919, 10.180822], [-67.531388, 10.180942], [-67.52490499999988, 10.188686], [-67.52469699999989, 10.192104], [-67.536582, 10.206468000000143], [-67.541644, 10.207327], [-67.545061, 10.204239], [-67.54739199999983, 10.205344], [-67.549664, 10.200768000000153], [-67.557369, 10.199149000000148], [-67.560754, 10.193965], [-67.562626, 10.195827], [-67.57342899999986, 10.194454000000178]]]}}, {"type": "Feature", "properties": {"parroquia": "No Urbana San Martin de Porres", "municipio": "Libertador", "estado": "Aragua", "pcode": "VE050702", "estado_pcode": "VE05", "municipio_pcode": "VE0507", "center_lat": 10.16731, "center_lon": -67.5928643, "area_sqkm": 34.45691432}, "geometry": {"type": "Polygon", "coordinates": [[[-67.582245, 10.196072], [-67.584711, 10.198854], [-67.604385, 10.201693000000148], [-67.60919143399997, 10.200993869000115], [-67.61037779499998, 10.198612961000094], [-67.60213432299997, 10.178700499000115], [-67.60248431499997, 10.17544640900013], [-67.60708349899994, 10.172068293000052], [-67.60730842199996, 10.158238935000156], [-67.61033953399993, 10.153493800000035], [-67.60752835899996, 10.145143598000118], [-67.597848, 10.137197], [-67.59220999999985, 10.137246], [-67.58850799999988, 10.141783], [-67.57615, 10.139114], [-67.56667899999985, 10.140001], [-67.551739, 10.134541], [-67.54694299999989, 10.13781200000011], [-67.533289, 10.132596], [-67.532259, 10.162134], [-67.55247999999989, 10.161243000000127], [-67.5521159999999, 10.168582000000185], [-67.577755, 10.165403], [-67.582245, 10.196072]]]}}, {"type": "Feature", "properties": {"parroquia": "Mario Briceño Iragorry", "municipio": "Mario Briceño Iragorri", "estado": "Aragua", "pcode": "VE050801", "estado_pcode": "VE05", "municipio_pcode": "VE0508", "center_lat": 10.32246435, "center_lon": -67.63775678, "area_sqkm": 55.0000944}, "geometry": {"type": "Polygon", "coordinates": [[[-67.632175, 10.365587], [-67.637187, 10.367559], [-67.658744, 10.363093000000106], [-67.667366, 10.365674000000183], [-67.686145, 10.356353], [-67.69286616699998, 10.341300250000188], [-67.68294878999984, 10.340035214000125], [-67.67184126399997, 10.332837094000183], [-67.66245174199997, 10.31462268100006], [-67.65310827899998, 10.30387445000008], [-67.65118681299998, 10.293678560000046], [-67.628336, 10.291606000000172], [-67.618315, 10.275493000000154], [-67.615606, 10.27560000000011], [-67.616146, 10.280769], [-67.613934, 10.281649], [-67.61586299999988, 10.284115000000156], [-67.61441899999988, 10.300049000000115], [-67.608223, 10.32612300000011], [-67.59626, 10.339028], [-67.609263, 10.353547], [-67.622647, 10.360844], [-67.632175, 10.365587]]]}}, {"type": "Feature", "properties": {"parroquia": "Urbana Caña de Azúcar", "municipio": "Mario Briceño Iragorri", "estado": "Aragua", "pcode": "VE050802", "estado_pcode": "VE05", "municipio_pcode": "VE0508", "center_lat": 10.2767175, "center_lon": -67.63451713, "area_sqkm": 10.34824116}, "geometry": {"type": "Polygon", "coordinates": [[[-67.65207609399982, 10.280922863000058], [-67.640875, 10.260332000000176], [-67.637348, 10.26009], [-67.62986099999989, 10.265343], [-67.615229, 10.263634], [-67.614183, 10.269334000000185], [-67.618315, 10.275493000000154], [-67.628336, 10.291606000000172], [-67.65118681299998, 10.293678560000046], [-67.65207609399982, 10.280922863000058]]]}}, {"type": "Feature", "properties": {"parroquia": "San Casimiro", "municipio": "San Casimiro", "estado": "Aragua", "pcode": "VE050901", "estado_pcode": "VE05", "municipio_pcode": "VE0509", "center_lat": 9.9777885, "center_lon": -67.01770936, "area_sqkm": 207.86214954}, "geometry": {"type": "Polygon", "coordinates": [[[-66.93303720899985, 10.010586929000112], [-66.92506395299995, 10.026223383000115], [-66.93862461299994, 10.03939365400015], [-66.95860348799994, 10.039444544000105], [-66.96781205399998, 10.067980235999983], [-66.98073931399995, 10.070016653000039], [-67.02046499999989, 10.009285], [-67.067585, 10.009957], [-67.06649, 10.004981000000157], [-67.073717, 10.000129000000129], [-67.083065, 9.976391], [-67.101015, 9.96037100000018], [-67.09975399999985, 9.95458200000013], [-67.09101, 9.944129000000146], [-67.094073, 9.937296000000174], [-67.089533, 9.928352000000189], [-67.096477, 9.923146], [-67.10558499999985, 9.904762], [-67.105231, 9.89633700000013], [-67.09833599999985, 9.896211], [-67.093991, 9.889879000000121], [-67.095742, 9.888856], [-67.07143999999988, 9.882807000000128], [-67.068286, 9.887023000000113], [-67.06927, 9.894356], [-67.058757, 9.895789], [-67.049436, 9.903080000000102], [-66.974028, 9.909481], [-66.974742, 9.915101000000163], [-66.972035, 9.919958], [-66.97526699999986, 9.933427000000165], [-66.97310299999987, 9.944873], [-66.97647399999988, 9.952281000000141], [-66.974785, 9.967217000000176], [-66.954503, 9.963918], [-66.95523199999985, 9.972961], [-66.950993, 9.981277000000148], [-66.935227, 9.99508], [-66.935798, 10.00928], [-66.93303720899985, 10.010586929000112]]]}}, {"type": "Feature", "properties": {"parroquia": "No Urbana Guiripa", "municipio": "San Casimiro", "estado": "Aragua", "pcode": "VE050902", "estado_pcode": "VE05", "municipio_pcode": "VE0509", "center_lat": 10.0395355, "center_lon": -67.03010312, "area_sqkm": 38.79278404}, "geometry": {"type": "Polygon", "coordinates": [[[-66.98073931399995, 10.070016653000039], [-66.99773639199992, 10.069001713000034], [-67.00464762099995, 10.060528829000134], [-67.00826479399996, 10.06362989000013], [-67.03181885199996, 10.067562856000109], [-67.04119122099996, 10.060142622000058], [-67.05068563199995, 10.059531542000116], [-67.05653267799994, 10.05607039400013], [-67.06072499999988, 10.043202000000122], [-67.05839599999985, 10.033460000000161], [-67.061966, 10.028145], [-67.061348, 10.02258], [-67.067339, 10.016757000000155], [-67.067585, 10.009957], [-67.02046499999989, 10.009285], [-66.98073931399995, 10.070016653000039]]]}}, {"type": "Feature", "properties": {"parroquia": "No Urbana Ollas de Caramacate", "municipio": "San Casimiro", "estado": "Aragua", "pcode": "VE050903", "estado_pcode": "VE05", "municipio_pcode": "VE0509", "center_lat": 9.9593945, "center_lon": -66.824822, "area_sqkm": 93.04182143}, "geometry": {"type": "Polygon", "coordinates": [[[-66.77757372599996, 10.016761188000146], [-66.79123701399982, 10.012114759000042], [-66.81291897099993, 10.015113714000108], [-66.81616614899991, 10.020647848000067], [-66.82876434499997, 10.026706695000144], [-66.83566499999989, 9.987659], [-66.849208, 9.961792000000173], [-66.864998, 9.944816000000117], [-66.862804, 9.920808], [-66.85802399999989, 9.907875], [-66.86110299999984, 9.893878], [-66.84919299999984, 9.89372], [-66.828323, 9.909791], [-66.818531, 9.91351200000014], [-66.813325, 9.938993], [-66.808409, 9.946886000000177], [-66.797892, 9.950762], [-66.798143, 9.960638], [-66.791903, 9.965443000000107], [-66.70326128199991, 9.98141889600015], [-66.70326597799993, 9.981456445000163], [-66.70883724799995, 9.986774552999975], [-66.72136983599995, 9.992059629000153], [-66.74208271299983, 9.98825441300005], [-66.74757402299997, 9.998502647000123], [-66.76739890199991, 10.001571620000163], [-66.77757372599996, 10.016761188000146]]]}}, {"type": "Feature", "properties": {"parroquia": "No Urbana Valle Morín", "municipio": "San Casimiro", "estado": "Aragua", "pcode": "VE050904", "estado_pcode": "VE05", "municipio_pcode": "VE0509", "center_lat": 9.959179, "center_lon": -66.91374532, "area_sqkm": 147.97803767}, "geometry": {"type": "Polygon", "coordinates": [[[-66.82876434499997, 10.026706695000144], [-66.83320291899992, 10.025053864000085], [-66.84118620799995, 10.014201541000034], [-66.84922254399999, 10.011260411000023], [-66.85614981599991, 10.004961218000119], [-66.87469007299995, 9.999328248000154], [-66.87926479199996, 10.000185957000156], [-66.89144939899984, 10.013386237000077], [-66.9042640049999, 10.021281370000054], [-66.91191931899994, 10.015797185000054], [-66.91954964099995, 10.015566135000142], [-66.93303720899985, 10.010586929000112], [-66.935798, 10.00928], [-66.935227, 9.99508], [-66.950993, 9.981277000000148], [-66.95523199999985, 9.972961], [-66.954503, 9.963918], [-66.974785, 9.967217000000176], [-66.97647399999988, 9.952281000000141], [-66.97310299999987, 9.944873], [-66.97526699999986, 9.933427000000165], [-66.972035, 9.919958], [-66.974742, 9.915101000000163], [-66.974028, 9.909481], [-66.86110299999984, 9.893878], [-66.85802399999989, 9.907875], [-66.862804, 9.920808], [-66.864998, 9.944816000000117], [-66.849208, 9.961792000000173], [-66.83566499999989, 9.987659], [-66.82876434499997, 10.026706695000144]]]}}, {"type": "Feature", "properties": {"parroquia": "Capital San Sebastián", "municipio": "San Sebastián", "estado": "Aragua", "pcode": "VE051001", "estado_pcode": "VE05", "municipio_pcode": "VE0510", "center_lat": 9.965561, "center_lon": -67.20101929, "area_sqkm": 505.62661684}, "geometry": {"type": "Polygon", "coordinates": [[[-67.05653267799994, 10.05607039400013], [-67.08155507899994, 10.076539821000097], [-67.09130451899989, 10.080051848000153], [-67.0981048559999, 10.086417978000043], [-67.10987838199998, 10.088965982000161], [-67.11132947599998, 10.094591121000121], [-67.10471572399996, 10.103192126000067], [-67.11483, 10.099156], [-67.1283739999999, 10.100651000000141], [-67.15415699999988, 10.078752], [-67.172072, 10.072467000000188], [-67.18662499999982, 10.07537], [-67.19869, 10.082114], [-67.205497, 10.079782], [-67.21166199999988, 10.089042], [-67.221038, 10.08613400000013], [-67.230391, 10.08701], [-67.25785999999988, 10.08313], [-67.266265, 10.088098000000116], [-67.287412, 10.093074], [-67.303366, 10.100657], [-67.332663, 10.09709800000013], [-67.330801, 10.090028000000132], [-67.320321, 10.079927000000112], [-67.320504, 10.071990000000142], [-67.315005, 10.060842], [-67.329358, 10.050783000000138], [-67.331383, 10.043646], [-67.317112, 10.03987700000016], [-67.305416, 10.040064], [-67.290246, 10.028139], [-67.285075, 10.01522100000011], [-67.27629999999988, 10.012138000000107], [-67.27967299999983, 9.996388], [-67.28741899999983, 9.993676], [-67.31090499999982, 9.962926], [-67.30246199999988, 9.946407000000136], [-67.30330382199998, 9.939824195000028], [-67.2996037819999, 9.936263954000083], [-67.29093940199994, 9.936241002000088], [-67.28858728099993, 9.93387595400003], [-67.2797769199999, 9.936707077000051], [-67.27307161599992, 9.934917069999983], [-67.27129749599999, 9.927181885000095], [-67.27446956399996, 9.91524855900019], [-67.26498010199998, 9.906250380000074], [-67.26230301599998, 9.91226355200007], [-67.25782082499984, 9.912265576000038], [-67.25550475199998, 9.916752702000053], [-67.25026650499996, 9.914103661000127], [-67.24111013499999, 9.92016087200011], [-67.23099371399996, 9.922741991000066], [-67.22277639399988, 9.93032023800015], [-67.22044928399998, 9.928046185000028], [-67.21618313599998, 9.934689383999967], [-67.20973483599994, 9.930892325000116], [-67.19558621599998, 9.930682398000101], [-67.19347513799994, 9.932934468999974], [-67.18688383099999, 9.92893239600005], [-67.18019454899996, 9.93102649400015], [-67.1719221589999, 9.926600422000035], [-67.16321780099997, 9.929498546], [-67.16495281099998, 9.917838238000172], [-67.16160663399995, 9.912994125000182], [-67.16953894199992, 9.90640991500004], [-67.16885889999998, 9.903610844000184], [-67.16362265299995, 9.90119680700019], [-67.15839136399995, 9.89091657500012], [-67.15859326099996, 9.870021042000019], [-67.15255498499994, 9.867850019000116], [-67.14790074599995, 9.861730886000146], [-67.15012373199994, 9.840884334000123], [-67.13997322499995, 9.830085116000134], [-67.11984925999997, 9.829475250000087], [-67.101687, 9.853443], [-67.10604599999988, 9.864045000000147], [-67.104572, 9.868758000000184], [-67.107222, 9.8716960000001], [-67.098992, 9.873525], [-67.09804899999989, 9.886201000000142], [-67.095742, 9.888856], [-67.093991, 9.889879000000121], [-67.09833599999985, 9.896211], [-67.105231, 9.89633700000013], [-67.10558499999985, 9.904762], [-67.096477, 9.923146], [-67.089533, 9.928352000000189], [-67.094073, 9.937296000000174], [-67.09101, 9.944129000000146], [-67.09975399999985, 9.95458200000013], [-67.101015, 9.96037100000018], [-67.083065, 9.976391], [-67.073717, 10.000129000000129], [-67.06649, 10.004981000000157], [-67.067585, 10.009957], [-67.067339, 10.016757000000155], [-67.061348, 10.02258], [-67.061966, 10.028145], [-67.05839599999985, 10.033460000000161], [-67.06072499999988, 10.043202000000122], [-67.05653267799994, 10.05607039400013]]]}}, {"type": "Feature", "properties": {"parroquia": "Santiago Mariño", "municipio": "Santiago Mariño", "estado": "Aragua", "pcode": "VE051101", "estado_pcode": "VE05", "municipio_pcode": "VE0511", "center_lat": 10.2112815, "center_lon": -67.47599284, "area_sqkm": 20.69094169}, "geometry": {"type": "Polygon", "coordinates": [[[-67.488934, 10.185121], [-67.481367, 10.189717], [-67.468078, 10.190002], [-67.461278, 10.195643000000132], [-67.459588, 10.202446], [-67.452044, 10.207761], [-67.45577099999986, 10.226881000000162], [-67.454064, 10.230694], [-67.460841, 10.236359000000107], [-67.467196, 10.237962], [-67.481277, 10.2347], [-67.48122499999988, 10.228129], [-67.485745, 10.228284], [-67.497887, 10.221387000000163], [-67.499055, 10.211611], [-67.488934, 10.185121]]]}}, {"type": "Feature", "properties": {"parroquia": "No Urbana Arévalo Aponte", "municipio": "Santiago Mariño", "estado": "Aragua", "pcode": "VE051102", "estado_pcode": "VE05", "municipio_pcode": "VE0511", "center_lat": 10.3067685, "center_lon": -67.46564171, "area_sqkm": 182.04463475}, "geometry": {"type": "Polygon", "coordinates": [[[-67.454064, 10.230694], [-67.441271, 10.234859], [-67.43216399999989, 10.248618000000135], [-67.427831, 10.272913000000187], [-67.416564, 10.276824000000147], [-67.404706, 10.288197], [-67.400155, 10.313693000000171], [-67.400748, 10.32674], [-67.407979, 10.347836], [-67.406256, 10.358778000000143], [-67.4147569999999, 10.367601], [-67.43236899999988, 10.376932000000124], [-67.468064, 10.380733], [-67.477609, 10.376001], [-67.49496399999987, 10.359755000000177], [-67.507233, 10.361488], [-67.525057, 10.349412], [-67.532046, 10.347423000000163], [-67.53620199999989, 10.348959], [-67.53061, 10.338866], [-67.53161699999987, 10.316446], [-67.529386, 10.307898], [-67.53131499999984, 10.29873], [-67.526936, 10.292041], [-67.516738, 10.290790000000186], [-67.5134139999999, 10.283169], [-67.52416299999987, 10.269642], [-67.520601, 10.2601], [-67.51954099999989, 10.244290000000149], [-67.511897, 10.23856400000011], [-67.481277, 10.2347], [-67.467196, 10.237962], [-67.460841, 10.236359000000107], [-67.454064, 10.230694]]]}}, {"type": "Feature", "properties": {"parroquia": "No Urbana Chuao", "municipio": "Santiago Mariño", "estado": "Aragua", "pcode": "VE051103", "estado_pcode": "VE05", "municipio_pcode": "VE0511", "center_lat": 10.44198, "center_lon": -67.49561708, "area_sqkm": 265.05129559}, "geometry": {"type": "Polygon", "coordinates": [[[-67.43236899999988, 10.376932000000124], [-67.423559, 10.378642], [-67.398746, 10.394163000000106], [-67.41786499999984, 10.41746], [-67.421252, 10.42984500000017], [-67.419268, 10.436701], [-67.421298, 10.449426], [-67.435861, 10.458573000000172], [-67.44921, 10.47833], [-67.452398, 10.49745700000011], [-67.45580399999983, 10.503283], [-67.4638159999999, 10.508479], [-67.461913, 10.514281], [-67.463071, 10.528114], [-67.47124699099993, 10.536452727000153], [-67.47432588899994, 10.532194484000172], [-67.47488992199999, 10.534710553000082], [-67.48680640999999, 10.53020736600007], [-67.49924795799996, 10.530674297000076], [-67.50151102899997, 10.526484173000142], [-67.50743429499994, 10.527492163000034], [-67.51382753699994, 10.521691973000088], [-67.51814273999992, 10.523720001000015], [-67.52762214199998, 10.523086935000038], [-67.5332824109999, 10.52639799000002], [-67.54221077999995, 10.52401887200017], [-67.54360182399995, 10.519586748000052], [-67.55505433399992, 10.522210741000038], [-67.56020750999988, 10.515466532000062], [-67.56466470999999, 10.516510966000112], [-67.568126, 10.512611], [-67.57159899999988, 10.497964000000138], [-67.568247, 10.487412000000177], [-67.569854, 10.466751], [-67.566961, 10.452902000000108], [-67.572402, 10.426231], [-67.5726489999999, 10.396347000000162], [-67.56511, 10.374563], [-67.556466, 10.362448], [-67.53620199999989, 10.348959], [-67.532046, 10.347423000000163], [-67.525057, 10.349412], [-67.507233, 10.361488], [-67.49496399999987, 10.359755000000177], [-67.477609, 10.376001], [-67.468064, 10.380733], [-67.43236899999988, 10.376932000000124]]]}}, {"type": "Feature", "properties": {"parroquia": "No Urbana Samán de Guere", "municipio": "Santiago Mariño", "estado": "Aragua", "pcode": "VE051104", "estado_pcode": "VE05", "municipio_pcode": "VE0511", "center_lat": 10.2255935, "center_lon": -67.52515581, "area_sqkm": 14.08612074}, "geometry": {"type": "Polygon", "coordinates": [[[-67.555392, 10.233699000000115], [-67.556021, 10.228606], [-67.56207, 10.22034], [-67.499055, 10.211611], [-67.497887, 10.221387000000163], [-67.485745, 10.228284], [-67.48122499999988, 10.228129], [-67.481277, 10.2347], [-67.511897, 10.23856400000011], [-67.515809, 10.227420000000166], [-67.529176, 10.226952], [-67.555392, 10.233699000000115]]]}}, {"type": "Feature", "properties": {"parroquia": "No Urbana Alfredo Pacheco Miranda", "municipio": "Santiago Mariño", "estado": "Aragua", "pcode": "VE051105", "estado_pcode": "VE05", "municipio_pcode": "VE0511", "center_lat": 10.2586315, "center_lon": -67.52961516, "area_sqkm": 17.43222441}, "geometry": {"type": "Polygon", "coordinates": [[[-67.526936, 10.292041], [-67.54165199999989, 10.269657], [-67.543174, 10.263853], [-67.539165, 10.259960000000149], [-67.539321, 10.251072000000136], [-67.542843, 10.245286000000135], [-67.54924, 10.24576], [-67.553719, 10.238393], [-67.55511, 10.235120000000109], [-67.555392, 10.233699000000115], [-67.529176, 10.226952], [-67.515809, 10.227420000000166], [-67.511897, 10.23856400000011], [-67.51954099999989, 10.244290000000149], [-67.520601, 10.2601], [-67.52416299999987, 10.269642], [-67.5134139999999, 10.283169], [-67.516738, 10.290790000000186], [-67.526936, 10.292041]]]}}, {"type": "Feature", "properties": {"parroquia": "Santos Michelena", "municipio": "Santos Michelena", "estado": "Aragua", "pcode": "VE051201", "estado_pcode": "VE05", "municipio_pcode": "VE0512", "center_lat": 10.24307998, "center_lon": -67.14869288, "area_sqkm": 96.38520779}, "geometry": {"type": "Polygon", "coordinates": [[[-67.12858915999993, 10.270721428000058], [-67.16231286899995, 10.29456205300005], [-67.17279834699997, 10.299027113000022], [-67.18327680899989, 10.29883804900004], [-67.18637969299994, 10.312003620000155], [-67.202984, 10.292778000000169], [-67.195025, 10.247532000000149], [-67.199098, 10.17252], [-67.13691199999988, 10.210728000000188], [-67.133213, 10.209501000000103], [-67.1149495809999, 10.213176458000078], [-67.1141293089999, 10.216785301000186], [-67.10200282999995, 10.224980585000026], [-67.09618762199989, 10.233616834000088], [-67.09758714599997, 10.238386280000157], [-67.1198218379999, 10.264594516000045], [-67.12858915999993, 10.270721428000058]]]}}, {"type": "Feature", "properties": {"parroquia": "No Urbana Tiara", "municipio": "Santos Michelena", "estado": "Aragua", "pcode": "VE051202", "estado_pcode": "VE05", "municipio_pcode": "VE0512", "center_lat": 10.14357229, "center_lon": -67.16771803, "area_sqkm": 112.54888044}, "geometry": {"type": "Polygon", "coordinates": [[[-67.1149495809999, 10.213176458000078], [-67.133213, 10.209501000000103], [-67.13691199999988, 10.210728000000188], [-67.199098, 10.17252], [-67.208223, 10.172570000000121], [-67.19869, 10.082114], [-67.18662499999982, 10.07537], [-67.172072, 10.072467000000188], [-67.15415699999988, 10.078752], [-67.1283739999999, 10.100651000000141], [-67.11483, 10.099156], [-67.10471572399996, 10.103192126000067], [-67.11732887499994, 10.117980691000184], [-67.11887899899995, 10.128166947000125], [-67.13966806099984, 10.154620525000098], [-67.1394240709999, 10.157603604000087], [-67.12924266199991, 10.163155800000084], [-67.12457251899997, 10.173877116000085], [-67.11257103699995, 10.182299397000179], [-67.11071503599993, 10.19491073800009], [-67.11324862699996, 10.204712964000066], [-67.11682939599984, 10.210900123000158], [-67.1149495809999, 10.213176458000078]]]}}, {"type": "Feature", "properties": {"parroquia": "Sucre", "municipio": "Sucre", "estado": "Aragua", "pcode": "VE051301", "estado_pcode": "VE05", "municipio_pcode": "VE0513", "center_lat": 10.1716365, "center_lon": -67.45043813, "area_sqkm": 39.26398554}, "geometry": {"type": "Polygon", "coordinates": [[[-67.41274, 10.151927], [-67.417722, 10.167103], [-67.41537499999987, 10.172733000000107], [-67.431745, 10.176997], [-67.43811499999987, 10.188214], [-67.452044, 10.207761], [-67.459588, 10.202446], [-67.461278, 10.195643000000132], [-67.468078, 10.190002], [-67.481367, 10.189717], [-67.488934, 10.185121], [-67.479939, 10.152141], [-67.483874, 10.15284], [-67.483905, 10.150575000000117], [-67.492615, 10.146597], [-67.50853199999983, 10.142307], [-67.50713, 10.136571000000117], [-67.47488, 10.134139000000175], [-67.452485, 10.141971000000183], [-67.435078, 10.157851000000107], [-67.41274, 10.151927]]]}}, {"type": "Feature", "properties": {"parroquia": "No Urbana Bella Vista", "municipio": "Sucre", "estado": "Aragua", "pcode": "VE051302", "estado_pcode": "VE05", "municipio_pcode": "VE0513", "center_lat": 10.135544, "center_lon": -67.42915307, "area_sqkm": 26.93181081}, "geometry": {"type": "Polygon", "coordinates": [[[-67.47488, 10.134139000000175], [-67.465295, 10.129403], [-67.448416, 10.11287], [-67.42496, 10.119951], [-67.412588, 10.114871], [-67.406625, 10.125911], [-67.395812, 10.126801000000171], [-67.388984, 10.13388], [-67.38635, 10.137332], [-67.399814, 10.149397], [-67.41274, 10.151927], [-67.435078, 10.157851000000107], [-67.452485, 10.141971000000183], [-67.47488, 10.134139000000175]]]}}, {"type": "Feature", "properties": {"parroquia": "Capital Tovar", "municipio": "Tovar", "estado": "Aragua", "pcode": "VE051401", "estado_pcode": "VE05", "municipio_pcode": "VE0514", "center_lat": 10.42495301, "center_lon": -67.39134113, "area_sqkm": 285.20221109}, "geometry": {"type": "Polygon", "coordinates": [[[-67.40044765199997, 10.529766866000045], [-67.40119470499997, 10.533717960000104], [-67.41990653699997, 10.534801876000074], [-67.46006625799998, 10.530968543000085], [-67.47124699099993, 10.536452727000153], [-67.463071, 10.528114], [-67.461913, 10.514281], [-67.4638159999999, 10.508479], [-67.45580399999983, 10.503283], [-67.452398, 10.49745700000011], [-67.44921, 10.47833], [-67.435861, 10.458573000000172], [-67.421298, 10.449426], [-67.419268, 10.436701], [-67.421252, 10.42984500000017], [-67.41786499999984, 10.41746], [-67.398746, 10.394163000000106], [-67.423559, 10.378642], [-67.43236899999988, 10.376932000000124], [-67.4147569999999, 10.367601], [-67.406256, 10.358778000000143], [-67.407979, 10.347836], [-67.400748, 10.32674], [-67.400155, 10.313693000000171], [-67.399158, 10.312795000000108], [-67.298523, 10.351155], [-67.274824, 10.343796], [-67.271781, 10.3491590000001], [-67.252221, 10.347897000000103], [-67.238304, 10.35349500000018], [-67.23668, 10.350827], [-67.232836, 10.352132], [-67.230828, 10.348019], [-67.227163, 10.346737], [-67.213384, 10.329493], [-67.211023, 10.322582], [-67.18825471499991, 10.325241666000181], [-67.17355255199993, 10.326536835000127], [-67.16357913999991, 10.33167803100008], [-67.16436024099988, 10.341872287000172], [-67.16796142799996, 10.347349410000106], [-67.18794534099999, 10.353882473], [-67.19208854199996, 10.357777554000165], [-67.20098501599995, 10.37273289500007], [-67.20506730099993, 10.390153323000106], [-67.21815392999997, 10.400268515], [-67.22024308699997, 10.410398778], [-67.22868045999996, 10.411514754000166], [-67.2506885059999, 10.426865031999967], [-67.26111194499998, 10.422956870000064], [-67.27851469699993, 10.422770756000148], [-67.28143480699993, 10.42071869199998], [-67.29271332399992, 10.424380713000062], [-67.31451419099994, 10.410964233000186], [-67.33297296699982, 10.405787994999969], [-67.34770449799993, 10.38760142600006], [-67.34782557999995, 10.399556736000022], [-67.36197527099995, 10.412792006000132], [-67.36400755599982, 10.444130817000087], [-67.37054584399988, 10.445149802000117], [-67.37400003499988, 10.451686958000096], [-67.37709016199994, 10.451923942000178], [-67.38316553999982, 10.470534398999973], [-67.38365962799992, 10.481372688000135], [-67.39335007799997, 10.486072756], [-67.39150105899984, 10.49511299600016], [-67.39881539099991, 10.497234012000149], [-67.40979292199995, 10.50638319400008], [-67.40963793499998, 10.510025286000143], [-67.41286808599983, 10.51189231899997], [-67.40672486299991, 10.518232522000119], [-67.40659489199993, 10.524741697000024], [-67.40044765199997, 10.529766866000045]]]}}, {"type": "Feature", "properties": {"parroquia": "Urdaneta", "municipio": "Urdaneta", "estado": "Aragua", "pcode": "VE051501", "estado_pcode": "VE05", "municipio_pcode": "VE0515", "center_lat": 9.42600299, "center_lon": -66.84111477, "area_sqkm": 764.17168597}, "geometry": {"type": "Polygon", "coordinates": [[[-66.74834, 9.6], [-66.75877299999985, 9.585698], [-66.775339, 9.581657000000178], [-66.79461, 9.584246000000178], [-66.802027, 9.578921], [-66.806823, 9.584772], [-66.810975, 9.585954], [-66.823635, 9.583613], [-66.840293, 9.596559], [-66.85680359399998, 9.601062776], [-66.85635354499988, 9.595753642000034], [-66.86153176899995, 9.594693582000048], [-66.85948865999995, 9.589882479000153], [-66.87587220099988, 9.557835564000072], [-66.8924528099999, 9.537992967999969], [-66.89826605799993, 9.535780884000076], [-66.90337732699999, 9.543698064000068], [-66.91010658699997, 9.538406890000147], [-66.91343675699989, 9.54219696500013], [-66.91852094499995, 9.536853804000032], [-66.93034347799988, 9.539914816000021], [-66.93690373599992, 9.533960634000152], [-66.94510414199993, 9.542601813000033], [-66.95062735199997, 9.537116640000136], [-66.94741818399984, 9.531698515000073], [-66.95457847899996, 9.529860435000046], [-66.96155473599993, 9.519733136000127], [-66.96945208899996, 9.521780149000108], [-66.97064411999997, 9.518515057000172], [-66.96714596499999, 9.518392081000115], [-66.96790898299997, 9.514077958000087], [-66.97586833399998, 9.515413950000152], [-66.97694734999988, 9.510340817999975], [-66.98222857999997, 9.510422798000036], [-66.98573571499998, 9.507041689000118], [-66.98292056299994, 9.499627510000153], [-66.97845236199998, 9.49972054], [-66.97558920799997, 9.494231414000069], [-66.98060342399998, 9.493170362], [-66.98413954799997, 9.488346223000121], [-66.98177243099997, 9.485760171000038], [-66.98296145699993, 9.480159027000013], [-66.99123879499996, 9.476841891], [-66.99108375499998, 9.471163748000151], [-66.9972110139999, 9.46823564000016], [-66.99609398299992, 9.47186674700015], [-66.99866210599998, 9.473785779000082], [-67.00266024999985, 9.468460623000055], [-67.00344024599997, 9.461163437000039], [-67.00041406899999, 9.451749211000049], [-67.00471221999999, 9.445221017999984], [-67.00984146699983, 9.44942110200003], [-67.01148150799997, 9.444193954000127], [-67.00935439699992, 9.440522883000028], [-67.01558964599991, 9.437486762999981], [-67.01144544399995, 9.433792690000132], [-67.00871233599992, 9.434865732000105], [-67.01501753899998, 9.422022380000044], [-67.01336345599992, 9.419695334000096], [-67.01056433799994, 9.4209303720001], [-67.01396346099989, 9.415640222000093], [-67.00633412699989, 9.41457524000009], [-67.00627008999999, 9.409846113000071], [-67.00338099699997, 9.414183247000096], [-66.99953381399996, 9.412250209000035], [-66.98280621299989, 9.436374908000118], [-66.89327877899996, 9.33732288200008], [-66.86051635199988, 9.337127048000013], [-66.85137198699994, 9.34430326900008], [-66.8410035199999, 9.341329247000033], [-66.8370303349999, 9.339163215000042], [-66.83370912999999, 9.328768969000123], [-66.81597027599997, 9.314208696000037], [-66.78342076499996, 9.29809545900008], [-66.7767604629999, 9.295148416000188], [-66.76810009699994, 9.296546495000143], [-66.75608060099984, 9.303040718000034], [-66.72852025899988, 9.276820203000113], [-66.70972832099994, 9.253676717000133], [-66.70276900599993, 9.25231271600012], [-66.69792344899997, 9.25516071800007], [-66.690921, 9.269799000000148], [-66.68963, 9.286766000000114], [-66.700454, 9.308301], [-66.700302, 9.315004000000101], [-66.7056419999999, 9.331075], [-66.70542699999987, 9.386604], [-66.710979, 9.424208], [-66.707504, 9.427069000000188], [-66.74834, 9.6]]]}}, {"type": "Feature", "properties": {"parroquia": "No Urbana las Peñitas", "municipio": "Urdaneta", "estado": "Aragua", "pcode": "VE051502", "estado_pcode": "VE05", "municipio_pcode": "VE0515", "center_lat": 9.47977522, "center_lon": -66.64190526, "area_sqkm": 664.8678141}, "geometry": {"type": "Polygon", "coordinates": [[[-66.55428450899984, 9.643572394000103], [-66.76427799999988, 9.704877], [-66.742477, 9.60331500000018], [-66.74834, 9.6], [-66.707504, 9.427069000000188], [-66.710979, 9.424208], [-66.70542699999987, 9.386604], [-66.7056419999999, 9.331075], [-66.700302, 9.315004000000101], [-66.700454, 9.308301], [-66.68963, 9.286766000000114], [-66.690921, 9.269799000000148], [-66.69792344899997, 9.25516071800007], [-66.68709736099993, 9.261447144000101], [-66.68297319799984, 9.262924087000158], [-66.68359723399993, 9.265889160000086], [-66.67977107899992, 9.26882625400009], [-66.67918609699984, 9.276212447000091], [-66.67088574699989, 9.279855582000152], [-66.66715662399997, 9.285979748000102], [-66.6644084969999, 9.28479774100009], [-66.66207041399997, 9.289412861000187], [-66.65767322499994, 9.289610887000038], [-66.65135602199996, 9.303570276000187], [-66.64700483799999, 9.304525322000131], [-66.64717589199995, 9.313151537000067], [-66.64378374399996, 9.313641571000062], [-66.6460268589999, 9.316536630000087], [-66.64148964399993, 9.31442059800014], [-66.64221170299999, 9.319862741000065], [-66.63949959799993, 9.321342787000106], [-66.64161470499988, 9.324585865000017], [-66.63521044599997, 9.328017980000084], [-66.63662051599994, 9.331577070000037], [-66.63476544499991, 9.333496125000067], [-66.63848261599998, 9.33490213500005], [-66.63853663899994, 9.33794722100015], [-66.63482146699994, 9.336747208000077], [-66.63226037099997, 9.33981729500016], [-66.63424848899996, 9.344171396999968], [-66.62853225699996, 9.348829544000182], [-66.62010389899996, 9.35078863900003], [-66.62008992599988, 9.356329775], [-66.61732779899995, 9.355531771000074], [-66.61102754999996, 9.359690917000137], [-66.61032049499988, 9.356102828000132], [-66.60847641499998, 9.356876851000152], [-66.60967350999994, 9.363139005000107], [-66.6035342649999, 9.369495198000152], [-66.60706646199986, 9.375506336000115], [-66.60132021299995, 9.377301412000179], [-66.60000716999991, 9.380267489000175], [-66.5961509899999, 9.378815480000014], [-66.59420893399988, 9.38366560300011], [-66.5957580299999, 9.388230719000035], [-66.5916468559999, 9.389093763], [-66.59064885399994, 9.39817100200014], [-66.58758771999987, 9.397605], [-66.58382758999988, 9.403548169000146], [-66.58695576299988, 9.410868335999965], [-66.5751113149999, 9.425657775000047], [-66.5779034599999, 9.429500867000058], [-66.57678944899993, 9.436289048000106], [-66.56807707399997, 9.437745119000056], [-66.57577342599996, 9.441153168000028], [-66.57487240599994, 9.443726241000036], [-66.57298131899995, 9.442118210000103], [-66.57373836199997, 9.446118305000084], [-66.56829015199997, 9.450039439000136], [-66.56614307899991, 9.455348587000117], [-66.56813319799994, 9.460000688000036], [-66.56200598799995, 9.47253704600007], [-66.56474711399989, 9.47356505300013], [-66.56410411699989, 9.478791192000074], [-66.55726484699994, 9.484900382000035], [-66.55801195599997, 9.497394701000076], [-66.56192515299989, 9.50218980700015], [-66.56387520699997, 9.497981690000017], [-66.56706538899994, 9.504591843000128], [-66.56974049399997, 9.503467798000088], [-66.58099208099992, 9.519825153], [-66.57797598099995, 9.526333345000069], [-66.58371655599996, 9.527888513000164], [-66.58563137399983, 9.537183579999976], [-66.58005313499996, 9.537464614000157], [-66.57563398899998, 9.547283888000095], [-66.57393490399988, 9.54400181800014], [-66.56685061499996, 9.548967975999972], [-66.57470501499995, 9.558809192000126], [-66.56816378499997, 9.56963250500013], [-66.56791682899996, 9.579914765000183], [-66.56106454399992, 9.582565870000053], [-66.56545377399993, 9.59099706699999], [-66.56000653399997, 9.590567092000072], [-66.5606585839999, 9.59326315200019], [-66.55435831299991, 9.595565242000077], [-66.5528212889999, 9.601853417000143], [-66.55841254399996, 9.605258473000163], [-66.5461420449999, 9.612996736000127], [-66.54858018999994, 9.618446866000056], [-66.55355441699999, 9.620277882000039], [-66.54938132599995, 9.63659633399999], [-66.55428450899984, 9.643572394000103]]]}}, {"type": "Feature", "properties": {"parroquia": "No Urbana San Francisco de Cara", "municipio": "Urdaneta", "estado": "Aragua", "pcode": "VE051503", "estado_pcode": "VE05", "municipio_pcode": "VE0515", "center_lat": 9.64114984, "center_lon": -66.80038527, "area_sqkm": 130.15036524}, "geometry": {"type": "Polygon", "coordinates": [[[-66.76427799999988, 9.704877], [-66.777377, 9.698799], [-66.796066, 9.698902], [-66.81211, 9.702511], [-66.82398, 9.701439000000164], [-66.829662, 9.703671], [-66.83698999999984, 9.698791], [-66.83590699999985, 9.691763], [-66.847771, 9.67721100000017], [-66.846021, 9.669443000000115], [-66.85027865699988, 9.665177449000055], [-66.85249871999997, 9.658566274000066], [-66.84785151999995, 9.659529317000079], [-66.8457674259999, 9.657420272000081], [-66.84858152699996, 9.654025176000061], [-66.84827549099987, 9.64917305300014], [-66.85305468399997, 9.647544990000142], [-66.85404770599996, 9.642816861000028], [-66.85108558099995, 9.643213888000105], [-66.84675234199995, 9.63430267900003], [-66.84413318899988, 9.627572521000047], [-66.84464816899992, 9.619254301000183], [-66.83960894199998, 9.61811429800008], [-66.84893732199998, 9.6129361240001], [-66.84598816399995, 9.607905004000031], [-66.85232339599986, 9.600191772000073], [-66.85680359399998, 9.601062776], [-66.840293, 9.596559], [-66.823635, 9.583613], [-66.810975, 9.585954], [-66.806823, 9.584772], [-66.802027, 9.578921], [-66.79461, 9.584246000000178], [-66.775339, 9.581657000000178], [-66.75877299999985, 9.585698], [-66.74834, 9.6], [-66.742477, 9.60331500000018], [-66.76427799999988, 9.704877]]]}}, {"type": "Feature", "properties": {"parroquia": "No Urbana Taguay", "municipio": "Urdaneta", "estado": "Aragua", "pcode": "VE051504", "estado_pcode": "VE05", "municipio_pcode": "VE0515", "center_lat": 9.81289016, "center_lon": -66.65028609, "area_sqkm": 437.98454174}, "geometry": {"type": "Polygon", "coordinates": [[[-66.61285396499989, 9.97248671200009], [-66.62464345599989, 9.968419543000095], [-66.63387787699992, 9.970609551999985], [-66.64468533699994, 9.967880423000054], [-66.64960558199988, 9.974102556], [-66.66106910699989, 9.977076571000168], [-66.66159214599992, 9.980600653000067], [-66.68178199799996, 9.975618419000114], [-66.68706226399996, 9.980634522000116], [-66.70326597799993, 9.981456445000163], [-66.70326128199991, 9.98141889600015], [-66.694296, 9.820495000000108], [-66.726324, 9.800828], [-66.72154399999988, 9.796442000000184], [-66.72058, 9.791309], [-66.721533, 9.763443000000109], [-66.72714, 9.750592000000154], [-66.740633, 9.736103000000185], [-66.745019, 9.734690000000171], [-66.75901, 9.73688200000015], [-66.76218199999983, 9.740117000000112], [-66.772994, 9.740243], [-66.782331, 9.73625], [-66.792704, 9.74258900000018], [-66.804236, 9.739278000000127], [-66.806502, 9.733307000000138], [-66.81250199999988, 9.735264], [-66.814399, 9.729946], [-66.82028699999984, 9.725859], [-66.81579499999987, 9.722729], [-66.817061, 9.72049], [-66.825679, 9.719818], [-66.831681, 9.715755], [-66.829662, 9.703671], [-66.82398, 9.701439000000164], [-66.81211, 9.702511], [-66.796066, 9.698902], [-66.777377, 9.698799], [-66.76427799999988, 9.704877], [-66.55428450899984, 9.643572394000103], [-66.55693670699998, 9.64664655200005], [-66.55581871099986, 9.655655788000104], [-66.55819284799992, 9.661655926000094], [-66.57294451699994, 9.666629974000045], [-66.57394961499995, 9.67744025200011], [-66.59500061999995, 9.69086449000008], [-66.59748875199983, 9.69632061600015], [-66.602786, 9.697380608000117], [-66.6099233679999, 9.7086278700001], [-66.61357654099999, 9.710313891000055], [-66.62243591799995, 9.708765804000109], [-66.6234910039999, 9.715396970000086], [-66.6332314149999, 9.713340863000042], [-66.63224741799996, 9.720669060000034], [-66.6255334579999, 9.725990591000027], [-66.62136900399992, 9.73177640700004], [-66.6246471739999, 9.73713651900016], [-66.62726828799998, 9.736782502000096], [-66.62386216699997, 9.742626671000039], [-66.62412020399995, 9.747723804000145], [-66.62762538399994, 9.752118898000163], [-66.62655035499984, 9.75529199000016], [-66.61884902599996, 9.756582054000148], [-66.62507334899993, 9.76631828300009], [-66.62142725999996, 9.779785652000157], [-66.61815412199996, 9.780096676000142], [-66.61641201899994, 9.775212560000114], [-66.61071776299997, 9.77401555], [-66.59999134399993, 9.783421862000068], [-66.60000938799993, 9.791733069000031], [-66.6036865559999, 9.793442102000142], [-66.60267555899998, 9.800265276000175], [-66.58526882699994, 9.806755539000108], [-66.58851298799993, 9.81009660900014], [-66.59227415399994, 9.809922591000145], [-66.5976314319999, 9.817985769000074], [-66.59177822699996, 9.82702903], [-66.58732202999994, 9.827550077000069], [-66.58532897499992, 9.833044222000183], [-66.57715761299994, 9.83369228200013], [-66.5785947089999, 9.837797384000169], [-66.57447354099997, 9.840497480000124], [-66.58118583799995, 9.840589444000045], [-66.59501847899998, 9.848347577000084], [-66.6020958929999, 9.866093997000121], [-66.59877377399994, 9.870674135000172], [-66.60118396199994, 9.886230521000186], [-66.59510072999996, 9.891624693999972], [-66.60118804999985, 9.900479892000078], [-66.60116808999999, 9.909236122000038], [-66.60470626599988, 9.911960181999973], [-66.60318722799997, 9.917887344000121], [-66.60752545999992, 9.924885505000134], [-66.60416534099988, 9.930567669000084], [-66.60287538099993, 9.948233132000098], [-66.61025374999997, 9.954384253000171], [-66.61285396499989, 9.97248671200009]]]}}, {"type": "Feature", "properties": {"parroquia": "Ezequiel Zamora", "municipio": "Ezequiel Zamora", "estado": "Aragua", "pcode": "VE051601", "estado_pcode": "VE05", "municipio_pcode": "VE0516", "center_lat": 10.0311635, "center_lon": -67.42596359, "area_sqkm": 350.64528274}, "geometry": {"type": "Polygon", "coordinates": [[[-67.412588, 10.114871], [-67.42496, 10.119951], [-67.448416, 10.11287], [-67.465295, 10.129403], [-67.47488, 10.134139000000175], [-67.53394399999985, 10.06296900000018], [-67.545638, 10.04458700000015], [-67.561171, 10.027977], [-67.563821, 10.019252], [-67.570374, 10.013270000000148], [-67.59499, 10.000534], [-67.602598, 10.003300000000138], [-67.617152, 10.01776], [-67.629515, 10.017349000000138], [-67.62967603399989, 10.015714948000095], [-67.61488787999997, 10.00778601400009], [-67.61798095799998, 9.998922775000096], [-67.6107106319999, 9.995059714000092], [-67.58628257399994, 9.99612388100013], [-67.57343905499988, 10.00383115700015], [-67.56563066899997, 9.994025940000029], [-67.54487679499982, 9.998563180000076], [-67.53457709799983, 9.95468211300016], [-67.52284355999996, 9.95064507800015], [-67.51430021799996, 9.955255246000036], [-67.50595485999992, 9.955885298000112], [-67.50328777599998, 9.961256462000108], [-67.49197831799984, 9.968374699000094], [-67.47764568499991, 9.966386732000046], [-67.47711468999995, 9.971664867000186], [-67.46563524599998, 9.979711142999975], [-67.4491505069999, 9.977124166000067], [-67.44691943999993, 9.98223230900004], [-67.44045517899997, 9.985040419000029], [-67.43807311999996, 9.991669605000027], [-67.4307378119999, 9.99403571400012], [-67.41123688699997, 9.980288465000172], [-67.40716570299998, 9.980031477000011], [-67.40647466299993, 9.977217412000186], [-67.38598271999996, 9.968918313000131], [-67.37839434599994, 9.961031148000075], [-67.37616020899998, 9.954617007000081], [-67.36426366699993, 9.950363959000072], [-67.36407761599992, 9.942088752000075], [-67.35848538899995, 9.944438838], [-67.35555025199994, 9.943029822000142], [-67.35087000499993, 9.936322676000145], [-67.34711384999991, 9.937644730999978], [-67.33857145799993, 9.932698642000105], [-67.33686934399998, 9.927215517000036], [-67.33450023799998, 9.92620849900004], [-67.32770695999994, 9.929871639000055], [-67.32426381099998, 9.92858761900004], [-67.31452041499989, 9.933325802000127], [-67.31232234299995, 9.938891951000187], [-67.30584104799993, 9.936798932000102], [-67.30330382199998, 9.939824195000028], [-67.30246199999988, 9.946407000000136], [-67.31090499999982, 9.962926], [-67.28741899999983, 9.993676], [-67.27967299999983, 9.996388], [-67.27629999999988, 10.012138000000107], [-67.285075, 10.01522100000011], [-67.290246, 10.028139], [-67.305416, 10.040064], [-67.317112, 10.03987700000016], [-67.331383, 10.043646], [-67.350781, 10.053816], [-67.378438, 10.056105000000116], [-67.394567, 10.053542000000164], [-67.40657, 10.061298], [-67.416264, 10.060635000000104], [-67.423862, 10.055521000000113], [-67.45348499999989, 10.049538000000155], [-67.46115, 10.050653], [-67.467523, 10.055118000000164], [-67.479341, 10.05598700000013], [-67.476901, 10.063219], [-67.460229, 10.077094], [-67.442036, 10.084979000000146], [-67.420961, 10.101836000000105], [-67.413867, 10.109462000000121], [-67.412588, 10.114871]]]}}, {"type": "Feature", "properties": {"parroquia": "No Urbana Magdaleno", "municipio": "Ezequiel Zamora", "estado": "Aragua", "pcode": "VE051602", "estado_pcode": "VE05", "municipio_pcode": "VE0516", "center_lat": 10.08459686, "center_lon": -67.63133362, "area_sqkm": 65.39140555}, "geometry": {"type": "Polygon", "coordinates": [[[-67.6967413729999, 10.022240043000068], [-67.67858599999988, 10.03377], [-67.66413, 10.049295000000143], [-67.6563589999999, 10.050011], [-67.652721, 10.053389], [-67.650589, 10.061812], [-67.642662, 10.061722], [-67.638906, 10.059266], [-67.635552, 10.064860000000124], [-67.63153399999987, 10.064309], [-67.625843, 10.057307], [-67.619048, 10.05783300000013], [-67.611612, 10.068006], [-67.612028, 10.079879], [-67.582055, 10.091268], [-67.589327, 10.106372], [-67.58991799999984, 10.118649000000175], [-67.595369, 10.126538], [-67.593875, 10.131784], [-67.57615, 10.139114], [-67.58850799999988, 10.141783], [-67.59220999999985, 10.137246], [-67.597848, 10.137197], [-67.60752835899996, 10.145143598000118], [-67.6120705379999, 10.142865509000046], [-67.61066237699998, 10.124342046000095], [-67.61300942799994, 10.115003787000092], [-67.62502390799989, 10.109669581000162], [-67.63465135199988, 10.112916614000142], [-67.63863556199993, 10.119762771000012], [-67.63661348999995, 10.123209872000075], [-67.64337078799986, 10.122578811000153], [-67.64734803799996, 10.136352139000053], [-67.6414478189999, 10.14309235100012], [-67.65052522899992, 10.145486356000049], [-67.65345033499995, 10.142368265000073], [-67.64928314499991, 10.141048254000054], [-67.65043117599998, 10.136677140000018], [-67.66087459799996, 10.13282497400013], [-67.65667723699994, 10.102406213000108], [-67.66014532499992, 10.091347909000149], [-67.67112972599989, 10.0790465340001], [-67.67648395999998, 10.07815447400003], [-67.68018383199995, 10.067241913000089], [-67.683217, 10.069071], [-67.68925099999984, 10.067696000000126], [-67.691312, 10.064086], [-67.691193, 10.058434], [-67.68695799999983, 10.055311000000131], [-67.6837589999999, 10.039368000000138], [-67.69665937999997, 10.022942004000129], [-67.6967413729999, 10.022240043000068]]]}}, {"type": "Feature", "properties": {"parroquia": "No Urbana San Francisco de Asís", "municipio": "Ezequiel Zamora", "estado": "Aragua", "pcode": "VE051603", "estado_pcode": "VE05", "municipio_pcode": "VE0516", "center_lat": 10.0688995, "center_lon": -67.5613356, "area_sqkm": 86.57156767}, "geometry": {"type": "Polygon", "coordinates": [[[-67.50713, 10.136571000000117], [-67.512553, 10.133491], [-67.516314, 10.134931000000165], [-67.516276, 10.130954], [-67.533289, 10.132596], [-67.54694299999989, 10.13781200000011], [-67.545551, 10.131797000000176], [-67.549929, 10.128521], [-67.55680699999988, 10.130311000000177], [-67.558293, 10.125367], [-67.560014, 10.115958], [-67.555976, 10.108455000000106], [-67.559033, 10.078497], [-67.566563, 10.084643], [-67.57130099999989, 10.085106000000167], [-67.573658, 10.083495], [-67.57372, 10.069481], [-67.59242299999988, 10.069561], [-67.60023, 10.064078], [-67.594558, 10.051054], [-67.596533, 10.036596000000145], [-67.609277, 10.036187], [-67.611794, 10.03163700000016], [-67.616963, 10.030406], [-67.614832, 10.022376], [-67.62186, 10.022419], [-67.629515, 10.017349000000138], [-67.617152, 10.01776], [-67.602598, 10.003300000000138], [-67.59499, 10.000534], [-67.570374, 10.013270000000148], [-67.563821, 10.019252], [-67.561171, 10.027977], [-67.545638, 10.04458700000015], [-67.53394399999985, 10.06296900000018], [-67.47488, 10.134139000000175], [-67.50713, 10.136571000000117]]]}}, {"type": "Feature", "properties": {"parroquia": "No Urbana Valles de Tucutunemo", "municipio": "Ezequiel Zamora", "estado": "Aragua", "pcode": "VE051604", "estado_pcode": "VE05", "municipio_pcode": "VE0516", "center_lat": 10.0875035, "center_lon": -67.38341013, "area_sqkm": 99.79646067}, "geometry": {"type": "Polygon", "coordinates": [[[-67.412588, 10.114871], [-67.413867, 10.109462000000121], [-67.420961, 10.101836000000105], [-67.442036, 10.084979000000146], [-67.460229, 10.077094], [-67.476901, 10.063219], [-67.479341, 10.05598700000013], [-67.467523, 10.055118000000164], [-67.46115, 10.050653], [-67.45348499999989, 10.049538000000155], [-67.423862, 10.055521000000113], [-67.416264, 10.060635000000104], [-67.40657, 10.061298], [-67.394567, 10.053542000000164], [-67.378438, 10.056105000000116], [-67.350781, 10.053816], [-67.331383, 10.043646], [-67.329358, 10.050783000000138], [-67.315005, 10.060842], [-67.320504, 10.071990000000142], [-67.320321, 10.079927000000112], [-67.330801, 10.090028000000132], [-67.332663, 10.09709800000013], [-67.334691, 10.111516], [-67.343494, 10.126318], [-67.370424, 10.129061], [-67.38076599999988, 10.127536], [-67.388984, 10.13388], [-67.395812, 10.126801000000171], [-67.406625, 10.125911], [-67.412588, 10.114871]]]}}, {"type": "Feature", "properties": {"parroquia": "No Urbana Augusto Mijares", "municipio": "Ezequiel Zamora", "estado": "Aragua", "pcode": "VE051605", "estado_pcode": "VE05", "municipio_pcode": "VE0516", "center_lat": 10.0743275, "center_lon": -67.59240826, "area_sqkm": 63.19658908}, "geometry": {"type": "Polygon", "coordinates": [[[-67.54694299999989, 10.13781200000011], [-67.551739, 10.134541], [-67.56667899999985, 10.140001], [-67.57615, 10.139114], [-67.593875, 10.131784], [-67.595369, 10.126538], [-67.58991799999984, 10.118649000000175], [-67.589327, 10.106372], [-67.582055, 10.091268], [-67.612028, 10.079879], [-67.611612, 10.068006], [-67.619048, 10.05783300000013], [-67.625843, 10.057307], [-67.63153399999987, 10.064309], [-67.635552, 10.064860000000124], [-67.638906, 10.059266], [-67.642662, 10.061722], [-67.650589, 10.061812], [-67.652721, 10.053389], [-67.6563589999999, 10.050011], [-67.66413, 10.049295000000143], [-67.67858599999988, 10.03377], [-67.6967413729999, 10.022240043000068], [-67.68412494599988, 10.019173924000143], [-67.67814472999999, 10.026318134000064], [-67.67108840399993, 10.023427100000163], [-67.67150844299988, 10.026977196000075], [-67.6749126069999, 10.028886219000185], [-67.67345054299989, 10.030269268000154], [-67.65056350399982, 10.020896151000045], [-67.64376715799995, 10.01323599300008], [-67.62967603399989, 10.015714948000095], [-67.629515, 10.017349000000138], [-67.62186, 10.022419], [-67.614832, 10.022376], [-67.616963, 10.030406], [-67.611794, 10.03163700000016], [-67.609277, 10.036187], [-67.596533, 10.036596000000145], [-67.594558, 10.051054], [-67.60023, 10.064078], [-67.59242299999988, 10.069561], [-67.57372, 10.069481], [-67.573658, 10.083495], [-67.57130099999989, 10.085106000000167], [-67.566563, 10.084643], [-67.559033, 10.078497], [-67.555976, 10.108455000000106], [-67.560014, 10.115958], [-67.558293, 10.125367], [-67.55680699999988, 10.130311000000177], [-67.549929, 10.128521], [-67.545551, 10.131797000000176], [-67.54694299999989, 10.13781200000011]]]}}, {"type": "Feature", "properties": {"parroquia": "Francisco Linares Alcántara", "municipio": "Francisco Linares Alcántara", "estado": "Aragua", "pcode": "VE051701", "estado_pcode": "VE05", "municipio_pcode": "VE0517", "center_lat": 10.2013085, "center_lon": -67.51455174, "area_sqkm": 19.8497824}, "geometry": {"type": "Polygon", "coordinates": [[[-67.488934, 10.185121], [-67.499055, 10.211611], [-67.56207, 10.22034], [-67.562132, 10.220123], [-67.568974, 10.213618], [-67.57342899999986, 10.194454000000178], [-67.562626, 10.195827], [-67.560754, 10.193965], [-67.557369, 10.199149000000148], [-67.549664, 10.200768000000153], [-67.54739199999983, 10.205344], [-67.545061, 10.204239], [-67.541644, 10.207327], [-67.536582, 10.206468000000143], [-67.52469699999989, 10.192104], [-67.52490499999988, 10.188686], [-67.509799, 10.188082000000179], [-67.502757, 10.182317000000126], [-67.488934, 10.185121]]]}}, {"type": "Feature", "properties": {"parroquia": "No Urbana Francisco de Miranda", "municipio": "Francisco Linares Alcántara", "estado": "Aragua", "pcode": "VE051702", "estado_pcode": "VE05", "municipio_pcode": "VE0517", "center_lat": 10.2034385, "center_lon": -67.57508114, "area_sqkm": 1.63769787}, "geometry": {"type": "Polygon", "coordinates": [[[-67.578583, 10.206531], [-67.582245, 10.196072], [-67.578482, 10.193402000000162], [-67.57342899999986, 10.194454000000178], [-67.568974, 10.213618], [-67.578583, 10.206531]]]}}, {"type": "Feature", "properties": {"parroquia": "No Urbana Monseñor Feliciano González", "municipio": "Francisco Linares Alcántara", "estado": "Aragua", "pcode": "VE051703", "estado_pcode": "VE05", "municipio_pcode": "VE0517", "center_lat": 10.201277, "center_lon": -67.59214029, "area_sqkm": 1.28769434}, "geometry": {"type": "Polygon", "coordinates": [[[-67.604385, 10.201693000000148], [-67.584711, 10.198854], [-67.582245, 10.196072], [-67.578583, 10.206531], [-67.594858, 10.203913000000114], [-67.604385, 10.201693000000148]]]}}, {"type": "Feature", "properties": {"parroquia": "Ocumare de la Costa de Oro", "municipio": "Ocumare de la Costa de Oro", "estado": "Aragua", "pcode": "VE051801", "estado_pcode": "VE05", "municipio_pcode": "VE0518", "center_lat": 10.41602953, "center_lon": -67.75639582, "area_sqkm": 401.34002246}, "geometry": {"type": "Polygon", "coordinates": [[[-67.64469467799995, 10.50217626000017], [-67.66413491299988, 10.496745423000107], [-67.6689141409999, 10.499374470000134], [-67.68915899799987, 10.49720529100017], [-67.69448126299994, 10.501374368000086], [-67.71066197499994, 10.503342323000084], [-67.7168932109999, 10.498254149000104], [-67.73223788599995, 10.4989200710001], [-67.73454495699997, 10.494246942000075], [-67.73960616199997, 10.49261986700003], [-67.74425337799988, 10.494815894000112], [-67.7431403519999, 10.499171021999985], [-67.75264876099988, 10.49869095200006], [-67.75603388699994, 10.494989832999977], [-67.76357521799997, 10.494625782000185], [-67.76150111499993, 10.4924287340001], [-67.76427420999988, 10.488496611000073], [-67.77992589599995, 10.490548576000151], [-67.78791922399989, 10.486772422000172], [-67.79702762999983, 10.48924343300007], [-67.80156882099993, 10.487955381000063], [-67.80640996499994, 10.478578103000132], [-67.80499185899993, 10.470413892000067], [-67.81077809099997, 10.46772578700012], [-67.80951110699993, 10.47970510800019], [-67.81524637699994, 10.481861136000077], [-67.81600442199993, 10.484771211000066], [-67.81906254799992, 10.482893144000172], [-67.82321173499997, 10.48538218200008], [-67.82571280799993, 10.479738016000056], [-67.83406418899995, 10.481822024], [-67.84457746199985, 10.452444195000169], [-67.84255032899989, 10.444199990000072], [-67.83597202499988, 10.44120295100015], [-67.83916814299994, 10.437438829000087], [-67.84193728499997, 10.442684958000086], [-67.85664094699985, 10.445455932000073], [-67.85348393299995, 10.466316499000072], [-67.85754415899999, 10.475072705000173], [-67.8562671279999, 10.47810279500004], [-67.85984926799989, 10.476595732000135], [-67.86099527899995, 10.46884352300009], [-67.87137667599995, 10.46139726299998], [-67.87524976599997, 10.449162926000156], [-67.87901192099997, 10.44691484100008], [-67.87667776199999, 10.436603585000057], [-67.87928576499996, 10.419687130000113], [-67.8773635209999, 10.393228456999964], [-67.88179358799988, 10.372435892000112], [-67.86865498899994, 10.368071851000025], [-67.83921560199991, 10.34789150500012], [-67.83439988899994, 10.339004025000179], [-67.81058925099995, 10.329033176], [-67.79851572299992, 10.327762216], [-67.7896183929999, 10.337411521000035], [-67.78493019299992, 10.337787558000116], [-67.76820653699991, 10.34963596700004], [-67.75791906899997, 10.345233914], [-67.75055276099994, 10.348368031000064], [-67.73998286999995, 10.34314314200003], [-67.73398701199983, 10.342699985000081], [-67.71309603299994, 10.33094480200009], [-67.70703378899992, 10.332997889000069], [-67.69286616699998, 10.341300250000188], [-67.686145, 10.356353], [-67.667366, 10.365674000000183], [-67.658744, 10.363093000000106], [-67.637187, 10.367559], [-67.632175, 10.365587], [-67.631057, 10.371337], [-67.63429, 10.382781], [-67.627667, 10.392187], [-67.6277429999999, 10.399233], [-67.63402899999988, 10.417002000000139], [-67.657873, 10.46408600000018], [-67.647071, 10.48938], [-67.64469467799995, 10.50217626000017]]]}}]}