{"type": "FeatureCollection", "features": [{"type": "Feature", "properties": {"parroquia": "Urbana Bejuma", "municipio": "Bejuma", "estado": "Carabobo", "pcode": "VE080101", "estado_pcode": "VE08", "municipio_pcode": "VE0801", "center_lat": 10.140931, "center_lon": -68.25259302, "area_sqkm": 181.20266741}, "geometry": {"type": "Polygon", "coordinates": [[[-68.201805, 10.108342], [-68.203424, 10.11146], [-68.199304, 10.117106], [-68.19986, 10.122982], [-68.198507, 10.121559], [-68.19436899999988, 10.129851], [-68.193896, 10.13777], [-68.198613, 10.141396], [-68.208599, 10.158587], [-68.20786599999985, 10.171269000000109], [-68.213181, 10.19938100000013], [-68.22206199999988, 10.231139], [-68.232576, 10.253441], [-68.245159, 10.239612], [-68.250712, 10.226138000000162], [-68.265731, 10.216223000000127], [-68.2738379999999, 10.198460000000125], [-68.271442, 10.193412], [-68.279713, 10.176565], [-68.27949599999988, 10.172124000000167], [-68.284946, 10.164205], [-68.296144, 10.158828000000142], [-68.301065, 10.152544000000148], [-68.309145, 10.147299000000146], [-68.306404, 10.138064], [-68.30119799999989, 10.133501000000138], [-68.307146, 10.125103], [-68.305084, 10.11965], [-68.30785999999983, 10.107292], [-68.320176, 10.096556], [-68.323435, 10.083958], [-68.331694, 10.077352], [-68.32607499999989, 10.070636], [-68.324545, 10.061562], [-68.333011, 10.047846000000163], [-68.331876, 10.041086000000178], [-68.33722121399995, 10.036635620000027], [-68.33944126299986, 10.028419399000086], [-68.32279457499988, 10.03460464900013], [-68.31303324599992, 10.049398076000102], [-68.29167040999994, 10.063111555000148], [-68.29279449699993, 10.069255704], [-68.28615222799988, 10.071838803000162], [-68.27486568699993, 10.063698660000114], [-68.26418823399996, 10.064089738000177], [-68.25289577399997, 10.069060924000098], [-68.23490210099993, 10.08541845100018], [-68.23234697299984, 10.081249361], [-68.22057645399991, 10.07991938900011], [-68.21302608999991, 10.074069290000068], [-68.20610472099997, 10.06156500500009], [-68.20012445999987, 10.060691019000046], [-68.197507, 10.063337], [-68.204978, 10.076846000000103], [-68.205116, 10.085099000000127], [-68.20940999999988, 10.093084], [-68.20818, 10.100305000000105], [-68.201805, 10.108342]]]}}, {"type": "Feature", "properties": {"parroquia": "No Urbana Canoabo", "municipio": "Bejuma", "estado": "Carabobo", "pcode": "VE080102", "estado_pcode": "VE08", "municipio_pcode": "VE0801", "center_lat": 10.33434594, "center_lon": -68.31519141, "area_sqkm": 225.49003015}, "geometry": {"type": "Polygon", "coordinates": [[[-68.294556, 10.391696], [-68.307128, 10.400238], [-68.310542, 10.409723], [-68.321956, 10.413008000000104], [-68.3273559999999, 10.411959000000138], [-68.335547, 10.422019], [-68.338111, 10.421631000000161], [-68.355778, 10.402923], [-68.370358, 10.379038], [-68.38998, 10.37055], [-68.39847784299985, 10.370498409999982], [-68.39885107499998, 10.366383418000055], [-68.39065236799985, 10.347516221000149], [-68.39345747199997, 10.345259144000181], [-68.39350344499985, 10.340628022000146], [-68.38892624299996, 10.33936202000001], [-68.39226133799991, 10.332402819000038], [-68.37913064299988, 10.310656348000066], [-68.37314136399993, 10.306662280000182], [-68.36929204899997, 10.280596631000094], [-68.36274272999992, 10.27530353300017], [-68.35869749799991, 10.266096325999968], [-68.35496232799994, 10.264287301000138], [-68.36227659099984, 10.25564504000016], [-68.36459142299998, 10.24666931400003], [-68.354908, 10.25085], [-68.34755499999989, 10.257402], [-68.33676899999989, 10.260668], [-68.328703, 10.269025], [-68.31860399999988, 10.26824100000016], [-68.302942, 10.26257800000019], [-68.26899999999983, 10.262423000000183], [-68.259198, 10.263612000000137], [-68.251373, 10.269001000000173], [-68.24413899999985, 10.270071], [-68.23526799999985, 10.26438300000018], [-68.226093, 10.272251], [-68.21944, 10.283737000000144], [-68.21123299999988, 10.287963], [-68.205467, 10.296833000000106], [-68.220989, 10.313999], [-68.23255, 10.322044000000119], [-68.254317, 10.355402], [-68.2647, 10.356902], [-68.26983299999984, 10.364391], [-68.286532, 10.372469], [-68.294556, 10.391696]]]}}, {"type": "Feature", "properties": {"parroquia": "No Urbana Simón Bolívar", "municipio": "Bejuma", "estado": "Carabobo", "pcode": "VE080103", "estado_pcode": "VE08", "municipio_pcode": "VE0801", "center_lat": 10.2164735, "center_lon": -68.18485264, "area_sqkm": 144.79487782}, "geometry": {"type": "Polygon", "coordinates": [[[-68.232576, 10.253441], [-68.22206199999988, 10.231139], [-68.213181, 10.19938100000013], [-68.20786599999985, 10.171269000000109], [-68.208599, 10.158587], [-68.198613, 10.141396], [-68.193896, 10.13777], [-68.19436899999988, 10.129851], [-68.198507, 10.121559], [-68.19986, 10.122982], [-68.199304, 10.117106], [-68.203424, 10.11146], [-68.201805, 10.108342], [-68.183938, 10.120293000000117], [-68.174313, 10.131897], [-68.162835, 10.154751000000147], [-68.1537, 10.163138], [-68.148467, 10.17909], [-68.154059, 10.204122], [-68.15064599999988, 10.215253000000132], [-68.152112, 10.221273000000167], [-68.146327, 10.231526], [-68.140326, 10.250863], [-68.14751399999989, 10.271334], [-68.1505269999999, 10.30742800000013], [-68.159749, 10.320700000000102], [-68.174725, 10.324986], [-68.183061, 10.320355000000177], [-68.19545099999988, 10.304203], [-68.205467, 10.296833000000106], [-68.21123299999988, 10.287963], [-68.21944, 10.283737000000144], [-68.226093, 10.272251], [-68.23526799999985, 10.26438300000018], [-68.232576, 10.253441]]]}}, {"type": "Feature", "properties": {"parroquia": "No Urbana Guigue", "municipio": "Carlos Arvelo", "estado": "Carabobo", "pcode": "VE080201", "estado_pcode": "VE08", "municipio_pcode": "VE0802", "center_lat": 10.06624676, "center_lon": -67.76495148, "area_sqkm": 223.69393351}, "geometry": {"type": "Polygon", "coordinates": [[[-67.66087459799996, 10.13282497400013], [-67.67864730899998, 10.122918621], [-67.68629370399992, 10.133721848000107], [-67.68982086099999, 10.13298281699997], [-67.69307801999992, 10.13671389600006], [-67.70391448499993, 10.136625829000138], [-67.70894773599991, 10.141400918999977], [-67.71757509499992, 10.138420797000151], [-67.72006616299996, 10.132404622000024], [-67.72770146799996, 10.12750344900013], [-67.70609449999984, 10.123377475000154], [-67.70172830599995, 10.121179434999988], [-67.70194029399994, 10.117792346000158], [-67.71897201099995, 10.114920177000101], [-67.72909336599992, 10.10110577000006], [-67.74773321399988, 10.106778807000069], [-67.75727866999989, 10.113906929000109], [-67.76289296099992, 10.12351214500012], [-67.80085160099992, 10.121769881000034], [-67.82777199599997, 10.106647790000181], [-67.827549, 10.095460000000116], [-67.83148299999988, 10.084177], [-67.83898499999987, 10.078493000000151], [-67.840051, 10.063950000000148], [-67.836255, 10.054971], [-67.8371949999999, 10.036270000000172], [-67.831873, 10.014426], [-67.831344, 9.992915], [-67.816225, 9.991334], [-67.80473, 9.994476000000134], [-67.788686, 9.98955], [-67.773856, 9.993208], [-67.74527099999989, 9.990078], [-67.734461, 10.00153100000017], [-67.7282019999999, 10.02092], [-67.722557, 10.024769000000163], [-67.706942, 10.027349], [-67.69665937999997, 10.022942004000129], [-67.6837589999999, 10.039368000000138], [-67.68695799999983, 10.055311000000131], [-67.691193, 10.058434], [-67.691312, 10.064086], [-67.68925099999984, 10.067696000000126], [-67.683217, 10.069071], [-67.68018383199995, 10.067241913000089], [-67.67648395999998, 10.07815447400003], [-67.67112972599989, 10.0790465340001], [-67.66014532499992, 10.091347909000149], [-67.65667723699994, 10.102406213000108], [-67.66087459799996, 10.13282497400013]]]}}, {"type": "Feature", "properties": {"parroquia": "No Urbana Belen", "municipio": "Carlos Arvelo", "estado": "Carabobo", "pcode": "VE080202", "estado_pcode": "VE08", "municipio_pcode": "VE0802", "center_lat": 9.92589537, "center_lon": -67.66440432, "area_sqkm": 469.09859098}, "geometry": {"type": "Polygon", "coordinates": [[[-67.62967603399989, 10.015714948000095], [-67.64376715799995, 10.01323599300008], [-67.65056350399982, 10.020896151000045], [-67.67345054299989, 10.030269268000154], [-67.6749126069999, 10.028886219000185], [-67.67150844299988, 10.026977196000075], [-67.67108840399993, 10.023427100000163], [-67.67814472999999, 10.026318134000064], [-67.68412494599988, 10.019173924000143], [-67.6967413729999, 10.022240043000068], [-67.69665937999997, 10.022942004000129], [-67.706942, 10.027349], [-67.722557, 10.024769000000163], [-67.7282019999999, 10.02092], [-67.734461, 10.00153100000017], [-67.74527099999989, 9.990078], [-67.773856, 9.993208], [-67.788686, 9.98955], [-67.80473, 9.994476000000134], [-67.816225, 9.991334], [-67.831344, 9.992915], [-67.837079, 9.99508400000019], [-67.83875, 9.989736000000164], [-67.854828, 9.982469], [-67.862647, 9.975552], [-67.862442, 9.973280000000159], [-67.86034099999983, 9.969848], [-67.862358, 9.952179], [-67.852782, 9.950965000000167], [-67.840652, 9.944193], [-67.82157499999988, 9.943323], [-67.80691178599989, 9.936413102000131], [-67.80482965399995, 9.929835951000143], [-67.79980440799989, 9.924800847000085], [-67.78234264299988, 9.923419916000114], [-67.76818098799993, 9.915599791000147], [-67.7655078169999, 9.907011596000189], [-67.75157620199997, 9.903136570000186], [-67.74477586299997, 9.895857423000166], [-67.7360274699999, 9.892675389000146], [-67.73090316699995, 9.880202098999973], [-67.71243534199994, 9.873944050000091], [-67.71030913599992, 9.85494658000016], [-67.70298679399991, 9.849649488000068], [-67.7092340239999, 9.843323294000129], [-67.71155708499998, 9.83664910300007], [-67.68698094699994, 9.82261789000006], [-67.67972464899998, 9.825355997000088], [-67.66428009899988, 9.846000605000086], [-67.65697078499988, 9.848417714000107], [-67.64326418699983, 9.846715739000103], [-67.62980968399995, 9.861654202000182], [-67.61165883699994, 9.850473016000024], [-67.60410851199998, 9.84951803500013], [-67.59984829199982, 9.844191918000092], [-67.59211796499994, 9.846362023000097], [-67.58984888999998, 9.84938411000013], [-67.58919892899985, 9.860713407000048], [-67.58491578099995, 9.868152612000188], [-67.58553085499994, 9.877394853000055], [-67.5747434569999, 9.888384194000082], [-67.57655960499989, 9.90029348500002], [-67.56863927199993, 9.903705615000092], [-67.56508612499994, 9.904773661000036], [-67.55889182599998, 9.898835547000033], [-67.54909738099997, 9.895367512000064], [-67.54943936399985, 9.889255352000077], [-67.54425211499989, 9.885344279000037], [-67.52425624199992, 9.883257343000025], [-67.51711771599992, 9.878186668000126], [-67.53457709799983, 9.95468211300016], [-67.54487679499982, 9.998563180000076], [-67.56563066899997, 9.994025940000029], [-67.57343905499988, 10.00383115700015], [-67.58628257399994, 9.99612388100013], [-67.6107106319999, 9.995059714000092], [-67.61798095799998, 9.998922775000096], [-67.61488787999997, 10.00778601400009], [-67.62967603399989, 10.015714948000095]]]}}, {"type": "Feature", "properties": {"parroquia": "No Urbana Tacarigua Central", "municipio": "Carlos Arvelo", "estado": "Carabobo", "pcode": "VE080203", "estado_pcode": "VE08", "municipio_pcode": "VE0802", "center_lat": 10.0434765, "center_lon": -67.90010482, "area_sqkm": 177.46972522}, "geometry": {"type": "Polygon", "coordinates": [[[-67.82777199599997, 10.106647790000181], [-67.84645847599995, 10.10596521399998], [-67.85494686099992, 10.109195247000173], [-67.8551118989999, 10.113397358000157], [-67.86054176599993, 10.114698611000051], [-67.863365, 10.104764000000102], [-67.86876699999988, 10.10389], [-67.874894, 10.097725000000139], [-67.898991, 10.089705], [-67.90836399999984, 10.089614000000154], [-67.913177, 10.096693000000187], [-67.924478, 10.097701], [-67.931947, 10.100707000000114], [-67.939078, 10.096931000000154], [-67.96187, 10.099846000000127], [-67.96971799999989, 10.094731], [-67.977928, 10.095921], [-67.98129899999986, 10.068945], [-67.955314, 10.031803], [-67.95521999999988, 10.024286000000131], [-67.95218199999988, 10.018918], [-67.940921, 10.01530300000013], [-67.929832, 10.004485000000159], [-67.924969, 9.995913], [-67.91774, 9.992236], [-67.916714, 9.98121], [-67.906441, 9.96795400000019], [-67.887391, 9.974161], [-67.878415, 9.980996000000175], [-67.864381, 9.976805000000127], [-67.862442, 9.973280000000159], [-67.862647, 9.975552], [-67.854828, 9.982469], [-67.83875, 9.989736000000164], [-67.837079, 9.99508400000019], [-67.831344, 9.992915], [-67.831873, 10.014426], [-67.8371949999999, 10.036270000000172], [-67.836255, 10.054971], [-67.840051, 10.063950000000148], [-67.83898499999987, 10.078493000000151], [-67.83148299999988, 10.084177], [-67.827549, 10.095460000000116], [-67.82777199599997, 10.106647790000181]]]}}, {"type": "Feature", "properties": {"parroquia": "Urbana Aguas Calientes", "municipio": "Diego Ibarra", "estado": "Carabobo", "pcode": "VE080301", "estado_pcode": "VE08", "municipio_pcode": "VE0803", "center_lat": 10.28892554, "center_lon": -67.6713815, "area_sqkm": 37.00603311}, "geometry": {"type": "Polygon", "coordinates": [[[-67.65118681299998, 10.293678560000046], [-67.65310827899998, 10.30387445000008], [-67.66245174199997, 10.31462268100006], [-67.67184126399997, 10.332837094000183], [-67.68294878999984, 10.340035214000125], [-67.69286616699998, 10.341300250000188], [-67.70703378899992, 10.332997889000069], [-67.690037, 10.306877], [-67.6940617979999, 10.261198107000155], [-67.68673647099996, 10.259272090000024], [-67.69218769299988, 10.257733030000054], [-67.69947896999992, 10.250775803000067], [-67.70828235399995, 10.252296794000074], [-67.71629568599985, 10.24959067900005], [-67.71062145099995, 10.250033723000115], [-67.69825786999996, 10.243389615000183], [-67.69473171899989, 10.244197659000065], [-67.6911345289999, 10.236569479000025], [-67.69109455399996, 10.24165161999997], [-67.68781443099988, 10.244221703999983], [-67.68128611699996, 10.239910624000174], [-67.67960807299994, 10.245300776000136], [-67.67251275199993, 10.24331576200018], [-67.67992212799999, 10.252042951000078], [-67.66629161099996, 10.263868329000104], [-67.66327557199992, 10.27964176200004], [-67.65207609399982, 10.280922863000058], [-67.65118681299998, 10.293678560000046]]]}}, {"type": "Feature", "properties": {"parroquia": "Urbana Mariara", "municipio": "Diego Ibarra", "estado": "Carabobo", "pcode": "VE080302", "estado_pcode": "VE08", "municipio_pcode": "VE0803", "center_lat": 10.3012595, "center_lon": -67.71609155, "area_sqkm": 43.00862786}, "geometry": {"type": "Polygon", "coordinates": [[[-67.73998286999995, 10.34314314200003], [-67.746662, 10.315983], [-67.740796, 10.305166], [-67.744416, 10.287730000000124], [-67.74093099999982, 10.284214000000134], [-67.73467078599998, 10.259541466000144], [-67.6940617979999, 10.261198107000155], [-67.690037, 10.306877], [-67.70703378899992, 10.332997889000069], [-67.71309603299994, 10.33094480200009], [-67.73398701199983, 10.342699985000081], [-67.73998286999995, 10.34314314200003]]]}}, {"type": "Feature", "properties": {"parroquia": "Urbana Ciudad Alianza", "municipio": "Guacara", "estado": "Carabobo", "pcode": "VE080401", "estado_pcode": "VE08", "municipio_pcode": "VE0804", "center_lat": 10.189684, "center_lon": -67.89345518, "area_sqkm": 12.16436052}, "geometry": {"type": "Polygon", "coordinates": [[[-67.86950474599996, 10.158328696000012], [-67.89391299999988, 10.203268], [-67.88992599999989, 10.205408], [-67.89453, 10.216195], [-67.895439, 10.228416000000152], [-67.90907699999985, 10.216433], [-67.90980542099999, 10.214254649000054], [-67.911016, 10.206525], [-67.90637199999986, 10.20105], [-67.90717099999989, 10.198585], [-67.902398, 10.19546], [-67.898388, 10.186077000000182], [-67.893295, 10.185124], [-67.894099, 10.173253000000102], [-67.888025, 10.16115800000017], [-67.876528, 10.154028], [-67.86495476699992, 10.151643157000137], [-67.86870771699995, 10.153658312000118], [-67.86950474599996, 10.158328696000012]]]}}, {"type": "Feature", "properties": {"parroquia": "Urbana Guacara", "municipio": "Guacara", "estado": "Carabobo", "pcode": "VE080402", "estado_pcode": "VE08", "municipio_pcode": "VE0804", "center_lat": 10.2653985, "center_lon": -67.87714457, "area_sqkm": 132.11196281}, "geometry": {"type": "Polygon", "coordinates": [[[-67.83439988899994, 10.339004025000179], [-67.83921560199991, 10.34789150500012], [-67.86865498899994, 10.368071851000025], [-67.88179358799988, 10.372435892000112], [-67.89845299999985, 10.368035000000134], [-67.90826, 10.362652], [-67.929969, 10.361445], [-67.92576999999983, 10.35455300000018], [-67.923888, 10.342758000000174], [-67.917297, 10.329572], [-67.912155, 10.32479700000016], [-67.884561, 10.28862], [-67.886139, 10.283523000000173], [-67.895836, 10.282435], [-67.903239, 10.277108000000169], [-67.90111, 10.2712590000001], [-67.902706, 10.267087], [-67.89854799999989, 10.259158], [-67.901889, 10.251359], [-67.897413, 10.242554], [-67.894984, 10.242535], [-67.889262, 10.236184], [-67.88938599999989, 10.232989], [-67.886492, 10.232088], [-67.895439, 10.228416000000152], [-67.89453, 10.216195], [-67.88992599999989, 10.205408], [-67.89391299999988, 10.203268], [-67.86950474599996, 10.158328696000012], [-67.85753932799992, 10.168663758000037], [-67.85408424299993, 10.180462089], [-67.84143874099993, 10.187514338000085], [-67.83962271699994, 10.197004597000046], [-67.83067659699998, 10.20622989200018], [-67.83319299999988, 10.221136000000172], [-67.851443, 10.235848], [-67.849071, 10.250936], [-67.852524, 10.268519], [-67.856456, 10.275909], [-67.850297, 10.300926], [-67.833612, 10.3246630000001], [-67.83439988899994, 10.339004025000179]]]}}, {"type": "Feature", "properties": {"parroquia": "No Urbana Yagua", "municipio": "Guacara", "estado": "Carabobo", "pcode": "VE080403", "estado_pcode": "VE08", "municipio_pcode": "VE0804", "center_lat": 10.2703325, "center_lon": -67.91627132, "area_sqkm": 33.63553819}, "geometry": {"type": "Polygon", "coordinates": [[[-67.90907699999985, 10.216433], [-67.895439, 10.228416000000152], [-67.886492, 10.232088], [-67.88938599999989, 10.232989], [-67.889262, 10.236184], [-67.894984, 10.242535], [-67.897413, 10.242554], [-67.901889, 10.251359], [-67.89854799999989, 10.259158], [-67.902706, 10.267087], [-67.90111, 10.2712590000001], [-67.903239, 10.277108000000169], [-67.895836, 10.282435], [-67.886139, 10.283523000000173], [-67.884561, 10.28862], [-67.912155, 10.32479700000016], [-67.912612, 10.317055000000153], [-67.925082, 10.293105], [-67.932061, 10.261409000000128], [-67.928135, 10.255886], [-67.931636, 10.248224], [-67.929129, 10.236651000000109], [-67.915628, 10.228168], [-67.90907699999985, 10.216433]]]}}, {"type": "Feature", "properties": {"parroquia": "Urbana Morón", "municipio": "Juan José Mora", "estado": "Carabobo", "pcode": "VE080501", "estado_pcode": "VE08", "municipio_pcode": "VE0805", "center_lat": 10.439713, "center_lon": -68.22007201, "area_sqkm": 316.41761415}, "geometry": {"type": "Polygon", "coordinates": [[[-68.23548311399998, 10.577698099999964], [-68.24241544299997, 10.583531211999968], [-68.24872068099995, 10.57862804500013], [-68.24875193099996, 10.57860848900009], [-68.270192, 10.481037], [-68.28383699999989, 10.463595], [-68.286008, 10.452966], [-68.284478, 10.441698000000144], [-68.29716699999989, 10.425849], [-68.29869799999989, 10.411943], [-68.294556, 10.391696], [-68.286532, 10.372469], [-68.26983299999984, 10.364391], [-68.2647, 10.356902], [-68.254317, 10.355402], [-68.23255, 10.322044000000119], [-68.220989, 10.313999], [-68.205467, 10.296833000000106], [-68.19545099999988, 10.304203], [-68.183061, 10.320355000000177], [-68.17687299999983, 10.335306000000173], [-68.163213, 10.351832], [-68.156595, 10.364278000000127], [-68.15930999999989, 10.367387000000122], [-68.1572599999999, 10.39522200000016], [-68.159461, 10.397186000000147], [-68.15627199999989, 10.401689], [-68.162312, 10.410564], [-68.160402, 10.4174], [-68.15611, 10.423213000000146], [-68.154835, 10.421819], [-68.152765, 10.42379700000015], [-68.155709, 10.442837], [-68.154113, 10.447472], [-68.156772, 10.453859], [-68.15226599999988, 10.458183], [-68.147786, 10.457991000000163], [-68.149459, 10.460507000000177], [-68.145799, 10.463063], [-68.15100699999982, 10.471735000000137], [-68.15043, 10.473681], [-68.147573, 10.471575], [-68.142411, 10.4726280000001], [-68.143259, 10.483798], [-68.139458, 10.48523100000017], [-68.13868632399993, 10.488358297000048], [-68.15584021099994, 10.501269598000079], [-68.16027137599997, 10.498078488000033], [-68.17286497199996, 10.506339633000096], [-68.21397001499997, 10.549803504000181], [-68.23548311399998, 10.577698099999964]]]}}, {"type": "Feature", "properties": {"parroquia": "No Urbana Urama", "municipio": "Juan José Mora", "estado": "Carabobo", "pcode": "VE080502", "estado_pcode": "VE08", "municipio_pcode": "VE0805", "center_lat": 10.47459043, "center_lon": -68.33839014, "area_sqkm": 215.44403173}, "geometry": {"type": "Polygon", "coordinates": [[[-68.294556, 10.391696], [-68.29869799999989, 10.411943], [-68.29716699999989, 10.425849], [-68.284478, 10.441698000000144], [-68.286008, 10.452966], [-68.28383699999989, 10.463595], [-68.270192, 10.481037], [-68.24875193099996, 10.57860848900009], [-68.25772506899989, 10.577563960000077], [-68.25852208099991, 10.575016890000029], [-68.25608996699987, 10.573604868000075], [-68.25880507799997, 10.571210794000024], [-68.25707099399995, 10.570827794000138], [-68.25918206599982, 10.567816702000073], [-68.26276221599994, 10.567827678000072], [-68.26534529799994, 10.562110514999972], [-68.28544708599998, 10.548836056000084], [-68.29196236699994, 10.549386023000181], [-68.30044069899986, 10.544816849000142], [-68.30467784099989, 10.537488643000074], [-68.31638833999989, 10.537744578], [-68.32624381999989, 10.545960732000026], [-68.33564024299994, 10.549960775000159], [-68.34568166999998, 10.548983684], [-68.3524359779999, 10.5510436940001], [-68.35972627699994, 10.549342615000171], [-68.37806495699994, 10.53362520700017], [-68.38370716799994, 10.52751990000013], [-68.38255707399998, 10.519179694000172], [-68.38679123999992, 10.516297592000058], [-68.3865731539999, 10.504951303000155], [-68.3895872459999, 10.498246110000025], [-68.39813758999992, 10.494704969000054], [-68.40178471399997, 10.489945815999988], [-68.39006616899991, 10.483091713000022], [-68.40177561899986, 10.474426423000125], [-68.40412468499989, 10.46861726100019], [-68.40212556199992, 10.46151807900003], [-68.39557822899991, 10.454253938000022], [-68.39753325199996, 10.44372464800017], [-68.40139238899997, 10.439789529000052], [-68.39923225099983, 10.432760366000139], [-68.40119622799995, 10.414871891000189], [-68.39601592599996, 10.402261592000173], [-68.40019501199998, 10.386300157000164], [-68.39847784299985, 10.370498409999982], [-68.38998, 10.37055], [-68.370358, 10.379038], [-68.355778, 10.402923], [-68.338111, 10.421631000000161], [-68.335547, 10.422019], [-68.3273559999999, 10.411959000000138], [-68.321956, 10.413008000000104], [-68.310542, 10.409723], [-68.307128, 10.400238], [-68.294556, 10.391696]]]}}, {"type": "Feature", "properties": {"parroquia": "Urbana Tocuyito", "municipio": "Libertador", "estado": "Carabobo", "pcode": "VE080601", "estado_pcode": "VE08", "municipio_pcode": "VE0806", "center_lat": 10.1140485, "center_lon": -68.12496949, "area_sqkm": 209.84304334}, "geometry": {"type": "Polygon", "coordinates": [[[-68.038636, 9.996632], [-68.036501, 10.006149000000164], [-68.042479, 10.018795], [-68.04984899999988, 10.022409], [-68.055279, 10.029078], [-68.053487, 10.032585], [-68.0560129999999, 10.04072100000019], [-68.051531, 10.055455000000165], [-68.055334, 10.055013], [-68.05555499999986, 10.056848000000116], [-68.05762, 10.054233000000124], [-68.064446, 10.059916000000158], [-68.061741, 10.061831000000154], [-68.06200799999988, 10.066153000000156], [-68.070494, 10.074581], [-68.07146899999987, 10.081024000000127], [-68.077026, 10.090081], [-68.073167, 10.101612], [-68.058449, 10.111469000000113], [-68.056648, 10.115477], [-68.06110199999989, 10.127226000000178], [-68.059818, 10.131077000000118], [-68.06501099999986, 10.136613], [-68.067782, 10.145452], [-68.06623, 10.16521], [-68.06243399999988, 10.171022000000107], [-68.06267799999989, 10.173759], [-68.080145, 10.175828], [-68.106858, 10.172625], [-68.113474, 10.204936], [-68.120333, 10.22331], [-68.11756599999984, 10.231301000000144], [-68.146327, 10.231526], [-68.152112, 10.221273000000167], [-68.15064599999988, 10.215253000000132], [-68.154059, 10.204122], [-68.148467, 10.17909], [-68.1537, 10.163138], [-68.162835, 10.154751000000147], [-68.174313, 10.131897], [-68.183938, 10.120293000000117], [-68.201805, 10.108342], [-68.20818, 10.100305000000105], [-68.20940999999988, 10.093084], [-68.205116, 10.085099000000127], [-68.204978, 10.076846000000103], [-68.197507, 10.063337], [-68.18821799999989, 10.063155000000108], [-68.173513, 10.069239], [-68.168955, 10.065137000000107], [-68.161024, 10.064], [-68.146582, 10.056864], [-68.136948, 10.058016000000123], [-68.130726, 10.054268], [-68.105304, 10.049277], [-68.093606, 10.037577000000113], [-68.079107, 10.033343], [-68.046069, 10.011417000000108], [-68.038636, 9.996632]]]}}, {"type": "Feature", "properties": {"parroquia": "Urbana Independencia", "municipio": "Libertador", "estado": "Carabobo", "pcode": "VE080602", "estado_pcode": "VE08", "municipio_pcode": "VE0806", "center_lat": 9.97470229, "center_lon": -68.12964369, "area_sqkm": 331.10830097}, "geometry": {"type": "Polygon", "coordinates": [[[-68.038636, 9.996632], [-68.046069, 10.011417000000108], [-68.079107, 10.033343], [-68.093606, 10.037577000000113], [-68.105304, 10.049277], [-68.130726, 10.054268], [-68.136948, 10.058016000000123], [-68.146582, 10.056864], [-68.161024, 10.064], [-68.168955, 10.065137000000107], [-68.173513, 10.069239], [-68.18821799999989, 10.063155000000108], [-68.197507, 10.063337], [-68.20012445999987, 10.060691019000046], [-68.19998042599985, 10.056899922000184], [-68.20327558199989, 10.059041962000151], [-68.21382400299996, 10.051725715999964], [-68.21610807399986, 10.04731158900006], [-68.21940921399988, 10.047314573000108], [-68.21974320699996, 10.044249488000105], [-68.22355237599993, 10.045277486999964], [-68.22710849099991, 10.03821528900005], [-68.23063664299997, 10.03796126100002], [-68.23113563099997, 10.033812161000071], [-68.23832292199984, 10.030518028000131], [-68.23906294099987, 10.026823941000089], [-68.24532318999997, 10.02490484700013], [-68.24463213999996, 10.020480745000157], [-68.24745724499996, 10.018814685000166], [-68.25019131199997, 10.010136446000047], [-68.24874524399996, 10.008694418000061], [-68.25084733099987, 10.008031397000025], [-68.24804316799992, 10.00137323500013], [-68.25096630299993, 10.00113022000005], [-68.25146827999998, 9.994282043000169], [-68.24853107299998, 9.980475711], [-68.24175673699989, 9.972951557999977], [-68.24035663399997, 9.965139369000099], [-68.22376190999995, 9.963973431000113], [-68.22060779799995, 9.968170556000189], [-68.21504453799997, 9.964974504000054], [-68.2171885969999, 9.958647340000027], [-68.21455747699997, 9.958284342000013], [-68.21000724099991, 9.951456190000101], [-68.20647110099998, 9.952771243000143], [-68.20912719099994, 9.94817512300017], [-68.20523996999998, 9.938480893000076], [-68.1858331649999, 9.943773134000025], [-68.17045746999997, 9.938002084000175], [-68.1711664479999, 9.930338882000115], [-68.16596417299996, 9.921025682000106], [-68.14707934199998, 9.91757469300012], [-68.13843786199988, 9.899453294000068], [-68.13829979799993, 9.888880020000101], [-68.13313553399996, 9.882131882000067], [-68.120081, 9.879712], [-68.08611799999983, 9.897856], [-68.07694, 9.896609000000126], [-68.064147, 9.902451], [-68.05739399999987, 9.908704], [-68.051387, 9.921393000000137], [-68.044326, 9.92778], [-68.043839, 9.934545000000128], [-68.022586, 9.94624400000015], [-68.010663, 9.942718], [-68.000397, 9.943656], [-68.011389, 9.961852], [-68.0172409999999, 9.987207000000183], [-68.0259099999999, 9.988954], [-68.032138, 9.99505], [-68.038636, 9.996632]]]}}, {"type": "Feature", "properties": {"parroquia": "Urbana los Guayos", "municipio": "Los Guayos", "estado": "Carabobo", "pcode": "VE080701", "estado_pcode": "VE08", "municipio_pcode": "VE0807", "center_lat": 10.15180508, "center_lon": -67.89517183, "area_sqkm": 66.49382621}, "geometry": {"type": "Polygon", "coordinates": [[[-67.86495476699992, 10.151643157000137], [-67.876528, 10.154028], [-67.888025, 10.16115800000017], [-67.894099, 10.173253000000102], [-67.893295, 10.185124], [-67.898388, 10.186077000000182], [-67.902398, 10.19546], [-67.90717099999989, 10.198585], [-67.90637199999986, 10.20105], [-67.911016, 10.206525], [-67.90980542099999, 10.214254649000054], [-67.930058, 10.197742], [-67.955232, 10.1862], [-67.95393499999989, 10.18152700000013], [-67.948914, 10.182065], [-67.940582, 10.170288000000141], [-67.93035599999985, 10.165984000000151], [-67.92306899999988, 10.145202000000154], [-67.916103, 10.138875000000155], [-67.925079, 10.124051000000179], [-67.924478, 10.097701], [-67.913177, 10.096693000000187], [-67.90836399999984, 10.089614000000154], [-67.898991, 10.089705], [-67.874894, 10.097725000000139], [-67.86876699999988, 10.10389], [-67.863365, 10.104764000000102], [-67.86054176599993, 10.114698611000051], [-67.86924556599996, 10.123631535000015], [-67.87051465599995, 10.129567679000047], [-67.86289836299994, 10.135667878], [-67.87190478999997, 10.143202025000164], [-67.8705857779999, 10.150191215000063], [-67.86495476699992, 10.151643157000137]]]}}, {"type": "Feature", "properties": {"parroquia": "Urbana Miranda", "municipio": "Miranda", "estado": "Carabobo", "pcode": "VE080801", "estado_pcode": "VE08", "municipio_pcode": "VE0808", "center_lat": 10.10750403, "center_lon": -68.35335522, "area_sqkm": 182.01457027}, "geometry": {"type": "Polygon", "coordinates": [[[-68.37928713299988, 10.225056162000158], [-68.40281812399996, 10.220703909000065], [-68.41110407399998, 10.216331474000185], [-68.41320841099997, 10.195514210000113], [-68.42777992899994, 10.17662864], [-68.42476471599997, 10.162210289000143], [-68.4134081499999, 10.149084020000032], [-68.41212702999997, 10.13864777100008], [-68.40008744499988, 10.127282542000046], [-68.39712928199998, 10.121273413000154], [-68.40070825999999, 10.091259625000134], [-68.40708448899983, 10.084690431000183], [-68.4058283949999, 10.076622235000173], [-68.40196421099984, 10.075183213000116], [-68.40292838199991, 10.064735787000075], [-68.39930701099996, 10.059900846000119], [-68.39120866899998, 10.060549913000102], [-68.37849705199989, 10.049174696000136], [-68.37820101599982, 10.043708558000105], [-68.38211316699994, 10.04176548400011], [-68.38886631699995, 10.01817285500016], [-68.38544515199993, 10.014517780000176], [-68.38239795599998, 10.002852504000089], [-68.37029735499993, 9.989877249000017], [-68.36891231899989, 9.994381361000023], [-68.36130496599998, 9.9901893], [-68.34481432699988, 10.000312658000041], [-68.3422252069999, 9.999126641999965], [-68.3429082689999, 10.00458377900003], [-68.33746804499992, 10.005973839000148], [-68.33591502299993, 10.01390304400013], [-68.34132831699992, 10.023932277000085], [-68.33944126299986, 10.028419399000086], [-68.33722121399995, 10.036635620000027], [-68.331876, 10.041086000000178], [-68.333011, 10.047846000000163], [-68.324545, 10.061562], [-68.32607499999989, 10.070636], [-68.331694, 10.077352], [-68.323435, 10.083958], [-68.320176, 10.096556], [-68.30785999999983, 10.107292], [-68.305084, 10.11965], [-68.307146, 10.125103], [-68.30119799999989, 10.133501000000138], [-68.306404, 10.138064], [-68.309145, 10.147299000000146], [-68.301065, 10.152544000000148], [-68.302771, 10.157326], [-68.299925, 10.163038000000142], [-68.346332, 10.152145000000132], [-68.356952, 10.159773], [-68.366295, 10.171988000000113], [-68.37146299999989, 10.184774000000175], [-68.3737579999999, 10.20689], [-68.37892299999987, 10.218088], [-68.37928713299988, 10.225056162000158]]]}}, {"type": "Feature", "properties": {"parroquia": "Urbana Montalbán", "municipio": "Montalbán", "estado": "Carabobo", "pcode": "VE080901", "estado_pcode": "VE08", "municipio_pcode": "VE0809", "center_lat": 10.2115553, "center_lon": -68.32102841, "area_sqkm": 138.08721333}, "geometry": {"type": "Polygon", "coordinates": [[[-68.23526799999985, 10.26438300000018], [-68.24413899999985, 10.270071], [-68.251373, 10.269001000000173], [-68.259198, 10.263612000000137], [-68.26899999999983, 10.262423000000183], [-68.302942, 10.26257800000019], [-68.31860399999988, 10.26824100000016], [-68.328703, 10.269025], [-68.33676899999989, 10.260668], [-68.34755499999989, 10.257402], [-68.354908, 10.25085], [-68.36459142299998, 10.24666931400003], [-68.37928713299988, 10.225056162000158], [-68.37892299999987, 10.218088], [-68.3737579999999, 10.20689], [-68.37146299999989, 10.184774000000175], [-68.366295, 10.171988000000113], [-68.356952, 10.159773], [-68.346332, 10.152145000000132], [-68.299925, 10.163038000000142], [-68.302771, 10.157326], [-68.301065, 10.152544000000148], [-68.296144, 10.158828000000142], [-68.284946, 10.164205], [-68.27949599999988, 10.172124000000167], [-68.279713, 10.176565], [-68.271442, 10.193412], [-68.2738379999999, 10.198460000000125], [-68.265731, 10.216223000000127], [-68.250712, 10.226138000000162], [-68.245159, 10.239612], [-68.232576, 10.253441], [-68.23526799999985, 10.26438300000018]]]}}, {"type": "Feature", "properties": {"parroquia": "Urbana Naguanagua", "municipio": "Naguanagua", "estado": "Carabobo", "pcode": "VE081001", "estado_pcode": "VE08", "municipio_pcode": "VE0810", "center_lat": 10.284856, "center_lon": -68.06883695, "area_sqkm": 199.56390302}, "geometry": {"type": "Polygon", "coordinates": [[[-68.11756599999984, 10.231301000000144], [-68.010848, 10.230419000000154], [-68.004348, 10.225873], [-68.001449, 10.234058000000175], [-67.98434, 10.233069], [-67.981648, 10.243359], [-67.983686, 10.246687], [-67.982599, 10.254468], [-67.983989, 10.25788000000017], [-67.99028899999985, 10.258525], [-67.993206, 10.26336700000013], [-67.99107, 10.275028], [-67.99262599999986, 10.280274000000134], [-67.982584, 10.293825], [-67.979107, 10.29459], [-67.970232, 10.336904], [-67.986531, 10.33598400000011], [-67.9952459999999, 10.330018000000166], [-68.000944, 10.33667], [-68.005866, 10.337545000000148], [-68.02268999999984, 10.328525], [-68.04534, 10.331176], [-68.052447, 10.330253], [-68.05393, 10.325702], [-68.066792, 10.325857], [-68.072071, 10.323317], [-68.083495, 10.336715], [-68.104351, 10.343834000000186], [-68.11007499999988, 10.334503000000154], [-68.123255, 10.323595000000182], [-68.1334849999999, 10.326148], [-68.143369, 10.325368], [-68.159749, 10.320700000000102], [-68.1505269999999, 10.30742800000013], [-68.14751399999989, 10.271334], [-68.140326, 10.250863], [-68.146327, 10.231526], [-68.11756599999984, 10.231301000000144]]]}}, {"type": "Feature", "properties": {"parroquia": "Urbana Bartolomé Salom", "municipio": "Puerto Cabello", "estado": "Carabobo", "pcode": "VE081101", "estado_pcode": "VE08", "municipio_pcode": "VE0811", "center_lat": 10.400893, "center_lon": -68.00362431, "area_sqkm": 71.75767331}, "geometry": {"type": "Polygon", "coordinates": [[[-67.9778419999999, 10.4703], [-67.98742099999987, 10.458463000000165], [-67.991897, 10.467611000000147], [-68.009806, 10.462874], [-68.02559168499994, 10.466971275000049], [-68.029266, 10.463436], [-68.0285669999999, 10.454176000000189], [-68.039323, 10.44209], [-68.03823499999987, 10.435549000000151], [-68.032503, 10.427474], [-68.028039, 10.406319000000167], [-68.019258, 10.397824000000185], [-68.01694499999985, 10.383907], [-68.02125, 10.368183000000101], [-68.02107299999989, 10.357745000000136], [-68.01265999999987, 10.342710000000125], [-68.005866, 10.337545000000148], [-68.000944, 10.33667], [-67.9952459999999, 10.330018000000166], [-67.986531, 10.33598400000011], [-67.970232, 10.336904], [-67.969203, 10.351986], [-67.978822, 10.376159000000143], [-67.97937599999989, 10.386562], [-67.99028, 10.42546700000014], [-67.97600099999988, 10.441632], [-67.9778419999999, 10.4703]]]}}, {"type": "Feature", "properties": {"parroquia": "Urbana Democracia", "municipio": "Puerto Cabello", "estado": "Carabobo", "pcode": "VE081102", "estado_pcode": "VE08", "municipio_pcode": "VE0811", "center_lat": 10.3961015, "center_lon": -68.1167674, "area_sqkm": 152.78315497}, "geometry": {"type": "Polygon", "coordinates": [[[-68.15100699999982, 10.471735000000137], [-68.145799, 10.463063], [-68.149459, 10.460507000000177], [-68.147786, 10.457991000000163], [-68.15226599999988, 10.458183], [-68.156772, 10.453859], [-68.154113, 10.447472], [-68.155709, 10.442837], [-68.152765, 10.42379700000015], [-68.154835, 10.421819], [-68.15611, 10.423213000000146], [-68.160402, 10.4174], [-68.162312, 10.410564], [-68.15627199999989, 10.401689], [-68.159461, 10.397186000000147], [-68.1572599999999, 10.39522200000016], [-68.15930999999989, 10.367387000000122], [-68.156595, 10.364278000000127], [-68.163213, 10.351832], [-68.17687299999983, 10.335306000000173], [-68.183061, 10.320355000000177], [-68.174725, 10.324986], [-68.159749, 10.320700000000102], [-68.143369, 10.325368], [-68.1334849999999, 10.326148], [-68.123255, 10.323595000000182], [-68.11007499999988, 10.334503000000154], [-68.104351, 10.343834000000186], [-68.083495, 10.336715], [-68.072071, 10.323317], [-68.066792, 10.325857], [-68.05393, 10.325702], [-68.052447, 10.330253], [-68.04534, 10.331176], [-68.050292, 10.342729], [-68.062528, 10.35345100000012], [-68.064338, 10.373771], [-68.0779639999999, 10.399662], [-68.083071, 10.416366], [-68.084037, 10.425273], [-68.07533, 10.434314], [-68.072064, 10.445168], [-68.071038, 10.462073], [-68.106032, 10.469307000000128], [-68.15100699999982, 10.471735000000137]]]}}, {"type": "Feature", "properties": {"parroquia": "Urbana Goaigoaza", "municipio": "Puerto Cabello", "estado": "Carabobo", "pcode": "VE081104", "estado_pcode": "VE08", "municipio_pcode": "VE0811", "center_lat": 10.398743, "center_lon": -68.04884003, "area_sqkm": 74.48355732}, "geometry": {"type": "Polygon", "coordinates": [[[-68.02591156299985, 10.467492193000169], [-68.039661, 10.468672], [-68.0418, 10.465665], [-68.071038, 10.462073], [-68.072064, 10.445168], [-68.07533, 10.434314], [-68.084037, 10.425273], [-68.083071, 10.416366], [-68.0779639999999, 10.399662], [-68.064338, 10.373771], [-68.062528, 10.35345100000012], [-68.050292, 10.342729], [-68.04534, 10.331176], [-68.02268999999984, 10.328525], [-68.005866, 10.337545000000148], [-68.01265999999987, 10.342710000000125], [-68.02107299999989, 10.357745000000136], [-68.02125, 10.368183000000101], [-68.01694499999985, 10.383907], [-68.019258, 10.397824000000185], [-68.028039, 10.406319000000167], [-68.032503, 10.427474], [-68.03823499999987, 10.435549000000151], [-68.039323, 10.44209], [-68.0285669999999, 10.454176000000189], [-68.029266, 10.463436], [-68.02559168499994, 10.466971275000049], [-68.02591156299985, 10.467492193000169]]]}}, {"type": "Feature", "properties": {"parroquia": "No Urbana Borburata", "municipio": "Puerto Cabello", "estado": "Carabobo", "pcode": "VE081107", "estado_pcode": "VE08", "municipio_pcode": "VE0811", "center_lat": 10.413928, "center_lon": -67.96754577, "area_sqkm": 58.69727431}, "geometry": {"type": "Polygon", "coordinates": [[[-67.9315966879999, 10.47193667700003], [-67.94955505799999, 10.460954790000073], [-67.97540732899989, 10.486905306000153], [-67.98492875799997, 10.490434347000189], [-67.98142658199993, 10.486110254000096], [-67.98566389899997, 10.484424181000122], [-67.977327, 10.480503000000112], [-67.9778419999999, 10.4703], [-67.97600099999988, 10.441632], [-67.99028, 10.42546700000014], [-67.97937599999989, 10.386562], [-67.978822, 10.376159000000143], [-67.969203, 10.351986], [-67.970232, 10.336904], [-67.967021, 10.334682], [-67.9597619999999, 10.338161000000127], [-67.94868999999989, 10.334551], [-67.94513599999982, 10.338582000000144], [-67.939007, 10.358429], [-67.929969, 10.361445], [-67.937503, 10.371842000000129], [-67.940043, 10.382051], [-67.951398, 10.393305], [-67.951855, 10.396734], [-67.94636, 10.41041300000012], [-67.94909799999988, 10.424886000000186], [-67.947293, 10.442049], [-67.9315966879999, 10.47193667700003]]]}}, {"type": "Feature", "properties": {"parroquia": "No Urbana Patanemo", "municipio": "Puerto Cabello", "estado": "Carabobo", "pcode": "VE081108", "estado_pcode": "VE08", "municipio_pcode": "VE0811", "center_lat": 10.41860607, "center_lon": -67.91378247, "area_sqkm": 83.5532591}, "geometry": {"type": "Polygon", "coordinates": [[[-67.85984926799989, 10.476595732000135], [-67.85841921699989, 10.478001782000149], [-67.8637854449999, 10.477714737999975], [-67.86877464399998, 10.474182617000054], [-67.87519693899998, 10.477942673000143], [-67.87692098799988, 10.473267538000073], [-67.88368026999996, 10.470565437000062], [-67.88710943599989, 10.474869523000052], [-67.89387668299992, 10.467463290000182], [-67.89922194399998, 10.470940348999989], [-67.89638979599994, 10.467739277000021], [-67.8983668589999, 10.464247179999973], [-67.90184201899996, 10.46542919400008], [-67.90052401499997, 10.474748434000048], [-67.92285185299994, 10.453485752000063], [-67.9326153429999, 10.463479950000135], [-67.9315966879999, 10.47193667700003], [-67.947293, 10.442049], [-67.94909799999988, 10.424886000000186], [-67.94636, 10.41041300000012], [-67.951855, 10.396734], [-67.951398, 10.393305], [-67.940043, 10.382051], [-67.937503, 10.371842000000129], [-67.929969, 10.361445], [-67.90826, 10.362652], [-67.89845299999985, 10.368035000000134], [-67.88179358799988, 10.372435892000112], [-67.8773635209999, 10.393228456999964], [-67.87928576499996, 10.419687130000113], [-67.87667776199999, 10.436603585000057], [-67.87901192099997, 10.44691484100008], [-67.87524976599997, 10.449162926000156], [-67.87137667599995, 10.46139726299998], [-67.86099527899995, 10.46884352300009], [-67.85984926799989, 10.476595732000135]]]}}, {"type": "Feature", "properties": {"parroquia": "Urbana San Diego", "municipio": "San Diego", "estado": "Carabobo", "pcode": "VE081201", "estado_pcode": "VE08", "municipio_pcode": "VE0812", "center_lat": 10.270591, "center_lon": -67.96187857, "area_sqkm": 114.00622978}, "geometry": {"type": "Polygon", "coordinates": [[[-67.912155, 10.32479700000016], [-67.917297, 10.329572], [-67.923888, 10.342758000000174], [-67.92576999999983, 10.35455300000018], [-67.929969, 10.361445], [-67.939007, 10.358429], [-67.94513599999982, 10.338582000000144], [-67.94868999999989, 10.334551], [-67.9597619999999, 10.338161000000127], [-67.967021, 10.334682], [-67.970232, 10.336904], [-67.979107, 10.29459], [-67.982584, 10.293825], [-67.99262599999986, 10.280274000000134], [-67.99107, 10.275028], [-67.993206, 10.26336700000013], [-67.99028899999985, 10.258525], [-67.983989, 10.25788000000017], [-67.982599, 10.254468], [-67.983686, 10.246687], [-67.981648, 10.243359], [-67.98434, 10.233069], [-67.980561, 10.209999], [-67.988604, 10.199976000000163], [-67.98745999999988, 10.189407000000188], [-67.984321, 10.184433], [-67.987543, 10.180181000000118], [-67.955232, 10.1862], [-67.930058, 10.197742], [-67.90980542099999, 10.214254649000054], [-67.90907699999985, 10.216433], [-67.915628, 10.228168], [-67.929129, 10.236651000000109], [-67.931636, 10.248224], [-67.928135, 10.255886], [-67.932061, 10.261409000000128], [-67.925082, 10.293105], [-67.912612, 10.317055000000153], [-67.912155, 10.32479700000016]]]}}, {"type": "Feature", "properties": {"parroquia": "Urbana San Joaquín", "municipio": "San Joaquín", "estado": "Carabobo", "pcode": "VE081301", "estado_pcode": "VE08", "municipio_pcode": "VE0813", "center_lat": 10.277068, "center_lon": -67.79780808, "area_sqkm": 137.48363535}, "geometry": {"type": "Polygon", "coordinates": [[[-67.73998286999995, 10.34314314200003], [-67.75055276099994, 10.348368031000064], [-67.75791906899997, 10.345233914], [-67.76820653699991, 10.34963596700004], [-67.78493019299992, 10.337787558000116], [-67.7896183929999, 10.337411521000035], [-67.79851572299992, 10.327762216], [-67.81058925099995, 10.329033176], [-67.83439988899994, 10.339004025000179], [-67.833612, 10.3246630000001], [-67.850297, 10.300926], [-67.856456, 10.275909], [-67.852524, 10.268519], [-67.849071, 10.250936], [-67.851443, 10.235848], [-67.83319299999988, 10.221136000000172], [-67.83067659699998, 10.20622989200018], [-67.81835395799999, 10.224468432000037], [-67.79362692099983, 10.229949713000167], [-67.79109681299991, 10.22929870900009], [-67.79143678999998, 10.224205582000138], [-67.78577155199991, 10.224190609000061], [-67.78192944599982, 10.234919912000066], [-67.77307711899994, 10.243726189000142], [-67.7565454029999, 10.243731287], [-67.75251920999995, 10.240671228000053], [-67.74821607099994, 10.248748460000115], [-67.73467078599998, 10.259541466000144], [-67.74093099999982, 10.284214000000134], [-67.744416, 10.287730000000124], [-67.740796, 10.305166], [-67.746662, 10.315983], [-67.73998286999995, 10.34314314200003]]]}}, {"type": "Feature", "properties": {"parroquia": "Urbana Candelaria", "municipio": "Valencia", "estado": "Carabobo", "pcode": "VE081401", "estado_pcode": "VE08", "municipio_pcode": "VE0814", "center_lat": 10.176394, "center_lon": -68.01585349, "area_sqkm": 3.91562289}, "geometry": {"type": "Polygon", "coordinates": [[[-68.016016, 10.182282], [-68.023444, 10.184596], [-68.03244599999988, 10.178707], [-68.019884, 10.168068000000119], [-68.00175499999989, 10.170292], [-68.00333099999989, 10.18048000000016], [-68.01245499999987, 10.178997], [-68.016016, 10.182282]]]}}, {"type": "Feature", "properties": {"parroquia": "Urbana Catedral", "municipio": "Valencia", "estado": "Carabobo", "pcode": "VE081402", "estado_pcode": "VE08", "municipio_pcode": "VE0814", "center_lat": 10.1848115, "center_lon": -68.00147292, "area_sqkm": 0.56656837}, "geometry": {"type": "Polygon", "coordinates": [[[-68.00333099999989, 10.18048000000016], [-67.998268, 10.181113000000153], [-67.99874299999988, 10.189129], [-68.004654, 10.188726000000145], [-68.00333099999989, 10.18048000000016]]]}}, {"type": "Feature", "properties": {"parroquia": "Urbana el Socorro", "municipio": "Valencia", "estado": "Carabobo", "pcode": "VE081403", "estado_pcode": "VE08", "municipio_pcode": "VE0814", "center_lat": 10.183713, "center_lon": -68.00917285, "area_sqkm": 1.06814163}, "geometry": {"type": "Polygon", "coordinates": [[[-68.016016, 10.182282], [-68.01245499999987, 10.178997], [-68.00333099999989, 10.18048000000016], [-68.004654, 10.188726000000145], [-68.01024799999988, 10.188685000000135], [-68.016016, 10.182282]]]}}, {"type": "Feature", "properties": {"parroquia": "Urbana Miguel Peña", "municipio": "Valencia", "estado": "Carabobo", "pcode": "VE081404", "estado_pcode": "VE08", "municipio_pcode": "VE0814", "center_lat": 10.0612745, "center_lon": -68.01967191, "area_sqkm": 174.99553486}, "geometry": {"type": "Polygon", "coordinates": [[[-68.06243399999988, 10.171022000000107], [-68.06623, 10.16521], [-68.067782, 10.145452], [-68.06501099999986, 10.136613], [-68.059818, 10.131077000000118], [-68.06110199999989, 10.127226000000178], [-68.056648, 10.115477], [-68.058449, 10.111469000000113], [-68.073167, 10.101612], [-68.077026, 10.090081], [-68.07146899999987, 10.081024000000127], [-68.070494, 10.074581], [-68.06200799999988, 10.066153000000156], [-68.061741, 10.061831000000154], [-68.064446, 10.059916000000158], [-68.05762, 10.054233000000124], [-68.05555499999986, 10.056848000000116], [-68.055334, 10.055013], [-68.051531, 10.055455000000165], [-68.0560129999999, 10.04072100000019], [-68.053487, 10.032585], [-68.055279, 10.029078], [-68.04984899999988, 10.022409], [-68.042479, 10.018795], [-68.036501, 10.006149000000164], [-68.038636, 9.996632], [-68.032138, 9.99505], [-68.0259099999999, 9.988954], [-68.0172409999999, 9.987207000000183], [-68.011389, 9.961852], [-68.000397, 9.943656], [-67.991719, 9.949395], [-67.98691399999984, 9.971583], [-67.978158, 9.984728], [-67.96762799999988, 9.993876], [-67.95218199999988, 10.018918], [-67.95521999999988, 10.024286000000131], [-67.955314, 10.031803], [-67.98129899999986, 10.068945], [-67.991281, 10.064594000000113], [-67.997154, 10.067307], [-68.004026, 10.079349], [-68.005049, 10.09043800000012], [-68.000527, 10.108805000000132], [-67.999099, 10.128504], [-68.00175499999989, 10.170292], [-68.019884, 10.168068000000119], [-68.03244599999988, 10.178707], [-68.0397789999999, 10.169948], [-68.051295, 10.16419], [-68.06243399999988, 10.171022000000107]]]}}, {"type": "Feature", "properties": {"parroquia": "Urbana Rafael Urdaneta", "municipio": "Valencia", "estado": "Carabobo", "pcode": "VE081405", "estado_pcode": "VE08", "municipio_pcode": "VE0814", "center_lat": 10.14137, "center_lon": -67.94744651, "area_sqkm": 50.12602614}, "geometry": {"type": "Polygon", "coordinates": [[[-67.955232, 10.1862], [-67.987543, 10.180181000000118], [-67.988962, 10.169900000000155], [-67.983509, 10.14941000000016], [-67.978459, 10.147027], [-67.975766, 10.137561000000176], [-67.97232, 10.134253000000172], [-67.969873, 10.12116], [-67.965199, 10.121576], [-67.96187, 10.099846000000127], [-67.939078, 10.096931000000154], [-67.931947, 10.100707000000114], [-67.924478, 10.097701], [-67.925079, 10.124051000000179], [-67.916103, 10.138875000000155], [-67.92306899999988, 10.145202000000154], [-67.93035599999985, 10.165984000000151], [-67.940582, 10.170288000000141], [-67.948914, 10.182065], [-67.95393499999989, 10.18152700000013], [-67.955232, 10.1862]]]}}, {"type": "Feature", "properties": {"parroquia": "Urbana San Blas", "municipio": "Valencia", "estado": "Carabobo", "pcode": "VE081406", "estado_pcode": "VE08", "municipio_pcode": "VE0814", "center_lat": 10.1799315, "center_lon": -67.99309618, "area_sqkm": 2.72245049}, "geometry": {"type": "Polygon", "coordinates": [[[-67.99874299999988, 10.189129], [-67.998268, 10.181113000000153], [-68.000943, 10.173918], [-67.988962, 10.169900000000155], [-67.987543, 10.180181000000118], [-67.984321, 10.184433], [-67.98745999999988, 10.189407000000188], [-67.99874299999988, 10.189129]]]}}, {"type": "Feature", "properties": {"parroquia": "Urbana San José", "municipio": "Valencia", "estado": "Carabobo", "pcode": "VE081407", "estado_pcode": "VE08", "municipio_pcode": "VE0814", "center_lat": 10.1990245, "center_lon": -68.05020526, "area_sqkm": 83.35666533}, "geometry": {"type": "Polygon", "coordinates": [[[-68.03244599999988, 10.178707], [-68.023444, 10.184596], [-68.016016, 10.182282], [-68.01024799999988, 10.188685000000135], [-68.004654, 10.188726000000145], [-67.99874299999988, 10.189129], [-67.98745999999988, 10.189407000000188], [-67.988604, 10.199976000000163], [-67.980561, 10.209999], [-67.98434, 10.233069], [-68.001449, 10.234058000000175], [-68.004348, 10.225873], [-68.010848, 10.230419000000154], [-68.11756599999984, 10.231301000000144], [-68.120333, 10.22331], [-68.113474, 10.204936], [-68.106858, 10.172625], [-68.080145, 10.175828], [-68.06267799999989, 10.173759], [-68.06243399999988, 10.171022000000107], [-68.051295, 10.16419], [-68.0397789999999, 10.169948], [-68.03244599999988, 10.178707]]]}}, {"type": "Feature", "properties": {"parroquia": "Urbana Santa Rosa", "municipio": "Valencia", "estado": "Carabobo", "pcode": "VE081408", "estado_pcode": "VE08", "municipio_pcode": "VE0814", "center_lat": 10.1229995, "center_lon": -67.98501471, "area_sqkm": 32.86414394}, "geometry": {"type": "Polygon", "coordinates": [[[-68.00333099999989, 10.18048000000016], [-68.00175499999989, 10.170292], [-67.999099, 10.128504], [-68.000527, 10.108805000000132], [-68.005049, 10.09043800000012], [-68.004026, 10.079349], [-67.997154, 10.067307], [-67.991281, 10.064594000000113], [-67.98129899999986, 10.068945], [-67.977928, 10.095921], [-67.96971799999989, 10.094731], [-67.96187, 10.099846000000127], [-67.965199, 10.121576], [-67.969873, 10.12116], [-67.97232, 10.134253000000172], [-67.975766, 10.137561000000176], [-67.978459, 10.147027], [-67.983509, 10.14941000000016], [-67.988962, 10.169900000000155], [-68.000943, 10.173918], [-67.998268, 10.181113000000153], [-68.00333099999989, 10.18048000000016]]]}}, {"type": "Feature", "properties": {"parroquia": "No Urbana Negro Primero", "municipio": "Valencia", "estado": "Carabobo", "pcode": "VE081409", "estado_pcode": "VE08", "municipio_pcode": "VE0814", "center_lat": 9.91444802, "center_lon": -67.93290855, "area_sqkm": 428.87161668}, "geometry": {"type": "Polygon", "coordinates": [[[-67.862442, 9.973280000000159], [-67.864381, 9.976805000000127], [-67.878415, 9.980996000000175], [-67.887391, 9.974161], [-67.906441, 9.96795400000019], [-67.916714, 9.98121], [-67.91774, 9.992236], [-67.924969, 9.995913], [-67.929832, 10.004485000000159], [-67.940921, 10.01530300000013], [-67.95218199999988, 10.018918], [-67.96762799999988, 9.993876], [-67.978158, 9.984728], [-67.98691399999984, 9.971583], [-67.991719, 9.949395], [-68.000397, 9.943656], [-68.010663, 9.942718], [-68.022586, 9.94624400000015], [-68.043839, 9.934545000000128], [-68.044326, 9.92778], [-68.051387, 9.921393000000137], [-68.05739399999987, 9.908704], [-68.064147, 9.902451], [-68.07694, 9.896609000000126], [-68.08611799999983, 9.897856], [-68.120081, 9.879712], [-68.13313553399996, 9.882131882000067], [-68.12982136099998, 9.875611737000156], [-68.12933244899995, 9.861520153000015], [-68.12295695799992, 9.857111315999987], [-68.12148483599998, 9.846896061000052], [-68.11608756899989, 9.841228946000058], [-68.09436262599996, 9.839547026000162], [-68.08691831399994, 9.841975133000062], [-68.07650894599993, 9.855173518000072], [-68.0729037939999, 9.856684587000132], [-68.06742653799995, 9.852959518000034], [-68.06299434799996, 9.853040546000159], [-68.05358798999998, 9.860907795000173], [-68.03107102099989, 9.861304933000156], [-68.02386272299998, 9.863970042000119], [-68.01541740899995, 9.871252277000053], [-68.01134622799998, 9.871216291999986], [-68.00720309999991, 9.879483526000115], [-68.00426898199999, 9.880330566000055], [-68.002379, 9.861431], [-68.013066, 9.852354], [-68.014632, 9.84754700000019], [-68.005986, 9.832088000000113], [-67.99288518299988, 9.827993308000032], [-67.98249976099999, 9.830701431000023], [-67.97610545999993, 9.8270243770001], [-67.97177529299995, 9.829993475000094], [-67.95545458299995, 9.83004856600013], [-67.94265197899989, 9.820467400000155], [-67.92994642599996, 9.819058439000173], [-67.91847388299993, 9.811266303000082], [-67.9085334689999, 9.814597440000114], [-67.90330527599997, 9.820254611000053], [-67.89223081799997, 9.82333876000007], [-67.87509614199996, 9.835367152000174], [-67.86822584699996, 9.834912187999976], [-67.86121056899992, 9.838201305000098], [-67.8463849019999, 9.834850310000036], [-67.83056121999994, 9.835465410000097], [-67.80538121699993, 9.849004896000054], [-67.80636931399994, 9.858011113000146], [-67.81010948199997, 9.861162181000054], [-67.81492276599988, 9.874237475000143], [-67.81350880799994, 9.891986945000042], [-67.80906167099988, 9.900512187], [-67.81174885299998, 9.91263547400007], [-67.80482965399995, 9.929835951000143], [-67.80691178599989, 9.936413102000131], [-67.82157499999988, 9.943323], [-67.840652, 9.944193], [-67.852782, 9.950965000000167], [-67.862358, 9.952179], [-67.86034099999983, 9.969848], [-67.862442, 9.973280000000159]]]}}, {"type": "Feature", "properties": {"parroquia": "Urbanafraternidad", "municipio": "Puerto Cabello", "estado": "Carabobo", "pcode": "VE081103", "estado_pcode": "VE08", "municipio_pcode": "VE0811", "center_lat": 10.47542493, "center_lon": -67.98314212, "area_sqkm": 7.02015921}, "geometry": {"type": "Polygon", "coordinates": [[[-67.98566389899997, 10.484424181000122], [-67.98767686399998, 10.488144265000074], [-67.99585524899999, 10.492190328999982], [-68.00287353399989, 10.489521207000166], [-68.00919881899995, 10.490598207000062], [-68.01134387299993, 10.484876044000089], [-68.00945277099999, 10.482751993000136], [-68.00755270099995, 10.483883036], [-68.00965379899998, 10.48565006800004], [-68.00522660299998, 10.484513067000023], [-68.0090397809999, 10.487336113000026], [-68.00804774999989, 10.489175168000031], [-68.00201946399983, 10.484550088000162], [-67.99960239299986, 10.489189220000128], [-67.99373112399996, 10.487850228000184], [-67.99442711599994, 10.48037702800002], [-67.98537267199993, 10.472317873000122], [-67.98334181299987, 10.464586623000116], [-67.98641837199995, 10.464189648000058], [-67.98947644099985, 10.471256600000174], [-67.99358420099998, 10.473937359], [-68.00180116899998, 10.46810978000019], [-68.00279360699994, 10.47039238800005], [-67.99812914599988, 10.472476509000103], [-67.99786400199997, 10.475030926000159], [-68.006971, 10.472133], [-68.01667702399988, 10.473858111000027], [-68.02328691899993, 10.474721275000036], [-68.02591156299985, 10.467492193000169], [-68.02559168499994, 10.466971275000049], [-68.009806, 10.462874], [-67.991897, 10.467611000000147], [-67.98742099999987, 10.458463000000165], [-67.9778419999999, 10.4703], [-67.977327, 10.480503000000112], [-67.98566389899997, 10.484424181000122]]]}}, {"type": "Feature", "properties": {"parroquia": "Urbana Unión", "municipio": "Puerto Cabello", "estado": "Carabobo", "pcode": "VE081106", "estado_pcode": "VE08", "municipio_pcode": "VE0811", "center_lat": 10.4772305, "center_lon": -68.00806568, "area_sqkm": 0.98880883}, "geometry": {"type": "Polygon", "coordinates": [[[-67.99786400199997, 10.475030926000159], [-68.005285, 10.476306000000136], [-68.004744, 10.478567000000169], [-68.000973, 10.477702], [-68.000267, 10.480713], [-68.006979, 10.482294], [-68.013062, 10.4768380000001], [-68.011089, 10.477506000000119], [-68.01186799999988, 10.474815], [-68.01667702399988, 10.473858111000027], [-68.006971, 10.472133], [-67.99786400199997, 10.475030926000159]]]}}, {"type": "Feature", "properties": {"parroquia": "Urbana Juan José Flores", "municipio": "Puerto Cabello", "estado": "Carabobo", "pcode": "VE081105", "estado_pcode": "VE08", "municipio_pcode": "VE0811", "center_lat": 10.48010484, "center_lon": -68.07069405, "area_sqkm": 29.63904442}, "geometry": {"type": "Polygon", "coordinates": [[[-68.02328691899993, 10.474721275000036], [-68.03323278099998, 10.478993755000033], [-68.03863304099985, 10.484280866000063], [-68.04054212199998, 10.483237827000039], [-68.04476833099989, 10.488223931999983], [-68.06092008999985, 10.49778607800016], [-68.0671693409999, 10.495629990000111], [-68.07366663699997, 10.498135013000024], [-68.07992887199993, 10.492151818000082], [-68.08884327999988, 10.494793834000063], [-68.10696497299995, 10.480024338000135], [-68.12275570399999, 10.48842646900016], [-68.12193470699998, 10.494492622000166], [-68.12504579299991, 10.487733433000187], [-68.12368272599986, 10.485898389000056], [-68.12664183499999, 10.483804322000083], [-68.13672227199999, 10.48434227700011], [-68.13380516099994, 10.485359319000054], [-68.13868632399993, 10.488358297000048], [-68.139458, 10.48523100000017], [-68.143259, 10.483798], [-68.142411, 10.4726280000001], [-68.147573, 10.471575], [-68.15043, 10.473681], [-68.15100699999982, 10.471735000000137], [-68.106032, 10.469307000000128], [-68.071038, 10.462073], [-68.0418, 10.465665], [-68.039661, 10.468672], [-68.02591156299985, 10.467492193000169], [-68.02328691899993, 10.474721275000036]]]}}]}