{"type": "FeatureCollection", "features": [{"type": "Feature", "properties": {"parroquia": "Cojedes", "municipio": "Anzoátegui", "estado": "Cojedes", "pcode": "VE090101", "estado_pcode": "VE09", "municipio_pcode": "VE0901", "center_lat": 9.54061356, "center_lon": -68.81855716, "area_sqkm": 393.32193652}, "geometry": {"type": "Polygon", "coordinates": [[[-68.73057211599996, 9.528109746000098], [-68.72863705399982, 9.533108875000096], [-68.73057319299994, 9.54287010000013], [-68.73912660399998, 9.550870251999982], [-68.73946466299998, 9.557745417000149], [-68.74524396399994, 9.567837634000057], [-68.74938714099994, 9.568537622000065], [-68.75633247599995, 9.57500774500005], [-68.76063173499995, 9.58773003300007], [-68.76937311599994, 9.58996204400006], [-68.78004354399997, 9.58590988200018], [-68.78389172099997, 9.588653920000013], [-68.79452718199997, 9.588830873000177], [-68.80042145599992, 9.593704955000078], [-68.81217894699995, 9.592339859999981], [-68.81900527099998, 9.596955930000036], [-68.82237543699995, 9.601534026000081], [-68.81751425999988, 9.60662117700008], [-68.81878539799999, 9.62154853400017], [-68.83799533199993, 9.642479941000033], [-68.83751235099993, 9.647924084000067], [-68.83211486599993, 9.65699810200016], [-68.94222577899995, 9.643009364000022], [-68.93798558299994, 9.639782312000023], [-68.94119770099996, 9.638105255000085], [-68.93681851299993, 9.63784227300016], [-68.93871957599993, 9.634777182000107], [-68.93338132399992, 9.629702092000173], [-68.9344878679999, 9.625055402999976], [-68.92397986899994, 9.619447890000117], [-68.92795502799993, 9.617915830000186], [-68.92210177299995, 9.616560838000169], [-68.92599690599991, 9.610315666000133], [-68.92342377699993, 9.607422599000131], [-68.92323970799998, 9.598134377000065], [-68.90988403699998, 9.57022647600013], [-68.90791287699994, 9.566204683000024], [-68.90259663899991, 9.56434867400003], [-68.90846473699997, 9.536763960000087], [-68.89321397499987, 9.516350553000109], [-68.89327894999991, 9.510949422000067], [-68.89811413999996, 9.508918342000072], [-68.89428594499992, 9.503601239000034], [-68.89678802299989, 9.497622074000105], [-68.8957469419999, 9.491544933000114], [-68.90259119699994, 9.484265719000177], [-68.89535378699998, 9.467568354000036], [-68.89162461899997, 9.464390292000132], [-68.89586563899996, 9.437391617000117], [-68.88899128099996, 9.424505340000167], [-68.73752757999983, 9.425954948000026], [-68.73447176999997, 9.437857522], [-68.73726689999995, 9.438822522000123], [-68.73501685099984, 9.447699756000077], [-68.74123713899996, 9.451910827000063], [-68.73969809499994, 9.45589793300013], [-68.73536192099988, 9.45648296500002], [-68.73798909999994, 9.469399269000064], [-68.73492703399995, 9.481166574000156], [-68.73927526199992, 9.487683705], [-68.74682659899997, 9.49068773700003], [-68.75276284599988, 9.490022685999975], [-68.76182027599998, 9.498784858000079], [-68.77040665399994, 9.49991183000003], [-68.77429583299994, 9.50322989200015], [-68.76990966699987, 9.506964013000072], [-68.7345322359999, 9.520652540000185], [-68.73057211599996, 9.528109746000098]]]}}, {"type": "Feature", "properties": {"parroquia": "Juan de Mata Suarez", "municipio": "Anzoátegui", "estado": "Cojedes", "pcode": "VE090102", "estado_pcode": "VE09", "municipio_pcode": "VE0901", "center_lat": 9.75758544, "center_lon": -68.8978751, "area_sqkm": 384.32705091}, "geometry": {"type": "Polygon", "coordinates": [[[-68.76213841499998, 9.869947985000124], [-68.77151681999999, 9.86950192800009], [-68.78752044599992, 9.861349630000063], [-68.80234297699997, 9.843568106000134], [-68.82744306299992, 9.846942039000169], [-68.85871632499993, 9.834419556000114], [-68.87732916299996, 9.842199643000185], [-68.90593537799992, 9.841083443000173], [-68.91938000099992, 9.849680580000154], [-68.92779634499993, 9.847798489000127], [-68.93706270199988, 9.84104226500017], [-68.94774121999995, 9.851652463000164], [-68.96855004499997, 9.841593096000167], [-68.97415529399996, 9.84264209700018], [-68.97601234799993, 9.83861598700014], [-68.97897846699993, 9.838432962000184], [-68.9746992499999, 9.83164481800003], [-68.97628227699988, 9.824466630000131], [-68.97438517799986, 9.82186657699998], [-68.97818433799995, 9.822327565000137], [-68.9783263299999, 9.81878448100008], [-68.97761625799995, 9.81112229700011], [-68.97532613399983, 9.807717228000172], [-68.97338006199993, 9.808499257000108], [-68.97660516899998, 9.803645121000102], [-68.97380602599998, 9.799871035000137], [-68.97425996399988, 9.786434706000136], [-68.9865834879999, 9.78609262499998], [-68.98218528199988, 9.78321557900017], [-68.98416457499997, 9.778472207000107], [-68.98417918699994, 9.778245550000065], [-68.9780010639999, 9.775231412999972], [-68.97650494099992, 9.765867183000069], [-68.97873002799992, 9.763750124000126], [-68.98482129499996, 9.765086122000184], [-68.98408324399998, 9.76138203100004], [-68.98612331399994, 9.76020899700012], [-68.97994998999997, 9.748749743000019], [-68.98352211799994, 9.744241613000042], [-68.98276404099983, 9.737477454000043], [-68.97991791199996, 9.73519841700005], [-68.98098594199996, 9.732760343000109], [-68.98299804099997, 9.73492339000012], [-68.98765821299992, 9.730783257000098], [-68.98546408399994, 9.724501117999978], [-68.98692712199994, 9.720222009000054], [-68.98143789099998, 9.720819051999968], [-68.9781547199999, 9.715296930000136], [-68.97502957799998, 9.714536936000115], [-68.97564963899993, 9.719092048000107], [-68.97027441299991, 9.721023125000102], [-68.9716214639999, 9.718125046000182], [-68.96960737299997, 9.717112031000113], [-68.97002836099989, 9.713062930000035], [-68.96556115699991, 9.710829902], [-68.96277594699995, 9.69511452900008], [-68.96537602199999, 9.689156363000052], [-68.96248587999986, 9.684945286000072], [-68.96638798399994, 9.673741981000092], [-68.96150276899994, 9.673095993000118], [-68.96419187199996, 9.670174906000113], [-68.95997868599989, 9.669092904000081], [-68.96146272699991, 9.666699834000156], [-68.95201129899993, 9.66085174799997], [-68.94612552799987, 9.649176255000043], [-68.94403390399998, 9.652194579000025], [-68.94222577899995, 9.643009364000022], [-68.83211486599993, 9.65699810200016], [-68.83450031599995, 9.665254518000097], [-68.83197024299994, 9.670548668000094], [-68.83397735599993, 9.675565776000099], [-68.83262633499999, 9.680925917000138], [-68.83951766499996, 9.6878320510001], [-68.84017574799987, 9.696990265000068], [-68.83363849299997, 9.70186342300019], [-68.83304154299987, 9.714217737000126], [-68.82553323799988, 9.717410857000175], [-68.82746337299989, 9.727627097000095], [-68.77722030299998, 9.827618138000105], [-68.77098062899984, 9.84122021900015], [-68.77409379399995, 9.84622032700014], [-68.76530644599984, 9.852016524000021], [-68.76252437599993, 9.859850740000184], [-68.75530209199997, 9.86446388800016], [-68.76213841499998, 9.869947985000124]]]}}, {"type": "Feature", "properties": {"parroquia": "Tinaquillo", "municipio": "Tinaquillo", "estado": "Cojedes", "pcode": "VE090201", "estado_pcode": "VE09", "municipio_pcode": "VE0902", "center_lat": 9.94054305, "center_lon": -68.31700929, "area_sqkm": 667.92942271}, "geometry": {"type": "Polygon", "coordinates": [[[-68.20012445999987, 10.060691019000046], [-68.20610472099997, 10.06156500500009], [-68.21302608999991, 10.074069290000068], [-68.22057645399991, 10.07991938900011], [-68.23234697299984, 10.081249361], [-68.23490210099993, 10.08541845100018], [-68.25289577399997, 10.069060924000098], [-68.26418823399996, 10.064089738000177], [-68.27486568699993, 10.063698660000114], [-68.28615222799988, 10.071838803000162], [-68.29279449699993, 10.069255704], [-68.29167040999994, 10.063111555000148], [-68.31303324599992, 10.049398076000102], [-68.32279457499988, 10.03460464900013], [-68.33944126299986, 10.028419399000086], [-68.34132831699992, 10.023932277000085], [-68.33591502299993, 10.01390304400013], [-68.33746804499992, 10.005973839000148], [-68.3429082689999, 10.00458377900003], [-68.3422252069999, 9.999126641999965], [-68.34481432699988, 10.000312658000041], [-68.36130496599998, 9.9901893], [-68.36891231899989, 9.994381361000023], [-68.37029735499993, 9.989877249000017], [-68.39438424299988, 9.965822496000044], [-68.40505271899991, 9.967355479000162], [-68.40604170299997, 9.958052236000185], [-68.41163790399997, 9.952520068000013], [-68.41920222999994, 9.951777006000043], [-68.4284395499999, 9.939689650000162], [-68.47058122599998, 9.915869811999983], [-68.48060164599997, 9.914250706000132], [-68.48329272499996, 9.909398569000075], [-68.48572862599997, 9.91087166799997], [-68.48569, 9.907121000000188], [-68.478465, 9.905079000000114], [-68.483647, 9.89485], [-68.481806, 9.889692000000139], [-68.470073, 9.8873430000001], [-68.46634399999988, 9.876935000000117], [-68.430841, 9.872211], [-68.423839, 9.865731], [-68.4166919999999, 9.863134], [-68.411283, 9.856401], [-68.40215999999987, 9.851174], [-68.396065, 9.850875], [-68.38916699999987, 9.849317], [-68.36800099999988, 9.851158], [-68.380209, 9.81706300000019], [-68.374824, 9.798782000000188], [-68.37202, 9.796404], [-68.358847, 9.79792700000013], [-68.348606, 9.795715], [-68.342587, 9.798503], [-68.340113, 9.802889], [-68.336371, 9.799253], [-68.334534, 9.799075], [-68.334542, 9.801830000000109], [-68.327966, 9.802131], [-68.32047, 9.797774000000118], [-68.31506, 9.799993], [-68.31078899999989, 9.79648600000013], [-68.3014900039999, 9.797810905000063], [-68.287003, 9.802368], [-68.270737, 9.802757], [-68.268439, 9.805163], [-68.24063799999988, 9.810949], [-68.228908, 9.807719000000134], [-68.124636, 9.808679000000154], [-68.1270229999999, 9.815009], [-68.137029, 9.818818], [-68.147687, 9.828646], [-68.142369, 9.838458000000116], [-68.13493999999986, 9.842314000000101], [-68.13752099999988, 9.851838000000157], [-68.13302499999986, 9.853616], [-68.12933244899995, 9.861520153000015], [-68.12982136099998, 9.875611737000156], [-68.13313553399996, 9.882131882000067], [-68.13829979799993, 9.888880020000101], [-68.13843786199988, 9.899453294000068], [-68.14707934199998, 9.91757469300012], [-68.16596417299996, 9.921025682000106], [-68.1711664479999, 9.930338882000115], [-68.17045746999997, 9.938002084000175], [-68.1858331649999, 9.943773134000025], [-68.20523996999998, 9.938480893000076], [-68.20912719099994, 9.94817512300017], [-68.20647110099998, 9.952771243000143], [-68.21000724099991, 9.951456190000101], [-68.21455747699997, 9.958284342000013], [-68.2171885969999, 9.958647340000027], [-68.21504453799997, 9.964974504000054], [-68.22060779799995, 9.968170556000189], [-68.22376190999995, 9.963973431000113], [-68.24035663399997, 9.965139369000099], [-68.24175673699989, 9.972951557999977], [-68.24853107299998, 9.980475711], [-68.25146827999998, 9.994282043000169], [-68.25096630299993, 10.00113022000005], [-68.24804316799992, 10.00137323500013], [-68.25084733099987, 10.008031397000025], [-68.24874524399996, 10.008694418000061], [-68.25019131199997, 10.010136446000047], [-68.24745724499996, 10.018814685000166], [-68.24463213999996, 10.020480745000157], [-68.24532318999997, 10.02490484700013], [-68.23906294099987, 10.026823941000089], [-68.23832292199984, 10.030518028000131], [-68.23113563099997, 10.033812161000071], [-68.23063664299997, 10.03796126100002], [-68.22710849099991, 10.03821528900005], [-68.22355237599993, 10.045277486999964], [-68.21974320699996, 10.044249488000105], [-68.21940921399988, 10.047314573000108], [-68.21610807399986, 10.04731158900006], [-68.21382400299996, 10.051725715999964], [-68.20327558199989, 10.059041962000151], [-68.19998042599985, 10.056899922000184], [-68.20012445999987, 10.060691019000046]]]}}, {"type": "Feature", "properties": {"parroquia": "El Baúl", "municipio": "Girardot", "estado": "Cojedes", "pcode": "VE090301", "estado_pcode": "VE09", "municipio_pcode": "VE0903", "center_lat": 8.80150534, "center_lon": -68.3417115, "area_sqkm": 2415.53097751}, "geometry": {"type": "Polygon", "coordinates": [[[-68.357629, 9.063035000000127], [-68.358987, 9.060567], [-68.363443, 9.062241], [-68.36763899999988, 9.058976], [-68.370762, 9.062176000000136], [-68.37083899999988, 9.066862], [-68.375687, 9.066083000000106], [-68.379983, 9.070328000000131], [-68.3832139999999, 9.068867], [-68.382806, 9.065096000000153], [-68.39464, 9.058187], [-68.396079, 9.053810000000169], [-68.392273, 9.046286], [-68.394311, 9.040702], [-68.388859, 9.039041000000111], [-68.385898, 9.044271000000151], [-68.38137799999987, 9.036326], [-68.3731729999999, 9.037049000000138], [-68.372673, 9.033071000000177], [-68.36608699999988, 9.031445], [-68.367817, 9.02673], [-68.375729, 9.03062100000011], [-68.376351, 9.02539], [-68.367521, 9.023282], [-68.368453, 9.019915], [-68.36347199999989, 9.01185100000015], [-68.36288999999988, 9.003874], [-68.357817, 9.004054], [-68.356962, 9.006596], [-68.354548, 9.004239], [-68.365041, 8.987073000000123], [-68.399352, 8.867287000000147], [-68.39711899999986, 8.862214000000165], [-68.401142, 8.861607], [-68.397609, 8.856726000000151], [-68.398358, 8.852661], [-68.414017, 8.852461], [-68.422997, 8.840362], [-68.427828, 8.839478000000156], [-68.429911, 8.852788], [-68.43380699999989, 8.855487], [-68.43376699999988, 8.844352000000185], [-68.44081199999988, 8.835060000000169], [-68.446904, 8.837317], [-68.452441, 8.846003], [-68.457287, 8.836417], [-68.463572, 8.834702], [-68.463336, 8.845745], [-68.47146199999986, 8.853483], [-68.483299, 8.845692], [-68.48561699999988, 8.853146], [-68.491069, 8.850882000000126], [-68.503523, 8.854659], [-68.503708, 8.850479000000178], [-68.50668999999988, 8.848872], [-68.51358, 8.851632000000166], [-68.519892, 8.857838000000129], [-68.5296479999999, 8.854512], [-68.51910599999985, 8.847914], [-68.52551, 8.84743500000019], [-68.524192, 8.842082000000119], [-68.527614, 8.841073000000108], [-68.53489599999989, 8.84799], [-68.539243, 8.84491400000013], [-68.548051, 8.845240000000103], [-68.548351, 8.842736], [-68.551889, 8.844208], [-68.55438332499989, 8.841650905000051], [-68.55095972599986, 8.838535095], [-68.55574492699992, 8.838032058000067], [-68.56090012499988, 8.833071916000165], [-68.57329267999995, 8.83801596800015], [-68.58415812599992, 8.834159818000103], [-68.58602813899995, 8.822307527000078], [-68.58817823099992, 8.82279053200017], [-68.58928380099991, 8.828762416000131], [-68.59257144599997, 8.827891629000078], [-68.59633855999994, 8.819645414000036], [-68.60130877799992, 8.820428412000126], [-68.60635001599996, 8.82506949000009], [-68.60933113499988, 8.823278441000127], [-68.60946810799993, 8.816203267000049], [-68.61617341699997, 8.820294331000127], [-68.62054259199982, 8.818962274000171], [-68.61758141999996, 8.810991102000173], [-68.61866745599991, 8.807431012000109], [-68.62375267499993, 8.807845001000032], [-68.62476970299997, 8.80536393300008], [-68.62155555999988, 8.804145922000089], [-68.62428266299992, 8.801734851], [-68.6261557489999, 8.803342879000184], [-68.64115533599994, 8.793307571000128], [-68.63995023999996, 8.782969324000135], [-68.64306934399985, 8.777572190000171], [-68.64882357499988, 8.775000091000038], [-68.6537487949999, 8.777803130999985], [-68.65723793399997, 8.775414063000028], [-68.65483280899997, 8.7719229920001], [-68.65961701399988, 8.771049942000161], [-68.66079504699991, 8.768568886000025], [-68.6635461759999, 8.770039901000189], [-68.66752133099993, 8.767490823000117], [-68.66772832099991, 8.764480756000182], [-68.67297655699991, 8.767904798000188], [-68.6741765939999, 8.764825725000037], [-68.684789, 8.762929148000069], [-68.68765315499996, 8.762625609999986], [-68.69074125799995, 8.756014434000122], [-68.68918815699993, 8.749493284000039], [-68.6982315119999, 8.742512076000082], [-68.71126406999997, 8.744386057000156], [-68.7192003699999, 8.737753855000108], [-68.72731272199991, 8.73918884699998], [-68.72594769199998, 8.74379296799998], [-68.72812979499986, 8.74624301300014], [-68.73554210199995, 8.743379909], [-68.73520705699997, 8.737810782999986], [-68.7294937669999, 8.729104603000167], [-68.72514858199992, 8.729702641000074], [-68.72789567799992, 8.724188498000103], [-68.71571616399984, 8.724419567000098], [-68.7164771809999, 8.721777500000087], [-68.72109936699991, 8.721225460000085], [-68.72223039899995, 8.717688371000065], [-68.71728217999998, 8.715115333000142], [-68.71475902099996, 8.70631714800004], [-68.70486659699998, 8.704480152000087], [-68.69957233999992, 8.69967906800008], [-68.69071895899987, 8.69685304799998], [-68.68092155499994, 8.700046172000043], [-68.67743443199998, 8.705857321999986], [-68.66650499199994, 8.710703495000132], [-68.65744561299988, 8.710817536999969], [-68.64903020899993, 8.702547392000042], [-68.65258732799998, 8.69689623700009], [-68.65018320999997, 8.693726175], [-68.65145224899999, 8.690809097000056], [-68.64983416999985, 8.689522077000163], [-68.64807911399993, 8.692416158000071], [-68.64609101999991, 8.689682104000156], [-68.64736004199995, 8.683525950000046], [-68.64495390299999, 8.675944787000105], [-68.64804800299993, 8.669467615000144], [-68.63448137099982, 8.660982489000105], [-68.63613241399992, 8.654290317000061], [-68.63442831999998, 8.651387267000189], [-68.64689680599997, 8.642452992000017], [-68.64368463999995, 8.634860823000054], [-68.63451225499989, 8.63695092800009], [-68.6226787459999, 8.635407942000143], [-68.60846909299988, 8.62732182800005], [-68.59645158499995, 8.627013887000032], [-68.59568359199989, 8.634688060000087], [-68.58295305299998, 8.636615172000177], [-68.57968589699982, 8.633244108000156], [-68.58316201899993, 8.626679936000073], [-68.57686669699996, 8.617120754000155], [-68.5718574679999, 8.614197699000101], [-68.56021200299995, 8.618692866000174], [-68.54742742699989, 8.612468788000172], [-68.54794342399987, 8.608393687000046], [-68.54211913999995, 8.60207957200015], [-68.53202069199995, 8.59811252500009], [-68.52823154599997, 8.601686628000152], [-68.51491699299999, 8.60396675100003], [-68.50515355199997, 8.598169656000096], [-68.49575516599992, 8.601967794000132], [-68.48801380599997, 8.596602715000017], [-68.48035348999997, 8.598897803000057], [-68.47290316499982, 8.597640813000112], [-68.46733499399988, 8.609227109000074], [-68.46293877799997, 8.604428018000135], [-68.45980565799988, 8.6070280940001], [-68.45219030399994, 8.602673035000123], [-68.44078284799997, 8.606758182000021], [-68.42506711199991, 8.594668979000062], [-68.42070492699997, 8.594112988000177], [-68.41615476399988, 8.600549157000046], [-68.38612950099997, 8.60516841499998], [-68.38372940199991, 8.606539462], [-68.38328640999993, 8.61173958400002], [-68.37967326599994, 8.613898651000056], [-68.36581964699997, 8.609305614000107], [-68.36202445499993, 8.602953482000146], [-68.35655024899995, 8.607543623000083], [-68.34803587599998, 8.606385639000166], [-68.33846444999995, 8.601477567000131], [-68.33120808599995, 8.593087412000045], [-68.32468481799998, 8.593375449000177], [-68.32727294199998, 8.596732516000031], [-68.32384484899984, 8.607102773000179], [-68.30986526599992, 8.60982290600009], [-68.29895873999982, 8.597993680000116], [-68.29981674999993, 8.592913559000124], [-68.29341047099996, 8.5931566000001], [-68.28279298999996, 8.58708651], [-68.27470767099993, 8.593225693000022], [-68.26349820699988, 8.594670774000122], [-68.26504129599994, 8.599918898000055], [-68.26200018599985, 8.604101007000168], [-68.25392181699988, 8.599942946999988], [-68.24546445899989, 8.599677984000039], [-68.23653005499989, 8.591374120000069], [-68.23287786599997, 8.589110796], [-68.22196741799996, 8.59227892600012], [-68.20576978299994, 8.604645296000172], [-68.19902147099998, 8.599654221000094], [-68.19645535899997, 8.599668234000092], [-68.19261321699992, 8.604826371000115], [-68.1866629509999, 8.602229342999976], [-68.18583892699996, 8.604902406000122], [-68.1815477419999, 8.604275415000188], [-68.17912362499999, 8.600850340000022], [-68.16023482499992, 8.604192519000094], [-68.15755367799989, 8.59776038200016], [-68.15226146199996, 8.599253433000172], [-68.14440511499998, 8.59741143499997], [-68.14618921699997, 8.601905531000057], [-68.13554472799996, 8.59629045400004], [-68.12661638199995, 8.603012652000075], [-68.12546731499998, 8.599374573000034], [-68.11873200299993, 8.595207507000055], [-68.11648890499998, 8.595247523000182], [-68.11722597399995, 8.60176967100017], [-68.11396084999996, 8.60526077100019], [-68.10434642099995, 8.601950745000067], [-68.10796653299997, 8.593121509000127], [-68.10555441899987, 8.592082504000018], [-68.1040573709999, 8.594883578000179], [-68.09807810999996, 8.592744556000127], [-68.10180524499998, 8.589213449000056], [-68.10087319199988, 8.586564389000102], [-68.09799308199996, 8.587514423000187], [-68.09359687499995, 8.584660388000032], [-68.08644059299996, 8.588743517000069], [-68.08551653899997, 8.587103485000114], [-68.08961270099996, 8.583624383000029], [-68.0886876319999, 8.577397241000085], [-68.08263937299995, 8.578421293000076], [-68.08000327699989, 8.583126409000045], [-68.06730867599998, 8.571663207000142], [-68.05297810299999, 8.577857420000043], [-68.05636116799997, 8.563386059000038], [-68.04964687099994, 8.561904065000022], [-68.05328697999994, 8.550684774000104], [-68.0506207979999, 8.538177491999988], [-68.04722662899997, 8.53366740500013], [-68.02449265499996, 8.534502535000115], [-68.02053149599993, 8.536121589000174], [-68.02308863299987, 8.540990696000051], [-68.01853743999999, 8.542828758000098], [-68.01527429899988, 8.540967734000105], [-68.01375125099992, 8.54482283200008], [-68.0156113509999, 8.548375906000047], [-68.01094514699992, 8.54859394000016], [-68.0110501769999, 8.554960081000104], [-68.0143073509999, 8.560063195000112], [-68.01127421399997, 8.56028520600006], [-68.00883408799996, 8.554954096000074], [-68.00080474099997, 8.554497124000079], [-68.00343390199998, 8.565319362000082], [-67.9986947249999, 8.568403467000053], [-67.99707167599996, 8.573683594000045], [-67.9992787839999, 8.577350675000162], [-67.99798975199991, 8.581385776000161], [-68.00103189399994, 8.582550788000106], [-68.0089151919999, 8.574978570000098], [-68.01532846999993, 8.576386575000129], [-68.00680318299993, 8.592281987000092], [-68.01017033899984, 8.593865009000183], [-68.01157637199998, 8.587255851000123], [-68.01277743499998, 8.590705919000072], [-68.02101480299996, 8.593071940000186], [-68.01366049599994, 8.596059042999968], [-68.0175727059999, 8.602987186000064], [-68.01060443399996, 8.60878236700006], [-68.01375656399989, 8.607287316000054], [-68.01526963499998, 8.609028345000183], [-68.01619769299992, 8.612272418000089], [-68.01281454299993, 8.611914424000133], [-68.01385859999993, 8.61562151600009], [-68.01921286899989, 8.622003631000098], [-68.0163757549999, 8.625230729000123], [-68.00858942999997, 8.626254790000019], [-68.0022781969999, 8.632485966000104], [-68.00822372299996, 8.638014135], [-68.009081, 8.640584000000104], [-68.018995, 8.641772000000174], [-68.019996, 8.645497], [-68.026217, 8.648507], [-68.024885, 8.650652], [-68.0274869999999, 8.656034], [-68.01832499999989, 8.661304000000143], [-68.021762, 8.660994], [-68.026193, 8.66484000000014], [-68.022843, 8.665649], [-68.02564599999988, 8.667825], [-68.02177999999986, 8.675039], [-68.022554, 8.679147000000114], [-68.024846, 8.68052], [-68.032744, 8.67708800000014], [-68.034093, 8.680346], [-68.035705, 8.67791000000011], [-68.038989, 8.678341], [-68.042195, 8.68384500000019], [-68.047825, 8.679613000000131], [-68.052711, 8.68236], [-68.058962, 8.694517000000133], [-68.05835599999989, 8.701519], [-68.05517, 8.70329100000015], [-68.05751, 8.704803], [-68.055345, 8.708181], [-68.05872099999988, 8.708152000000155], [-68.0580619999999, 8.712630000000104], [-68.063656, 8.711725], [-68.06367099999983, 8.717143000000135], [-68.067849, 8.714496000000167], [-68.071809, 8.717106000000115], [-68.067808, 8.725377], [-68.06954599999989, 8.726682000000153], [-68.07671499999987, 8.727038000000107], [-68.07675299999988, 8.724237000000187], [-68.080543, 8.723244], [-68.082559, 8.725008], [-68.0897609999999, 8.737025], [-68.088148, 8.739117], [-68.092901, 8.743976], [-68.092477, 8.749486000000104], [-68.098965, 8.754112], [-68.09761799999984, 8.760679], [-68.087612, 8.763106000000107], [-68.085154, 8.760654000000102], [-68.081864, 8.766857000000186], [-68.077903, 8.764683], [-68.07866, 8.770903], [-68.071444, 8.7708], [-68.074623, 8.774697000000117], [-68.072857, 8.780348000000174], [-68.075703, 8.780963], [-68.075211, 8.787299], [-68.0721759999999, 8.785054000000173], [-68.071402, 8.789738000000114], [-68.063152, 8.791909000000146], [-68.062537, 8.795744000000184], [-68.055451, 8.801034000000186], [-68.056778, 8.804407], [-68.052819, 8.802622000000156], [-68.052468, 8.81006], [-68.04992999999985, 8.812612000000172], [-68.052804, 8.81472], [-68.050712, 8.819498], [-68.058076, 8.822953], [-68.055009, 8.826677], [-68.056528, 8.83268800000019], [-68.053848, 8.833702], [-68.054092, 8.838431], [-68.05763599999989, 8.840744], [-68.0568449999999, 8.847769000000142], [-68.054213, 8.849655], [-68.05601899999988, 8.85934], [-68.04795, 8.860638000000165], [-68.044492, 8.86493600000017], [-68.026869, 8.866638], [-68.030057, 8.873933], [-68.028551, 8.882336], [-68.0220819999999, 8.885628000000168], [-68.046688, 8.918831], [-68.069014, 8.936587], [-68.120627, 8.960216000000173], [-68.151689, 8.963468000000148], [-68.204154, 8.958779000000106], [-68.252262, 8.997043], [-68.270299, 9.027128000000118], [-68.282155, 9.036879000000113], [-68.29394799999983, 9.041729000000146], [-68.29777799999982, 9.046154000000115], [-68.307516, 9.044966000000102], [-68.310921, 9.050282], [-68.315183, 9.050233000000105], [-68.31590599999987, 9.055132000000128], [-68.320393, 9.053064], [-68.320979, 9.054976000000181], [-68.326403, 9.054571], [-68.328946, 9.057789], [-68.335087, 9.054703000000131], [-68.34730599999989, 9.066836], [-68.357629, 9.063035000000127]]]}}, {"type": "Feature", "properties": {"parroquia": "Sucre", "municipio": "Girardot", "estado": "Cojedes", "pcode": "VE090302", "estado_pcode": "VE09", "municipio_pcode": "VE0903", "center_lat": 9.026832, "center_lon": -68.517204, "area_sqkm": 802.16804502}, "geometry": {"type": "Polygon", "coordinates": [[[-68.62849122999995, 9.219524749000186], [-68.62856405299988, 9.219530803000168], [-68.66363369999993, 8.984509585000012], [-68.65959612499995, 8.985244017000014], [-68.65679499099997, 8.98262597200005], [-68.65873004099996, 8.975002780000068], [-68.65458583599997, 8.969880679000028], [-68.65814094899997, 8.962900503000185], [-68.64679940799994, 8.953207328000076], [-68.63365882899996, 8.947944270000164], [-68.63032466199996, 8.943350175000091], [-68.63214771899999, 8.938988067000139], [-68.62747551299998, 8.937608056999977], [-68.62434733299995, 8.930534909000073], [-68.62143220899998, 8.929316884000116], [-68.61893107699996, 8.924607785000092], [-68.62168017299996, 8.921623707000151], [-68.62005909699997, 8.919372654000142], [-68.62218517299993, 8.917697604000068], [-68.62024007299993, 8.914481538000075], [-68.62167112099985, 8.91145146700012], [-68.61910401099988, 8.910462448999965], [-68.61930798899988, 8.906054349000101], [-68.61604685099996, 8.90481233200012], [-68.61782490799993, 8.902172257000075], [-68.61576279799993, 8.897166152000011], [-68.61072359299999, 8.899184234000018], [-68.60792245199997, 8.895280154000147], [-68.60406028599994, 8.894727153000133], [-68.60163016099995, 8.89121308100016], [-68.60444625699989, 8.885288930000172], [-68.60128013199994, 8.887814012000035], [-68.59949703899997, 8.884046922999971], [-68.59524385999993, 8.885491983000179], [-68.59815094199996, 8.877433781000093], [-68.59438077199985, 8.875686757000153], [-68.59151566499992, 8.878142824000065], [-68.58556938599997, 8.873638758000084], [-68.58723043199996, 8.869046636000064], [-68.58424427899996, 8.864521541000045], [-68.58001510699995, 8.86617360200006], [-68.57966507599997, 8.862315511000133], [-68.57575690199997, 8.860522487000082], [-68.5785019729999, 8.852257285000121], [-68.57336975399983, 8.852966320000064], [-68.57177167099985, 8.849337243000093], [-68.56784851199996, 8.851691322000136], [-68.56765247699991, 8.846398196000052], [-68.55438332499989, 8.841650905000051], [-68.551889, 8.844208], [-68.548351, 8.842736], [-68.548051, 8.845240000000103], [-68.539243, 8.84491400000013], [-68.53489599999989, 8.84799], [-68.527614, 8.841073000000108], [-68.524192, 8.842082000000119], [-68.52551, 8.84743500000019], [-68.51910599999985, 8.847914], [-68.5296479999999, 8.854512], [-68.519892, 8.857838000000129], [-68.51358, 8.851632000000166], [-68.50668999999988, 8.848872], [-68.503708, 8.850479000000178], [-68.503523, 8.854659], [-68.491069, 8.850882000000126], [-68.48561699999988, 8.853146], [-68.483299, 8.845692], [-68.47146199999986, 8.853483], [-68.463336, 8.845745], [-68.463572, 8.834702], [-68.457287, 8.836417], [-68.452441, 8.846003], [-68.446904, 8.837317], [-68.44081199999988, 8.835060000000169], [-68.43376699999988, 8.844352000000185], [-68.43380699999989, 8.855487], [-68.429911, 8.852788], [-68.427828, 8.839478000000156], [-68.422997, 8.840362], [-68.414017, 8.852461], [-68.398358, 8.852661], [-68.397609, 8.856726000000151], [-68.401142, 8.861607], [-68.39711899999986, 8.862214000000165], [-68.399352, 8.867287000000147], [-68.365041, 8.987073000000123], [-68.354548, 9.004239], [-68.356962, 9.006596], [-68.357817, 9.004054], [-68.36288999999988, 9.003874], [-68.36347199999989, 9.01185100000015], [-68.368453, 9.019915], [-68.367521, 9.023282], [-68.376351, 9.02539], [-68.375729, 9.03062100000011], [-68.367817, 9.02673], [-68.36608699999988, 9.031445], [-68.372673, 9.033071000000177], [-68.3731729999999, 9.037049000000138], [-68.38137799999987, 9.036326], [-68.385898, 9.044271000000151], [-68.388859, 9.039041000000111], [-68.394311, 9.040702], [-68.392273, 9.046286], [-68.396079, 9.053810000000169], [-68.39464, 9.058187], [-68.395065, 9.058188], [-68.471437, 9.057984], [-68.472475, 9.06139300000018], [-68.474975, 9.058661], [-68.474902, 9.061991], [-68.477541, 9.064956000000109], [-68.47596199999987, 9.062667], [-68.479656, 9.061232000000189], [-68.491949, 9.061992], [-68.488124, 9.068226], [-68.493506, 9.067152], [-68.493758, 9.07907500000016], [-68.49892, 9.0823630000001], [-68.502335, 9.074943], [-68.50241099999988, 9.079392], [-68.506359, 9.077830000000176], [-68.508101, 9.082155000000114], [-68.505394, 9.08249400000011], [-68.505679, 9.087103], [-68.507748, 9.084887], [-68.51181999999989, 9.087774000000138], [-68.509649, 9.092147000000125], [-68.5142, 9.094090000000108], [-68.513542, 9.096182], [-68.523866, 9.092193], [-68.529127, 9.092939000000115], [-68.53050999999982, 9.095545], [-68.5274859999999, 9.093454], [-68.52534899999984, 9.099363000000153], [-68.5285659999999, 9.099251], [-68.53118099999983, 9.105840000000114], [-68.5391, 9.105926000000125], [-68.538583, 9.111665000000187], [-68.542157, 9.112926], [-68.542524, 9.115951], [-68.545233, 9.115911], [-68.54338699999988, 9.113285], [-68.546188, 9.113267], [-68.545544, 9.110449], [-68.548857, 9.110634000000118], [-68.549536, 9.115286], [-68.550729, 9.110186], [-68.556456, 9.111181000000101], [-68.557627, 9.106218000000126], [-68.559353, 9.108065], [-68.559243, 9.10540500000019], [-68.56367299999988, 9.106569], [-68.558699, 9.110730000000103], [-68.565568, 9.109515000000101], [-68.56754999999987, 9.111567], [-68.565286, 9.112362000000132], [-68.566049, 9.115591000000109], [-68.568834, 9.116559000000109], [-68.561982, 9.123761], [-68.562674, 9.126808], [-68.565273, 9.124221], [-68.567424, 9.127373], [-68.564469, 9.128631], [-68.563565, 9.135428000000104], [-68.569033, 9.14287000000013], [-68.567814, 9.147489], [-68.572892, 9.148373], [-68.577344, 9.156143], [-68.573946, 9.160386], [-68.575753, 9.163999000000103], [-68.571824, 9.168612], [-68.572313, 9.17244], [-68.581465, 9.17316000000011], [-68.58479099999988, 9.178643], [-68.594733, 9.17268200000018], [-68.59595399999989, 9.182010000000105], [-68.60182199999986, 9.183164], [-68.60752399999984, 9.19069700000017], [-68.612381, 9.19307300000014], [-68.615345, 9.206449], [-68.62047, 9.20731], [-68.62169199999988, 9.216707], [-68.62849122999995, 9.219524749000186]]]}}, {"type": "Feature", "properties": {"parroquia": "Macapo", "municipio": "Lima Blanco", "estado": "Cojedes", "pcode": "VE090401", "estado_pcode": "VE09", "municipio_pcode": "VE0904", "center_lat": 9.834759, "center_lon": -68.44983961, "area_sqkm": 101.07053483}, "geometry": {"type": "Polygon", "coordinates": [[[-68.396065, 9.850875], [-68.40215999999987, 9.851174], [-68.411283, 9.856401], [-68.4166919999999, 9.863134], [-68.423839, 9.865731], [-68.430841, 9.872211], [-68.46634399999988, 9.876935000000117], [-68.470073, 9.8873430000001], [-68.481806, 9.889692000000139], [-68.483647, 9.89485], [-68.478465, 9.905079000000114], [-68.48569, 9.907121000000188], [-68.48572862599997, 9.91087166799997], [-68.48656085099992, 9.906067469000106], [-68.49200151799994, 9.90201958700004], [-68.492859, 9.885288], [-68.4994099999999, 9.87107200000014], [-68.495884, 9.859671], [-68.503326, 9.848276000000112], [-68.501689, 9.833217], [-68.495032, 9.829092000000173], [-68.48485, 9.829844], [-68.478671, 9.816476000000137], [-68.461665, 9.799883], [-68.465041, 9.787389], [-68.4757929999999, 9.783085], [-68.47698, 9.779997], [-68.473684, 9.774169], [-68.48061799999988, 9.76125100000013], [-68.477701, 9.75975], [-68.467099, 9.771403], [-68.453607, 9.764459000000159], [-68.436169, 9.778206000000182], [-68.436636, 9.783221], [-68.430301, 9.787075000000186], [-68.424954, 9.784932], [-68.415654, 9.793876000000182], [-68.399864, 9.792191000000173], [-68.397898, 9.799731000000179], [-68.402764, 9.802499], [-68.404682, 9.808401], [-68.401944, 9.815687], [-68.40320899999989, 9.820243], [-68.399431, 9.821957000000111], [-68.398354, 9.828141000000187], [-68.395651, 9.8301], [-68.397849, 9.834055000000149], [-68.395396, 9.84076000000016], [-68.396065, 9.850875]]]}}, {"type": "Feature", "properties": {"parroquia": "La Aguadita", "municipio": "Lima Blanco", "estado": "Cojedes", "pcode": "VE090402", "estado_pcode": "VE09", "municipio_pcode": "VE0904", "center_lat": 9.805579, "center_lon": -68.39021928, "area_sqkm": 54.04351861}, "geometry": {"type": "Polygon", "coordinates": [[[-68.3014900039999, 9.797810905000063], [-68.31078899999989, 9.79648600000013], [-68.31506, 9.799993], [-68.32047, 9.797774000000118], [-68.327966, 9.802131], [-68.334542, 9.801830000000109], [-68.334534, 9.799075], [-68.336371, 9.799253], [-68.340113, 9.802889], [-68.342587, 9.798503], [-68.348606, 9.795715], [-68.358847, 9.79792700000013], [-68.37202, 9.796404], [-68.374824, 9.798782000000188], [-68.380209, 9.81706300000019], [-68.36800099999988, 9.851158], [-68.38916699999987, 9.849317], [-68.396065, 9.850875], [-68.395396, 9.84076000000016], [-68.397849, 9.834055000000149], [-68.395651, 9.8301], [-68.398354, 9.828141000000187], [-68.399431, 9.821957000000111], [-68.40320899999989, 9.820243], [-68.401944, 9.815687], [-68.404682, 9.808401], [-68.402764, 9.802499], [-68.397898, 9.799731000000179], [-68.399864, 9.792191000000173], [-68.415654, 9.793876000000182], [-68.424954, 9.784932], [-68.3794999999999, 9.774749000000156], [-68.377555, 9.768262], [-68.36775399999988, 9.761102], [-68.360306, 9.759224], [-68.337257, 9.759052], [-68.333069, 9.765093], [-68.324891, 9.768653], [-68.320912, 9.773885], [-68.307923, 9.77615800000018], [-68.30266199999988, 9.772931], [-68.3014900039999, 9.797810905000063]]]}}, {"type": "Feature", "properties": {"parroquia": "El Pao", "municipio": "Pao de San Juan Bautista", "estado": "Cojedes", "pcode": "VE090501", "estado_pcode": "VE09", "municipio_pcode": "VE0905", "center_lat": 9.25826961, "center_lon": -68.11795944, "area_sqkm": 4673.49974025}, "geometry": {"type": "Polygon", "coordinates": [[[-67.80538121699993, 9.849004896000054], [-67.83056121999994, 9.835465410000097], [-67.8463849019999, 9.834850310000036], [-67.86121056899992, 9.838201305000098], [-67.86822584699996, 9.834912187999976], [-67.87509614199996, 9.835367152000174], [-67.89223081799997, 9.82333876000007], [-67.90330527599997, 9.820254611000053], [-67.9085334689999, 9.814597440000114], [-67.91847388299993, 9.811266303000082], [-67.92994642599996, 9.819058439000173], [-67.94265197899989, 9.820467400000155], [-67.95545458299995, 9.83004856600013], [-67.97177529299995, 9.829993475000094], [-67.97610545999993, 9.8270243770001], [-67.98249976099999, 9.830701431000023], [-67.99288518299988, 9.827993308000032], [-68.005986, 9.832088000000113], [-68.014632, 9.84754700000019], [-68.013066, 9.852354], [-68.002379, 9.861431], [-68.00426898199999, 9.880330566000055], [-68.00720309999991, 9.879483526000115], [-68.01134622799998, 9.871216291999986], [-68.01541740899995, 9.871252277000053], [-68.02386272299998, 9.863970042000119], [-68.03107102099989, 9.861304933000156], [-68.05358798999998, 9.860907795000173], [-68.06299434799996, 9.853040546000159], [-68.06742653799995, 9.852959518000034], [-68.0729037939999, 9.856684587000132], [-68.07650894599993, 9.855173518000072], [-68.08691831399994, 9.841975133000062], [-68.09436262599996, 9.839547026000162], [-68.11608756899989, 9.841228946000058], [-68.12148483599998, 9.846896061000052], [-68.12295695799992, 9.857111315999987], [-68.12933244899995, 9.861520153000015], [-68.13302499999986, 9.853616], [-68.13752099999988, 9.851838000000157], [-68.13493999999986, 9.842314000000101], [-68.142369, 9.838458000000116], [-68.147687, 9.828646], [-68.137029, 9.818818], [-68.1270229999999, 9.815009], [-68.124636, 9.808679000000154], [-68.228908, 9.807719000000134], [-68.24063799999988, 9.810949], [-68.268439, 9.805163], [-68.270737, 9.802757], [-68.287003, 9.802368], [-68.3014900039999, 9.797810905000063], [-68.30266199999988, 9.772931], [-68.2989, 9.760246000000109], [-68.30776, 9.663943000000131], [-68.197015, 9.664606000000106], [-68.224476, 9.613571], [-68.248609, 9.508387000000141], [-68.256868, 9.505306000000132], [-68.263404, 9.494676], [-68.278816, 9.487361], [-68.287696, 9.475640000000112], [-68.296271, 9.473843000000102], [-68.3002019999999, 9.470261], [-68.30205, 9.452364], [-68.30751, 9.448422000000164], [-68.30727899999988, 9.443538], [-68.310673, 9.440687], [-68.310933, 9.434705000000122], [-68.312878, 9.434759000000156], [-68.31148599999989, 9.421022], [-68.31331199999983, 9.412066000000152], [-68.316915, 9.408963], [-68.3152889999999, 9.395867], [-68.306699, 9.386638000000119], [-68.308206, 9.381326000000115], [-68.302062, 9.364427], [-68.291736, 9.355764], [-68.294475, 9.354033000000129], [-68.29283199999986, 9.344536], [-68.27739, 9.331403], [-68.274913, 9.324838], [-68.295938, 9.313934], [-68.302199, 9.308163], [-68.311502, 9.307132], [-68.317394, 9.298418], [-68.3235, 9.294505], [-68.328792, 9.296373], [-68.330701, 9.306176000000107], [-68.335122, 9.30684], [-68.33868999999987, 9.312502], [-68.34048299999989, 9.308777], [-68.343854, 9.307616], [-68.34617899999989, 9.309545000000128], [-68.35592899999989, 9.296780000000183], [-68.3538, 9.290879], [-68.354896, 9.284666], [-68.351929, 9.281904], [-68.348689, 9.284145], [-68.34255299999984, 9.277975], [-68.341697, 9.266828000000146], [-68.33472999999987, 9.265839], [-68.330791, 9.254983], [-68.336398, 9.246839], [-68.332957, 9.234678000000144], [-68.335376, 9.228065], [-68.325541, 9.210166], [-68.325593, 9.201347000000112], [-68.32814999999988, 9.197744], [-68.326703, 9.193458], [-68.329643, 9.19103], [-68.332707, 9.171286000000123], [-68.34822799999989, 9.152514000000167], [-68.353205, 9.141907], [-68.35284699999988, 9.1295], [-68.3498029999999, 9.125083000000132], [-68.354831, 9.113994000000162], [-68.353708, 9.109780000000171], [-68.358944, 9.104228000000148], [-68.36254699999989, 9.094434], [-68.37092799999988, 9.092218000000116], [-68.370559, 9.089275], [-68.373574, 9.088868], [-68.372524, 9.084242000000131], [-68.365598, 9.081371], [-68.369727, 9.078036000000168], [-68.373911, 9.078973], [-68.372914, 9.07081], [-68.357629, 9.063035000000127], [-68.34730599999989, 9.066836], [-68.335087, 9.054703000000131], [-68.328946, 9.057789], [-68.326403, 9.054571], [-68.320979, 9.054976000000181], [-68.320393, 9.053064], [-68.31590599999987, 9.055132000000128], [-68.315183, 9.050233000000105], [-68.310921, 9.050282], [-68.307516, 9.044966000000102], [-68.29777799999982, 9.046154000000115], [-68.29394799999983, 9.041729000000146], [-68.282155, 9.036879000000113], [-68.270299, 9.027128000000118], [-68.252262, 8.997043], [-68.204154, 8.958779000000106], [-68.151689, 8.963468000000148], [-68.120627, 8.960216000000173], [-68.069014, 8.936587], [-68.046688, 8.918831], [-68.0220819999999, 8.885628000000168], [-68.028551, 8.882336], [-68.030057, 8.873933], [-68.026869, 8.866638], [-68.044492, 8.86493600000017], [-68.04795, 8.860638000000165], [-68.05601899999988, 8.85934], [-68.054213, 8.849655], [-68.0568449999999, 8.847769000000142], [-68.05763599999989, 8.840744], [-68.054092, 8.838431], [-68.053848, 8.833702], [-68.056528, 8.83268800000019], [-68.055009, 8.826677], [-68.058076, 8.822953], [-68.050712, 8.819498], [-68.052804, 8.81472], [-68.04992999999985, 8.812612000000172], [-68.052468, 8.81006], [-68.052819, 8.802622000000156], [-68.056778, 8.804407], [-68.055451, 8.801034000000186], [-68.062537, 8.795744000000184], [-68.063152, 8.791909000000146], [-68.071402, 8.789738000000114], [-68.0721759999999, 8.785054000000173], [-68.075211, 8.787299], [-68.075703, 8.780963], [-68.072857, 8.780348000000174], [-68.074623, 8.774697000000117], [-68.071444, 8.7708], [-68.07866, 8.770903], [-68.077903, 8.764683], [-68.081864, 8.766857000000186], [-68.085154, 8.760654000000102], [-68.087612, 8.763106000000107], [-68.09761799999984, 8.760679], [-68.098965, 8.754112], [-68.092477, 8.749486000000104], [-68.092901, 8.743976], [-68.088148, 8.739117], [-68.0897609999999, 8.737025], [-68.082559, 8.725008], [-68.080543, 8.723244], [-68.07675299999988, 8.724237000000187], [-68.07671499999987, 8.727038000000107], [-68.06954599999989, 8.726682000000153], [-68.067808, 8.725377], [-68.071809, 8.717106000000115], [-68.067849, 8.714496000000167], [-68.06367099999983, 8.717143000000135], [-68.063656, 8.711725], [-68.0580619999999, 8.712630000000104], [-68.05872099999988, 8.708152000000155], [-68.055345, 8.708181], [-68.05751, 8.704803], [-68.05517, 8.70329100000015], [-68.05835599999989, 8.701519], [-68.058962, 8.694517000000133], [-68.052711, 8.68236], [-68.047825, 8.679613000000131], [-68.042195, 8.68384500000019], [-68.038989, 8.678341], [-68.035705, 8.67791000000011], [-68.034093, 8.680346], [-68.032744, 8.67708800000014], [-68.024846, 8.68052], [-68.022554, 8.679147000000114], [-68.02177999999986, 8.675039], [-68.02564599999988, 8.667825], [-68.022843, 8.665649], [-68.026193, 8.66484000000014], [-68.021762, 8.660994], [-68.01832499999989, 8.661304000000143], [-68.0274869999999, 8.656034], [-68.024885, 8.650652], [-68.026217, 8.648507], [-68.019996, 8.645497], [-68.018995, 8.641772000000174], [-68.009081, 8.640584000000104], [-68.00822372299996, 8.638014135], [-68.00319327999995, 8.642212199000085], [-68.00142325799999, 8.65343447400005], [-68.00772253199989, 8.653684441], [-68.00725053299993, 8.656924524000146], [-68.01354681299995, 8.659142550000183], [-68.0101206949999, 8.664798696000105], [-68.01043773399994, 8.671316850000096], [-68.01324086399995, 8.673309882000183], [-68.01286588899995, 8.680496062000032], [-68.01921217899996, 8.685077134000153], [-68.01646406699996, 8.68632118000005], [-68.01573902899997, 8.68310810000014], [-68.00902275199991, 8.687640245000068], [-68.00993281299998, 8.690990320000026], [-68.00278554899995, 8.69898954700011], [-68.00495362699996, 8.696736488000113], [-68.00602469199993, 8.699879549000059], [-68.01754018799988, 8.700390509000044], [-68.01784820999995, 8.703305582000098], [-68.01463307599994, 8.702874579000024], [-68.01168897899998, 8.708709733000035], [-68.01935433599988, 8.71367882200002], [-68.01686423899991, 8.716184885000189], [-68.02090645099997, 8.723938054000143], [-68.01951442299998, 8.731056233000174], [-68.02208253699996, 8.731695235000075], [-68.0225555319999, 8.72669010900006], [-68.02891881299996, 8.728287118000083], [-68.03054590099998, 8.731590184000027], [-68.02888884299989, 8.734646272000077], [-68.02668072599988, 8.730311180000058], [-68.02430463699994, 8.73247223900006], [-68.02785280899997, 8.73669032500004], [-68.02629075999994, 8.740434419], [-68.01903045299991, 8.740629466000087], [-68.02110353299992, 8.737618383000097], [-68.01746334899991, 8.733744308000098], [-68.00920002999993, 8.73963348400008], [-68.00666894599993, 8.744572623000124], [-68.01684839299992, 8.74666962100008], [-68.01473632799997, 8.7526177740001], [-68.01673944499998, 8.758353891000127], [-68.02172964699997, 8.756325818000107], [-68.02460078299993, 8.757974851000029], [-68.02616588399991, 8.764032985000028], [-68.0219746869999, 8.761857957000188], [-68.02663992099997, 8.768508085000065], [-68.0214326919999, 8.767207081000095], [-68.00573311099998, 8.786627628000133], [-68.00770521799996, 8.789195679999978], [-68.00149798699994, 8.796905893000144], [-68.00171202599995, 8.803336045000151], [-67.99502176599992, 8.807965194000076], [-67.99344672799998, 8.813075323000078], [-67.99535782599992, 8.817712422000113], [-67.99194568499996, 8.81855146700019], [-67.99403481899998, 8.826100637000081], [-67.98593850599997, 8.833162847000153], [-67.99036271099982, 8.837175925], [-67.97863425999998, 8.84592818700014], [-67.97760923699991, 8.850688308000088], [-67.97160900499995, 8.85710848900004], [-67.97253707599998, 8.862604618000148], [-67.96818691399994, 8.86609272100003], [-67.96361378199992, 8.879012062000072], [-67.96501186399996, 8.883311162000155], [-67.97400924499993, 8.883192106000024], [-67.97879747199994, 8.886605168000187], [-67.98153365399992, 8.89944645900016], [-67.97558548799998, 8.916946912000128], [-67.97701456999994, 8.920074978000173], [-67.97419646399999, 8.92400509099997], [-67.96847221499996, 8.923287101000085], [-67.95951486199988, 8.93019632000005], [-67.95256655799983, 8.92788429900014], [-67.94789638399993, 8.933508454000162], [-67.94466522499994, 8.930514402000085], [-67.93829198299994, 8.935101547000102], [-67.93068664699996, 8.933851558000129], [-67.91905819799996, 8.943563846000131], [-67.91541510199988, 8.95530314900003], [-67.90962586799998, 8.958598260000088], [-67.90464570199993, 8.968952534000039], [-67.90283266899985, 8.977276743], [-67.90493980099984, 8.984595913000078], [-67.89614154299989, 9.008569536000095], [-67.89050131799996, 9.011019623000038], [-67.88535113099988, 9.018047822000028], [-67.88066200299988, 9.033076219000122], [-67.87269869899995, 9.039111404000096], [-67.86678348599997, 9.048934668000186], [-67.86123534399985, 9.06666613100009], [-67.8519380429999, 9.084682627000063], [-67.85038001799995, 9.093353838000155], [-67.85407719699998, 9.096353895000107], [-67.85647434599991, 9.105063091999966], [-67.86039851699996, 9.105906097000172], [-67.86294365399988, 9.111009206000062], [-67.85657141499996, 9.117381393000187], [-67.85639745099996, 9.126455615000111], [-67.86134575599993, 9.144704038000043], [-67.85870667199998, 9.150078187000133], [-67.85978776999997, 9.158567381000182], [-67.87199638699991, 9.177276775999985], [-67.87269848499983, 9.18939408], [-67.87854381499994, 9.203238382000109], [-67.87749386999985, 9.222299863000103], [-67.8809491959999, 9.231476865000047], [-67.88619336299996, 9.245685389000073], [-67.89616079599989, 9.246334355000101], [-67.90034700899997, 9.251729458], [-67.90479629899994, 9.269236866000142], [-67.91235363799996, 9.273077918000183], [-67.91540879899998, 9.278163027000176], [-67.91300671999994, 9.282943167000099], [-67.91968201599997, 9.28431716], [-67.92470128199994, 9.292569332000141], [-67.93002652299992, 9.294849363000083], [-67.92976752599992, 9.297972436000066], [-67.93585680299998, 9.300374464000072], [-67.9403540369999, 9.30744962000017], [-67.93788094399991, 9.309723685000108], [-67.93962801699996, 9.311004710000134], [-67.93764195899996, 9.315741839000111], [-67.94227116299999, 9.315740809000033], [-67.9437632449999, 9.319821900000136], [-67.94592133799995, 9.319176878000064], [-67.9468074159999, 9.32637805200011], [-67.94409329799998, 9.326972075000128], [-67.94015718599996, 9.337461357000052], [-67.93487996099998, 9.338376415000141], [-67.93545300999995, 9.342119496000123], [-67.93301591699992, 9.34488458300018], [-67.92897674399995, 9.344245589000082], [-67.9221664929999, 9.35351585300009], [-67.92230653599995, 9.358866988000045], [-67.92533566899994, 9.35961498100005], [-67.92060251899994, 9.370564284000125], [-67.92344065899994, 9.373581339000111], [-67.92080655999985, 9.375571409000088], [-67.92230866199998, 9.38245456200002], [-67.91749648699988, 9.38759471300017], [-67.92083362299996, 9.387605705000169], [-67.92036365999996, 9.397474946000102], [-67.91529245499993, 9.399713029000054], [-67.91319340099983, 9.40599519300008], [-67.91611753399991, 9.408644245000062], [-67.91399246099996, 9.412182350000023], [-67.91818166299998, 9.414763387000107], [-67.91986877599999, 9.421643549000066], [-67.91827371599999, 9.423912619000077], [-67.92112289199997, 9.434044849000145], [-67.91920984299998, 9.440461017000075], [-67.92496712999991, 9.44706414899997], [-67.92595221299996, 9.454620331000115], [-67.92030396699994, 9.454238357000122], [-67.92494919799987, 9.459122452000031], [-67.92314812599994, 9.461464521000096], [-67.92587427399991, 9.465923613000086], [-67.9235231859999, 9.468366685000092], [-67.92783039799997, 9.473714793999989], [-67.92645038099988, 9.481632004000119], [-67.93411973299993, 9.485639059000107], [-67.93486278199998, 9.48857812600005], [-67.94119606099997, 9.48997812400006], [-67.94315316999996, 9.49390222], [-67.94687333799993, 9.494615218000035], [-67.94711933499997, 9.492917175000116], [-67.95163454399989, 9.49565321700004], [-67.95621684199995, 9.513853638], [-67.96094604399991, 9.51431962300012], [-67.96116008599995, 9.518594727000163], [-67.9584929799999, 9.520151791000046], [-67.95990606599992, 9.525823917000025], [-67.95677594299997, 9.527250976000062], [-67.95715597399993, 9.530493056000125], [-67.96822245099997, 9.529910978999965], [-67.97257167399994, 9.536241108000183], [-67.9722566779999, 9.54052521400007], [-67.96382132699995, 9.542731317000062], [-67.95466796999995, 9.549960550000037], [-67.93750224399997, 9.55211269400013], [-67.93393310599998, 9.554736783000067], [-67.93962838699991, 9.560334894999983], [-67.92690084499998, 9.56215700700011], [-67.92822795199999, 9.570782207000036], [-67.93577031699994, 9.57797234900005], [-67.93409326199998, 9.580838433000054], [-67.93817254699991, 9.600603901000113], [-67.92614602199995, 9.600377961999982], [-67.92311595499996, 9.61015422500003], [-67.9173057289999, 9.61505837400017], [-67.90414216199991, 9.615743463000115], [-67.90152306399995, 9.618763564000119], [-67.89175965599998, 9.620280650000097], [-67.88784847999995, 9.61922764000019], [-67.88282121099991, 9.609613427000056], [-67.87571391799992, 9.612869551000188], [-67.87425488899999, 9.61765368500005], [-67.87131974399995, 9.614477614000066], [-67.86987569999997, 9.617545696000093], [-67.86423644199994, 9.615079667000089], [-67.85750217699996, 9.6212578680001], [-67.85167291599993, 9.618497827999988], [-67.84800678699997, 9.623593972000151], [-67.84132249599998, 9.623342], [-67.8362312989999, 9.628576166000073], [-67.83381817599991, 9.624934081999982], [-67.82869595899996, 9.625753130000078], [-67.81934359899998, 9.632409347000078], [-67.81603944499989, 9.630452325000135], [-67.81578447899994, 9.639745558000186], [-67.81248634899998, 9.640807595000012], [-67.81086230699992, 9.645479721000072], [-67.8065511129999, 9.645300744999986], [-67.80608113099998, 9.651417905000073], [-67.79706675399996, 9.653652002000058], [-67.7951266629999, 9.652014977000078], [-67.79090750199998, 9.657188132000101], [-67.78739035199993, 9.656263129000024], [-67.78771839999996, 9.661931266000124], [-67.78282719199996, 9.664365354000097], [-67.77960109299988, 9.670061513000064], [-67.75478308999993, 9.683307985000056], [-67.75589617799983, 9.689666136000028], [-67.75274411399988, 9.702891489000024], [-67.76121654999986, 9.715359756], [-67.76142057299995, 9.718955853000125], [-67.75681940499999, 9.7229209730001], [-67.76091359599991, 9.726418035000052], [-67.76481981599994, 9.735708255000134], [-67.76377079799988, 9.739795357000048], [-67.76682894099997, 9.742946429000028], [-67.76291788699996, 9.761599919000105], [-67.78255574599996, 9.76488289200006], [-67.7863339569999, 9.772273058999986], [-67.79742548699988, 9.780773214000135], [-67.79731859099991, 9.800862725000115], [-67.80261192599994, 9.81919915200018], [-67.79790679099983, 9.831845501000032], [-67.80239102499996, 9.837839627], [-67.80538121699993, 9.849004896000054]]]}}, {"type": "Feature", "properties": {"parroquia": "Libertad de Cojedes", "municipio": "Ricaurte", "estado": "Cojedes", "pcode": "VE090601", "estado_pcode": "VE09", "municipio_pcode": "VE0906", "center_lat": 9.3067255, "center_lon": -68.61688655, "area_sqkm": 727.81644936}, "geometry": {"type": "Polygon", "coordinates": [[[-68.6541749999999, 9.548487], [-68.667768, 9.555473000000177], [-68.67878499999983, 9.551428000000158], [-68.685634, 9.5442910000001], [-68.68921099999989, 9.543355], [-68.693145, 9.546721], [-68.696179, 9.538516], [-68.700055, 9.540594], [-68.709618, 9.535823], [-68.715673, 9.537781], [-68.726572, 9.528262], [-68.73057211599996, 9.528109746000098], [-68.7345322359999, 9.520652540000185], [-68.76990966699987, 9.506964013000072], [-68.77429583299994, 9.50322989200015], [-68.77040665399994, 9.49991183000003], [-68.76182027599998, 9.498784858000079], [-68.75276284599988, 9.490022685999975], [-68.74682659899997, 9.49068773700003], [-68.73927526199992, 9.487683705], [-68.73492703399995, 9.481166574000156], [-68.73798909999994, 9.469399269000064], [-68.73536192099988, 9.45648296500002], [-68.73969809499994, 9.45589793300013], [-68.74123713899996, 9.451910827000063], [-68.73501685099984, 9.447699756000077], [-68.73726689999995, 9.438822522000123], [-68.73447176999997, 9.437857522], [-68.73752757999983, 9.425954948000026], [-68.738919, 9.42141], [-68.745196, 9.418680000000109], [-68.750062, 9.404193000000134], [-68.748752, 9.391701000000182], [-68.74480299999988, 9.39022100000011], [-68.741745, 9.367715000000146], [-68.73715, 9.354829000000109], [-68.7273229999999, 9.341647], [-68.718242, 9.339205], [-68.71348499999988, 9.324033], [-68.70460999999989, 9.320631000000105], [-68.689216, 9.309429000000137], [-68.689599, 9.304677], [-68.68328899999989, 9.29683], [-68.6833759999999, 9.292677], [-68.677452, 9.283793000000173], [-68.678217, 9.280554], [-68.674977, 9.277617], [-68.67771199999987, 9.274547], [-68.677278, 9.268838000000187], [-68.673198, 9.268568], [-68.671577, 9.265322], [-68.66835, 9.267615], [-68.6685849999999, 9.261488], [-68.665807, 9.258411], [-68.660307, 9.263701], [-68.662002, 9.257473], [-68.659637, 9.253934000000186], [-68.6556379999999, 9.255177000000174], [-68.655811, 9.25997], [-68.65197099999989, 9.257564000000116], [-68.654326, 9.25631], [-68.649963, 9.251889], [-68.644754, 9.252383000000123], [-68.643457, 9.249043000000142], [-68.634242, 9.24967800000013], [-68.632097, 9.247674], [-68.632262, 9.237993000000131], [-68.629209, 9.232002], [-68.631158, 9.229213], [-68.629076, 9.229480000000137], [-68.629113, 9.224869000000183], [-68.6267759999999, 9.22516], [-68.62452699999989, 9.221459], [-68.62849122999995, 9.219524749000186], [-68.62169199999988, 9.216707], [-68.62047, 9.20731], [-68.615345, 9.206449], [-68.612381, 9.19307300000014], [-68.60752399999984, 9.19069700000017], [-68.60182199999986, 9.183164], [-68.59595399999989, 9.182010000000105], [-68.594733, 9.17268200000018], [-68.58479099999988, 9.178643], [-68.581465, 9.17316000000011], [-68.572313, 9.17244], [-68.571824, 9.168612], [-68.575753, 9.163999000000103], [-68.573946, 9.160386], [-68.577344, 9.156143], [-68.572892, 9.148373], [-68.567814, 9.147489], [-68.569033, 9.14287000000013], [-68.563565, 9.135428000000104], [-68.564469, 9.128631], [-68.567424, 9.127373], [-68.565273, 9.124221], [-68.562674, 9.126808], [-68.561982, 9.123761], [-68.568834, 9.116559000000109], [-68.566049, 9.115591000000109], [-68.565286, 9.112362000000132], [-68.56754999999987, 9.111567], [-68.565568, 9.109515000000101], [-68.558699, 9.110730000000103], [-68.56367299999988, 9.106569], [-68.559243, 9.10540500000019], [-68.559353, 9.108065], [-68.557627, 9.106218000000126], [-68.556456, 9.111181000000101], [-68.550729, 9.110186], [-68.549536, 9.115286], [-68.548857, 9.110634000000118], [-68.545544, 9.110449], [-68.546188, 9.113267], [-68.54338699999988, 9.113285], [-68.545233, 9.115911], [-68.542524, 9.115951], [-68.542157, 9.112926], [-68.538583, 9.111665000000187], [-68.5391, 9.105926000000125], [-68.53118099999983, 9.105840000000114], [-68.5285659999999, 9.099251], [-68.52534899999984, 9.099363000000153], [-68.5274859999999, 9.093454], [-68.53050999999982, 9.095545], [-68.529127, 9.092939000000115], [-68.523866, 9.092193], [-68.513542, 9.096182], [-68.5142, 9.094090000000108], [-68.509649, 9.092147000000125], [-68.51181999999989, 9.087774000000138], [-68.507748, 9.084887], [-68.505679, 9.087103], [-68.505394, 9.08249400000011], [-68.508101, 9.082155000000114], [-68.506359, 9.077830000000176], [-68.50241099999988, 9.079392], [-68.502335, 9.074943], [-68.49892, 9.0823630000001], [-68.493758, 9.07907500000016], [-68.493506, 9.067152], [-68.488124, 9.068226], [-68.491949, 9.061992], [-68.479656, 9.061232000000189], [-68.47596199999987, 9.062667], [-68.477541, 9.064956000000109], [-68.474902, 9.061991], [-68.474975, 9.058661], [-68.472475, 9.06139300000018], [-68.471437, 9.057984], [-68.395065, 9.058188], [-68.402888, 9.067796], [-68.410564, 9.069456000000116], [-68.427828, 9.093923000000188], [-68.435195, 9.096658000000161], [-68.439441, 9.112823], [-68.43689399999988, 9.118357000000174], [-68.437239, 9.127134], [-68.439452, 9.12851], [-68.431869, 9.134891], [-68.435964, 9.144163], [-68.435675, 9.156816000000106], [-68.438328, 9.16095300000012], [-68.435661, 9.164143], [-68.438637, 9.165664000000163], [-68.439322, 9.172492], [-68.442628, 9.173374], [-68.444488, 9.18386500000014], [-68.454886, 9.193152000000111], [-68.463947, 9.195812000000103], [-68.46183999999988, 9.201282], [-68.46653, 9.205805], [-68.46667799999989, 9.213294], [-68.47367899999989, 9.215819], [-68.473724, 9.218828], [-68.481679, 9.218031000000167], [-68.482971, 9.221581], [-68.480337, 9.223508], [-68.485272, 9.232145000000173], [-68.493345, 9.231165], [-68.49644699999988, 9.240129000000138], [-68.502171, 9.240138000000172], [-68.505679, 9.246783], [-68.508715, 9.246993], [-68.51098799999988, 9.250971000000163], [-68.509529, 9.25816], [-68.517095, 9.26731], [-68.51364, 9.270338000000152], [-68.5105329999999, 9.269807], [-68.504555, 9.276933], [-68.508145, 9.280305], [-68.509459, 9.286307], [-68.51373899999987, 9.292519], [-68.518541, 9.293543], [-68.52143399999983, 9.300155000000188], [-68.526987, 9.299064000000158], [-68.526013, 9.302396000000158], [-68.52889599999986, 9.300543000000175], [-68.530859, 9.302870000000155], [-68.53563699999984, 9.300247000000184], [-68.54848, 9.308467000000121], [-68.551854, 9.317461], [-68.550398, 9.32176], [-68.56113099999988, 9.322401000000184], [-68.565956, 9.326796], [-68.566483, 9.334226000000172], [-68.569552, 9.335585], [-68.569439, 9.332596000000137], [-68.572492, 9.333013000000165], [-68.574527, 9.338754], [-68.577232, 9.339214], [-68.578491, 9.346236], [-68.58386799999988, 9.345753], [-68.586214, 9.355704], [-68.583859, 9.354787], [-68.582805, 9.358938], [-68.585385, 9.36583300000018], [-68.621477, 9.394620000000145], [-68.62288, 9.39847], [-68.618957, 9.402231000000143], [-68.61844799999989, 9.421097], [-68.623475, 9.429231000000186], [-68.629178, 9.43248], [-68.62839899999989, 9.435155], [-68.652253, 9.436067], [-68.654684, 9.453124], [-68.66329499999989, 9.475745000000131], [-68.662478, 9.493046], [-68.66414, 9.512942], [-68.66625499999986, 9.51496], [-68.660574, 9.52098], [-68.664429, 9.522622], [-68.660027, 9.522562], [-68.65850199999988, 9.52489300000019], [-68.66016699999983, 9.53341300000011], [-68.6541749999999, 9.548487]]]}}, {"type": "Feature", "properties": {"parroquia": "Rómulo Gallegos", "municipio": "Rómulo Gallegos", "estado": "Cojedes", "pcode": "VE090701", "estado_pcode": "VE09", "municipio_pcode": "VE0907", "center_lat": 9.337226, "center_lon": -68.48936691, "area_sqkm": 908.58305298}, "geometry": {"type": "Polygon", "coordinates": [[[-68.37879299999986, 9.55268000000018], [-68.525072, 9.519878], [-68.629907, 9.617400000000146], [-68.62973199999988, 9.613514000000123], [-68.633181, 9.614072], [-68.633259, 9.610372], [-68.639843, 9.607415000000117], [-68.639847, 9.604174], [-68.64467599999989, 9.600446000000147], [-68.640237, 9.596524000000159], [-68.639732, 9.59325600000011], [-68.642755, 9.594683], [-68.642963, 9.591996000000165], [-68.635387, 9.583726000000127], [-68.639694, 9.578637], [-68.637664, 9.577493000000118], [-68.63953, 9.570683], [-68.634957, 9.56882700000017], [-68.649403, 9.556859], [-68.651116, 9.548783000000128], [-68.6541749999999, 9.548487], [-68.66016699999983, 9.53341300000011], [-68.65850199999988, 9.52489300000019], [-68.660027, 9.522562], [-68.664429, 9.522622], [-68.660574, 9.52098], [-68.66625499999986, 9.51496], [-68.66414, 9.512942], [-68.662478, 9.493046], [-68.66329499999989, 9.475745000000131], [-68.654684, 9.453124], [-68.652253, 9.436067], [-68.62839899999989, 9.435155], [-68.629178, 9.43248], [-68.623475, 9.429231000000186], [-68.61844799999989, 9.421097], [-68.618957, 9.402231000000143], [-68.62288, 9.39847], [-68.621477, 9.394620000000145], [-68.585385, 9.36583300000018], [-68.582805, 9.358938], [-68.583859, 9.354787], [-68.586214, 9.355704], [-68.58386799999988, 9.345753], [-68.578491, 9.346236], [-68.577232, 9.339214], [-68.574527, 9.338754], [-68.572492, 9.333013000000165], [-68.569439, 9.332596000000137], [-68.569552, 9.335585], [-68.566483, 9.334226000000172], [-68.565956, 9.326796], [-68.56113099999988, 9.322401000000184], [-68.550398, 9.32176], [-68.551854, 9.317461], [-68.54848, 9.308467000000121], [-68.53563699999984, 9.300247000000184], [-68.530859, 9.302870000000155], [-68.52889599999986, 9.300543000000175], [-68.526013, 9.302396000000158], [-68.526987, 9.299064000000158], [-68.52143399999983, 9.300155000000188], [-68.518541, 9.293543], [-68.51373899999987, 9.292519], [-68.509459, 9.286307], [-68.508145, 9.280305], [-68.504555, 9.276933], [-68.5105329999999, 9.269807], [-68.51364, 9.270338000000152], [-68.517095, 9.26731], [-68.509529, 9.25816], [-68.51098799999988, 9.250971000000163], [-68.508715, 9.246993], [-68.505679, 9.246783], [-68.502171, 9.240138000000172], [-68.49644699999988, 9.240129000000138], [-68.493345, 9.231165], [-68.485272, 9.232145000000173], [-68.480337, 9.223508], [-68.482971, 9.221581], [-68.481679, 9.218031000000167], [-68.473724, 9.218828], [-68.47367899999989, 9.215819], [-68.46667799999989, 9.213294], [-68.46653, 9.205805], [-68.46183999999988, 9.201282], [-68.463947, 9.195812000000103], [-68.454886, 9.193152000000111], [-68.444488, 9.18386500000014], [-68.442628, 9.173374], [-68.439322, 9.172492], [-68.438637, 9.165664000000163], [-68.435661, 9.164143], [-68.438328, 9.16095300000012], [-68.435675, 9.156816000000106], [-68.435964, 9.144163], [-68.431869, 9.134891], [-68.439452, 9.12851], [-68.437239, 9.127134], [-68.43689399999988, 9.118357000000174], [-68.439441, 9.112823], [-68.435195, 9.096658000000161], [-68.427828, 9.093923000000188], [-68.410564, 9.069456000000116], [-68.402888, 9.067796], [-68.395065, 9.058188], [-68.39464, 9.058187], [-68.382806, 9.065096000000153], [-68.3832139999999, 9.068867], [-68.379983, 9.070328000000131], [-68.375687, 9.066083000000106], [-68.37083899999988, 9.066862], [-68.370762, 9.062176000000136], [-68.36763899999988, 9.058976], [-68.363443, 9.062241], [-68.358987, 9.060567], [-68.357629, 9.063035000000127], [-68.372914, 9.07081], [-68.373911, 9.078973], [-68.369727, 9.078036000000168], [-68.365598, 9.081371], [-68.372524, 9.084242000000131], [-68.373574, 9.088868], [-68.370559, 9.089275], [-68.37212199999988, 9.093447], [-68.375343, 9.093387], [-68.3759189999999, 9.090912], [-68.37961699999983, 9.091868000000147], [-68.375055, 9.094556000000125], [-68.37900899999988, 9.098178000000132], [-68.379002, 9.101715], [-68.37549, 9.109007000000133], [-68.37155499999989, 9.108601000000135], [-68.371074, 9.113534], [-68.363355, 9.116766000000155], [-68.361565, 9.12853], [-68.365118, 9.130334000000119], [-68.36534099999989, 9.136951000000124], [-68.367937, 9.139503000000104], [-68.37116999999989, 9.137973000000159], [-68.370468, 9.141549000000111], [-68.374851, 9.143751], [-68.371906, 9.152358], [-68.375343, 9.15145], [-68.38245599999988, 9.165186], [-68.384463, 9.163506000000154], [-68.387029, 9.166953], [-68.386743, 9.170694], [-68.389231, 9.172464], [-68.38587699999988, 9.174544], [-68.388469, 9.183275], [-68.39292099999989, 9.182813000000124], [-68.40120699999989, 9.186546], [-68.40165, 9.189054000000112], [-68.403427, 9.187188000000106], [-68.403558, 9.190933], [-68.407931, 9.188931], [-68.409228, 9.191746000000137], [-68.401379, 9.193759], [-68.401618, 9.19571400000018], [-68.40457299999986, 9.199923], [-68.406436, 9.198793], [-68.406415, 9.201296000000184], [-68.408837, 9.199735000000146], [-68.41167, 9.201875], [-68.40827599999989, 9.205999], [-68.41249199999987, 9.208842000000118], [-68.412507, 9.212701], [-68.417673, 9.209995000000163], [-68.420505, 9.212228000000152], [-68.41876799999983, 9.214898000000119], [-68.421378, 9.215865000000178], [-68.416775, 9.228912], [-68.419662, 9.230042], [-68.416834, 9.233024], [-68.42014, 9.233883000000105], [-68.418634, 9.236625000000117], [-68.420917, 9.2465], [-68.418504, 9.2496], [-68.42160399999989, 9.25034200000016], [-68.41990199999987, 9.25441400000011], [-68.425207, 9.263009000000181], [-68.41702, 9.27496500000018], [-68.41656, 9.282953000000134], [-68.41122799999982, 9.288597], [-68.404443, 9.304584], [-68.406551, 9.313104000000124], [-68.400185, 9.325995], [-68.4045799999999, 9.333786], [-68.40619699999985, 9.344682], [-68.39911699999988, 9.349170000000129], [-68.393591, 9.367946], [-68.393085, 9.382432000000108], [-68.398307, 9.389468], [-68.396771, 9.406151000000136], [-68.400224, 9.405569000000128], [-68.406006, 9.416894000000127], [-68.39913, 9.421887], [-68.398608, 9.434746000000132], [-68.391835, 9.43724], [-68.390103, 9.441406], [-68.386636, 9.46509500000019], [-68.390895, 9.470293], [-68.386603, 9.472064], [-68.379946, 9.484577], [-68.376498, 9.484196000000168], [-68.377818, 9.489153000000158], [-68.369858, 9.492880000000184], [-68.3657209999999, 9.491304000000127], [-68.363247, 9.49526], [-68.36525999999986, 9.495704], [-68.366973, 9.505591], [-68.365519, 9.504737000000148], [-68.364192, 9.511105000000157], [-68.369435, 9.513809], [-68.365618, 9.517965], [-68.370741, 9.521631000000127], [-68.371135, 9.526538], [-68.365328, 9.530412000000126], [-68.36046799999986, 9.539401000000112], [-68.37141899999989, 9.544970000000149], [-68.371353, 9.548959000000139], [-68.37795299999988, 9.549009000000183], [-68.37879299999986, 9.55268000000018]]]}}, {"type": "Feature", "properties": {"parroquia": "San Carlos de Austria", "municipio": "Ezequiel Zamora", "estado": "Cojedes", "pcode": "VE090801", "estado_pcode": "VE09", "municipio_pcode": "VE0908", "center_lat": 9.67680991, "center_lon": -68.67411723, "area_sqkm": 953.22326091}, "geometry": {"type": "Polygon", "coordinates": [[[-68.60103517399995, 9.81613926500006], [-68.614371, 9.816817], [-68.62013, 9.82087300000012], [-68.633927, 9.814908], [-68.650606, 9.814745], [-68.663563, 9.810919], [-68.669005, 9.800273000000118], [-68.703503, 9.822536], [-68.708183, 9.821966000000145], [-68.724948, 9.834361], [-68.726028, 9.831325], [-68.73147199999988, 9.831077000000107], [-68.73332, 9.834277], [-68.739577, 9.832672000000116], [-68.74401399999988, 9.825959000000125], [-68.749786, 9.824169], [-68.748123, 9.821545000000128], [-68.750234, 9.819522], [-68.767953, 9.82087300000012], [-68.772685, 9.81802400000015], [-68.77722030299998, 9.827618138000105], [-68.82746337299989, 9.727627097000095], [-68.82553323799988, 9.717410857000175], [-68.83304154299987, 9.714217737000126], [-68.83363849299997, 9.70186342300019], [-68.84017574799987, 9.696990265000068], [-68.83951766499996, 9.6878320510001], [-68.83262633499999, 9.680925917000138], [-68.83397735599993, 9.675565776000099], [-68.83197024299994, 9.670548668000094], [-68.83450031599995, 9.665254518000097], [-68.83211486599993, 9.65699810200016], [-68.83751235099993, 9.647924084000067], [-68.83799533199993, 9.642479941000033], [-68.81878539799999, 9.62154853400017], [-68.81751425999988, 9.60662117700008], [-68.82237543699995, 9.601534026000081], [-68.81900527099998, 9.596955930000036], [-68.81217894699995, 9.592339859999981], [-68.80042145599992, 9.593704955000078], [-68.79452718199997, 9.588830873000177], [-68.78389172099997, 9.588653920000013], [-68.78004354399997, 9.58590988200018], [-68.76937311599994, 9.58996204400006], [-68.76063173499995, 9.58773003300007], [-68.75633247599995, 9.57500774500005], [-68.74938714099994, 9.568537622000065], [-68.74524396399994, 9.567837634000057], [-68.73946466299998, 9.557745417000149], [-68.73912660399998, 9.550870251999982], [-68.73057319299994, 9.54287010000013], [-68.72863705399982, 9.533108875000096], [-68.73057211599996, 9.528109746000098], [-68.726572, 9.528262], [-68.715673, 9.537781], [-68.709618, 9.535823], [-68.700055, 9.540594], [-68.696179, 9.538516], [-68.693145, 9.546721], [-68.68921099999989, 9.543355], [-68.685634, 9.5442910000001], [-68.67878499999983, 9.551428000000158], [-68.667768, 9.555473000000177], [-68.6541749999999, 9.548487], [-68.651116, 9.548783000000128], [-68.649403, 9.556859], [-68.634957, 9.56882700000017], [-68.63953, 9.570683], [-68.637664, 9.577493000000118], [-68.639694, 9.578637], [-68.635387, 9.583726000000127], [-68.642963, 9.591996000000165], [-68.642755, 9.594683], [-68.639732, 9.59325600000011], [-68.640237, 9.596524000000159], [-68.64467599999989, 9.600446000000147], [-68.639847, 9.604174], [-68.639843, 9.607415000000117], [-68.633259, 9.610372], [-68.633181, 9.614072], [-68.62973199999988, 9.613514000000123], [-68.629907, 9.617400000000146], [-68.525072, 9.519878], [-68.37879299999986, 9.55268000000018], [-68.399779, 9.550210000000106], [-68.41302899999988, 9.556], [-68.426378, 9.553742000000113], [-68.433961, 9.557466], [-68.438773, 9.5651], [-68.47059399999989, 9.566151000000104], [-68.491751, 9.589310000000125], [-68.49807, 9.604081000000178], [-68.4970459999999, 9.618272000000161], [-68.511266, 9.627774000000159], [-68.514402, 9.637392000000148], [-68.50706999999989, 9.646523000000116], [-68.50328899999988, 9.659422000000177], [-68.50432799999987, 9.667248], [-68.514888, 9.676398], [-68.51873399999988, 9.68517], [-68.515927, 9.696968], [-68.509043, 9.699786000000188], [-68.509082, 9.712349000000131], [-68.5021749959999, 9.730580991000068], [-68.50496, 9.731437], [-68.50607899999989, 9.737835000000132], [-68.519545, 9.74319400000013], [-68.532578, 9.755731], [-68.536198, 9.77269200000012], [-68.550446, 9.771518000000128], [-68.555187, 9.77449200000018], [-68.56878499999982, 9.774098], [-68.57125899999988, 9.775804], [-68.570558, 9.778794000000175], [-68.587912, 9.787101], [-68.592151, 9.797506000000112], [-68.59632099999988, 9.797443], [-68.599345, 9.80200200000013], [-68.610122, 9.79990000000015], [-68.612449, 9.805655], [-68.60313, 9.808449000000167], [-68.604343, 9.81517], [-68.60103517399995, 9.81613926500006]]]}}, {"type": "Feature", "properties": {"parroquia": "Manuel Manrique", "municipio": "Ezequiel Zamora", "estado": "Cojedes", "pcode": "VE090803", "estado_pcode": "VE09", "municipio_pcode": "VE0908", "center_lat": 9.816338, "center_lon": -68.53952632, "area_sqkm": 145.04579838}, "geometry": {"type": "Polygon", "coordinates": [[[-68.48061799999988, 9.76125100000013], [-68.473684, 9.774169], [-68.47698, 9.779997], [-68.4757929999999, 9.783085], [-68.465041, 9.787389], [-68.461665, 9.799883], [-68.478671, 9.816476000000137], [-68.48485, 9.829844], [-68.495032, 9.829092000000173], [-68.501689, 9.833217], [-68.503326, 9.848276000000112], [-68.495884, 9.859671], [-68.4994099999999, 9.87107200000014], [-68.492859, 9.885288], [-68.49200151799994, 9.90201958700004], [-68.5142569329999, 9.888636878000057], [-68.52114121699992, 9.887358808000158], [-68.52591547899988, 9.896799011000098], [-68.53088067499993, 9.893954916000041], [-68.5294976049999, 9.890961846000039], [-68.53876354499988, 9.887951527000098], [-68.540898, 9.882533], [-68.545701, 9.879205000000184], [-68.54901299999989, 9.869984], [-68.556157, 9.867004000000179], [-68.562943, 9.867865000000165], [-68.571241, 9.84567600000014], [-68.570444, 9.839486], [-68.577723, 9.837357000000111], [-68.585341, 9.828809], [-68.583571, 9.822779], [-68.586671, 9.824532], [-68.588625, 9.821038000000101], [-68.59961, 9.818798], [-68.60103517399995, 9.81613926500006], [-68.604343, 9.81517], [-68.60313, 9.808449000000167], [-68.612449, 9.805655], [-68.610122, 9.79990000000015], [-68.599345, 9.80200200000013], [-68.59632099999988, 9.797443], [-68.592151, 9.797506000000112], [-68.587912, 9.787101], [-68.570558, 9.778794000000175], [-68.57125899999988, 9.775804], [-68.56878499999982, 9.774098], [-68.555187, 9.77449200000018], [-68.550446, 9.771518000000128], [-68.536198, 9.77269200000012], [-68.532578, 9.755731], [-68.519545, 9.74319400000013], [-68.50607899999989, 9.737835000000132], [-68.50496, 9.731437], [-68.5021749959999, 9.730580991000068], [-68.499673, 9.735241], [-68.501198, 9.743967000000168], [-68.494653, 9.755061], [-68.496763, 9.76071700000017], [-68.49078999999989, 9.762657000000104], [-68.48061799999988, 9.76125100000013]]]}}, {"type": "Feature", "properties": {"parroquia": "General En Jefe José Laurencio Silva", "municipio": "Tinaco", "estado": "Cojedes", "pcode": "VE090901", "estado_pcode": "VE09", "municipio_pcode": "VE0909", "center_lat": 9.4380005, "center_lon": -68.35114185, "area_sqkm": 1075.76043462}, "geometry": {"type": "Polygon", "coordinates": [[[-68.30266199999988, 9.772931], [-68.307923, 9.77615800000018], [-68.320912, 9.773885], [-68.324891, 9.768653], [-68.333069, 9.765093], [-68.337257, 9.759052], [-68.360306, 9.759224], [-68.36775399999988, 9.761102], [-68.377555, 9.768262], [-68.3794999999999, 9.774749000000156], [-68.424954, 9.784932], [-68.430301, 9.787075000000186], [-68.436636, 9.783221], [-68.436169, 9.778206000000182], [-68.453607, 9.764459000000159], [-68.467099, 9.771403], [-68.477701, 9.75975], [-68.48061799999988, 9.76125100000013], [-68.49078999999989, 9.762657000000104], [-68.496763, 9.76071700000017], [-68.494653, 9.755061], [-68.501198, 9.743967000000168], [-68.499673, 9.735241], [-68.5021749959999, 9.730580991000068], [-68.509082, 9.712349000000131], [-68.509043, 9.699786000000188], [-68.515927, 9.696968], [-68.51873399999988, 9.68517], [-68.514888, 9.676398], [-68.50432799999987, 9.667248], [-68.50328899999988, 9.659422000000177], [-68.50706999999989, 9.646523000000116], [-68.514402, 9.637392000000148], [-68.511266, 9.627774000000159], [-68.4970459999999, 9.618272000000161], [-68.49807, 9.604081000000178], [-68.491751, 9.589310000000125], [-68.47059399999989, 9.566151000000104], [-68.438773, 9.5651], [-68.433961, 9.557466], [-68.426378, 9.553742000000113], [-68.41302899999988, 9.556], [-68.399779, 9.550210000000106], [-68.37879299999986, 9.55268000000018], [-68.37795299999988, 9.549009000000183], [-68.371353, 9.548959000000139], [-68.37141899999989, 9.544970000000149], [-68.36046799999986, 9.539401000000112], [-68.365328, 9.530412000000126], [-68.371135, 9.526538], [-68.370741, 9.521631000000127], [-68.365618, 9.517965], [-68.369435, 9.513809], [-68.364192, 9.511105000000157], [-68.365519, 9.504737000000148], [-68.366973, 9.505591], [-68.36525999999986, 9.495704], [-68.363247, 9.49526], [-68.3657209999999, 9.491304000000127], [-68.369858, 9.492880000000184], [-68.377818, 9.489153000000158], [-68.376498, 9.484196000000168], [-68.379946, 9.484577], [-68.386603, 9.472064], [-68.390895, 9.470293], [-68.386636, 9.46509500000019], [-68.390103, 9.441406], [-68.391835, 9.43724], [-68.398608, 9.434746000000132], [-68.39913, 9.421887], [-68.406006, 9.416894000000127], [-68.400224, 9.405569000000128], [-68.396771, 9.406151000000136], [-68.398307, 9.389468], [-68.393085, 9.382432000000108], [-68.393591, 9.367946], [-68.39911699999988, 9.349170000000129], [-68.40619699999985, 9.344682], [-68.4045799999999, 9.333786], [-68.400185, 9.325995], [-68.406551, 9.313104000000124], [-68.404443, 9.304584], [-68.41122799999982, 9.288597], [-68.41656, 9.282953000000134], [-68.41702, 9.27496500000018], [-68.425207, 9.263009000000181], [-68.41990199999987, 9.25441400000011], [-68.42160399999989, 9.25034200000016], [-68.418504, 9.2496], [-68.420917, 9.2465], [-68.418634, 9.236625000000117], [-68.42014, 9.233883000000105], [-68.416834, 9.233024], [-68.419662, 9.230042], [-68.416775, 9.228912], [-68.421378, 9.215865000000178], [-68.41876799999983, 9.214898000000119], [-68.420505, 9.212228000000152], [-68.417673, 9.209995000000163], [-68.412507, 9.212701], [-68.41249199999987, 9.208842000000118], [-68.40827599999989, 9.205999], [-68.41167, 9.201875], [-68.408837, 9.199735000000146], [-68.406415, 9.201296000000184], [-68.406436, 9.198793], [-68.40457299999986, 9.199923], [-68.401618, 9.19571400000018], [-68.401379, 9.193759], [-68.409228, 9.191746000000137], [-68.407931, 9.188931], [-68.403558, 9.190933], [-68.403427, 9.187188000000106], [-68.40165, 9.189054000000112], [-68.40120699999989, 9.186546], [-68.39292099999989, 9.182813000000124], [-68.388469, 9.183275], [-68.38587699999988, 9.174544], [-68.389231, 9.172464], [-68.386743, 9.170694], [-68.387029, 9.166953], [-68.384463, 9.163506000000154], [-68.38245599999988, 9.165186], [-68.375343, 9.15145], [-68.371906, 9.152358], [-68.374851, 9.143751], [-68.370468, 9.141549000000111], [-68.37116999999989, 9.137973000000159], [-68.367937, 9.139503000000104], [-68.36534099999989, 9.136951000000124], [-68.365118, 9.130334000000119], [-68.361565, 9.12853], [-68.363355, 9.116766000000155], [-68.371074, 9.113534], [-68.37155499999989, 9.108601000000135], [-68.37549, 9.109007000000133], [-68.379002, 9.101715], [-68.37900899999988, 9.098178000000132], [-68.375055, 9.094556000000125], [-68.37961699999983, 9.091868000000147], [-68.3759189999999, 9.090912], [-68.375343, 9.093387], [-68.37212199999988, 9.093447], [-68.370559, 9.089275], [-68.37092799999988, 9.092218000000116], [-68.36254699999989, 9.094434], [-68.358944, 9.104228000000148], [-68.353708, 9.109780000000171], [-68.354831, 9.113994000000162], [-68.3498029999999, 9.125083000000132], [-68.35284699999988, 9.1295], [-68.353205, 9.141907], [-68.34822799999989, 9.152514000000167], [-68.332707, 9.171286000000123], [-68.329643, 9.19103], [-68.326703, 9.193458], [-68.32814999999988, 9.197744], [-68.325593, 9.201347000000112], [-68.325541, 9.210166], [-68.335376, 9.228065], [-68.332957, 9.234678000000144], [-68.336398, 9.246839], [-68.330791, 9.254983], [-68.33472999999987, 9.265839], [-68.341697, 9.266828000000146], [-68.34255299999984, 9.277975], [-68.348689, 9.284145], [-68.351929, 9.281904], [-68.354896, 9.284666], [-68.3538, 9.290879], [-68.35592899999989, 9.296780000000183], [-68.34617899999989, 9.309545000000128], [-68.343854, 9.307616], [-68.34048299999989, 9.308777], [-68.33868999999987, 9.312502], [-68.335122, 9.30684], [-68.330701, 9.306176000000107], [-68.328792, 9.296373], [-68.3235, 9.294505], [-68.317394, 9.298418], [-68.311502, 9.307132], [-68.302199, 9.308163], [-68.295938, 9.313934], [-68.274913, 9.324838], [-68.27739, 9.331403], [-68.29283199999986, 9.344536], [-68.294475, 9.354033000000129], [-68.291736, 9.355764], [-68.302062, 9.364427], [-68.308206, 9.381326000000115], [-68.306699, 9.386638000000119], [-68.3152889999999, 9.395867], [-68.316915, 9.408963], [-68.31331199999983, 9.412066000000152], [-68.31148599999989, 9.421022], [-68.312878, 9.434759000000156], [-68.310933, 9.434705000000122], [-68.310673, 9.440687], [-68.30727899999988, 9.443538], [-68.30751, 9.448422000000164], [-68.30205, 9.452364], [-68.3002019999999, 9.470261], [-68.296271, 9.473843000000102], [-68.287696, 9.475640000000112], [-68.278816, 9.487361], [-68.263404, 9.494676], [-68.256868, 9.505306000000132], [-68.248609, 9.508387000000141], [-68.224476, 9.613571], [-68.197015, 9.664606000000106], [-68.30776, 9.663943000000131], [-68.2989, 9.760246000000109], [-68.30266199999988, 9.772931]]]}}, {"type": "Feature", "properties": {"parroquia": "Juan Ángel Bravo", "municipio": "Ezequiel Zamora", "estado": "Cojedes", "pcode": "VE090802", "estado_pcode": "VE09", "municipio_pcode": "VE0908", "center_lat": 9.88824563, "center_lon": -68.62843566, "area_sqkm": 299.56390591}, "geometry": {"type": "Polygon", "coordinates": [[[-68.53876354499988, 9.887951527000098], [-68.54141109999995, 9.889507739000067], [-68.53857499899993, 9.893437858000084], [-68.5395270969999, 9.902043064000111], [-68.53613297999993, 9.907030214000088], [-68.53716205799998, 9.912760346000141], [-68.52933476099992, 9.920248585000024], [-68.52699871199991, 9.92802078800014], [-68.52879082499993, 9.93481094800012], [-68.53369804699997, 9.937072981000142], [-68.54717658099992, 9.930320729000073], [-68.55462491299988, 9.932129732000135], [-68.56027915299984, 9.930605667000066], [-68.5732507319999, 9.93469169399998], [-68.6047530599999, 9.932424449000052], [-68.61097039299989, 9.944565720000014], [-68.60938537099992, 9.952402923000022], [-68.61259159999992, 9.96679126700019], [-68.61811585199996, 9.968948288000036], [-68.63110838099988, 9.966259140000147], [-68.63688860999997, 9.962595025999974], [-68.65272835499997, 9.973936212000126], [-68.66161975599994, 9.976341226000159], [-68.66560787499998, 9.968512003000114], [-68.68295353699995, 9.955497581000088], [-68.69511301899996, 9.94888234400014], [-68.7099076369999, 9.946195184000032], [-68.71580986099997, 9.941223025000113], [-68.72359497899998, 9.904293070000108], [-68.71412351599997, 9.894281874000114], [-68.72220877499996, 9.880999487000054], [-68.72823100499988, 9.87614533400017], [-68.74122254099996, 9.87155114300009], [-68.75541212999997, 9.868860002000076], [-68.76213841499998, 9.869947985000124], [-68.75530209199997, 9.86446388800016], [-68.76252437599993, 9.859850740000184], [-68.76530644599984, 9.852016524000021], [-68.77409379399995, 9.84622032700014], [-68.77098062899984, 9.84122021900015], [-68.77722030299998, 9.827618138000105], [-68.772685, 9.81802400000015], [-68.767953, 9.82087300000012], [-68.750234, 9.819522], [-68.748123, 9.821545000000128], [-68.749786, 9.824169], [-68.74401399999988, 9.825959000000125], [-68.739577, 9.832672000000116], [-68.73332, 9.834277], [-68.73147199999988, 9.831077000000107], [-68.726028, 9.831325], [-68.724948, 9.834361], [-68.708183, 9.821966000000145], [-68.703503, 9.822536], [-68.669005, 9.800273000000118], [-68.663563, 9.810919], [-68.650606, 9.814745], [-68.633927, 9.814908], [-68.62013, 9.82087300000012], [-68.614371, 9.816817], [-68.60103517399995, 9.81613926500006], [-68.59961, 9.818798], [-68.588625, 9.821038000000101], [-68.586671, 9.824532], [-68.583571, 9.822779], [-68.585341, 9.828809], [-68.577723, 9.837357000000111], [-68.570444, 9.839486], [-68.571241, 9.84567600000014], [-68.562943, 9.867865000000165], [-68.556157, 9.867004000000179], [-68.54901299999989, 9.869984], [-68.545701, 9.879205000000184], [-68.540898, 9.882533], [-68.53876354499988, 9.887951527000098]]]}}, {"type": "Feature", "properties": {"parroquia": "El Amparo", "municipio": "Ricaurte", "estado": "Cojedes", "pcode": "VE090602", "estado_pcode": "VE09", "municipio_pcode": "VE0906", "center_lat": 9.3209025, "center_lon": -68.74368916, "area_sqkm": 220.27490739}, "geometry": {"type": "Polygon", "coordinates": [[[-68.62849122999995, 9.219524749000186], [-68.62452699999989, 9.221459], [-68.6267759999999, 9.22516], [-68.629113, 9.224869000000183], [-68.629076, 9.229480000000137], [-68.631158, 9.229213], [-68.629209, 9.232002], [-68.632262, 9.237993000000131], [-68.632097, 9.247674], [-68.634242, 9.24967800000013], [-68.643457, 9.249043000000142], [-68.644754, 9.252383000000123], [-68.649963, 9.251889], [-68.654326, 9.25631], [-68.65197099999989, 9.257564000000116], [-68.655811, 9.25997], [-68.6556379999999, 9.255177000000174], [-68.659637, 9.253934000000186], [-68.662002, 9.257473], [-68.660307, 9.263701], [-68.665807, 9.258411], [-68.6685849999999, 9.261488], [-68.66835, 9.267615], [-68.671577, 9.265322], [-68.673198, 9.268568], [-68.677278, 9.268838000000187], [-68.67771199999987, 9.274547], [-68.674977, 9.277617], [-68.678217, 9.280554], [-68.677452, 9.283793000000173], [-68.6833759999999, 9.292677], [-68.68328899999989, 9.29683], [-68.689599, 9.304677], [-68.689216, 9.309429000000137], [-68.70460999999989, 9.320631000000105], [-68.71348499999988, 9.324033], [-68.718242, 9.339205], [-68.7273229999999, 9.341647], [-68.73715, 9.354829000000109], [-68.741745, 9.367715000000146], [-68.74480299999988, 9.39022100000011], [-68.748752, 9.391701000000182], [-68.750062, 9.404193000000134], [-68.745196, 9.418680000000109], [-68.738919, 9.42141], [-68.73752757999983, 9.425954948000026], [-68.88899128099996, 9.424505340000167], [-68.8858011179999, 9.420878269000184], [-68.8878881949999, 9.41758518600011], [-68.88498304399997, 9.412919085000112], [-68.88732710699986, 9.406408919000057], [-68.88476597399995, 9.402090822000105], [-68.88021078799983, 9.404055902000152], [-68.88136581299983, 9.398524759000168], [-68.87728567099992, 9.404928932000075], [-68.86551419199992, 9.408584088000168], [-68.86528114899983, 9.402743945000054], [-68.86165499299989, 9.401497934000076], [-68.86757620999998, 9.39662478200006], [-68.86762217799998, 9.390740648000133], [-68.86468603799995, 9.387109578999969], [-68.85932380199995, 9.38573357000007], [-68.8554345789999, 9.376624369000183], [-68.84706439199988, 9.367646669000067], [-68.83658167899995, 9.359030050000058], [-68.82625017499998, 9.355891854000106], [-68.81236558399985, 9.346356877000176], [-68.80299118199991, 9.345753909000166], [-68.80271215599993, 9.342969847000063], [-68.8005270679999, 9.344032881999965], [-68.8017251099999, 9.341858820000027], [-68.79629086999995, 9.34091883300016], [-68.79647386699997, 9.338299766999967], [-68.79852296399997, 9.339833791999979], [-68.79582881499994, 9.33505369300019], [-68.79516379599994, 9.337117742000146], [-68.78882752899989, 9.336009747000048], [-68.78616739899996, 9.332700690000081], [-68.78875046399992, 9.325523494000095], [-68.78201215699988, 9.322933473000091], [-68.78158810099995, 9.315619298000058], [-68.77858500299993, 9.320090420000156], [-68.77857097399993, 9.314975297000103], [-68.77295074299997, 9.316300363000153], [-68.76882153899999, 9.312544295000066], [-68.77029157599992, 9.307556166999973], [-68.7634533019999, 9.31021927100005], [-68.76099113899994, 9.299868028999981], [-68.76574032699995, 9.296553919000075], [-68.76426224299996, 9.294040876000054], [-68.77894782399994, 9.283980550000024], [-68.77656568599991, 9.27819342000015], [-68.7742245899999, 9.278049436000117], [-68.77873376699989, 9.276847383000018], [-68.77883376299997, 9.274667320000049], [-68.77207147899992, 9.275014369000075], [-68.76912533499996, 9.271364297000048], [-68.7679663159999, 9.27761245500011], [-68.76528717099995, 9.272378348000188], [-68.76058997799993, 9.273191386000121], [-68.76086297199998, 9.269336293000094], [-68.74771939899995, 9.268121339000118], [-68.74759937399989, 9.264429248000113], [-68.74325616899989, 9.259550157000092], [-68.7414410959999, 9.26174220900009], [-68.73860096499993, 9.259835183], [-68.7285405579999, 9.262200295000127], [-68.72771649299995, 9.257044178000115], [-68.72091516499995, 9.251816088999988], [-68.71341685399995, 9.25292315400003], [-68.71241879699994, 9.249375076000092], [-68.70879364999996, 9.25112013000006], [-68.70511147699995, 9.248003074000053], [-68.7036234279999, 9.250491147000162], [-68.70758763599997, 9.25743728800012], [-68.70580755699996, 9.257908311000108], [-68.69857619099992, 9.24763610000008], [-68.69539705199986, 9.246786103000034], [-68.69335993199996, 9.24035396100004], [-68.68304045299993, 9.232258813999977], [-68.67809924799991, 9.234517897000103], [-68.67292700799999, 9.230217824000079], [-68.66815580599985, 9.230364849000068], [-68.66767334399998, 9.227494038000088], [-68.66930382399988, 9.225539735000154], [-68.66645371099997, 9.225490746000105], [-68.66684470099989, 9.22174865500017], [-68.66466260699991, 9.22096064200008], [-68.66256556299993, 9.229164849000085], [-68.65977645699991, 9.231247924], [-68.6543961939999, 9.226925845000096], [-68.64959300399994, 9.22920692200006], [-68.64795490399996, 9.223459793000188], [-68.64383170899987, 9.220046729000046], [-68.64507774099985, 9.216047635000109], [-68.64165760899994, 9.217102670000088], [-68.64131860899994, 9.221784788000036], [-68.63859650399996, 9.22336284000005], [-68.63543035299989, 9.22097580400009], [-68.63336529199995, 9.223856882000064], [-68.63274422999996, 9.217736742000113], [-68.62856405299988, 9.219530803000168], [-68.62849122999995, 9.219524749000186]]]}}]}