{"type": "FeatureCollection", "features": [{"type": "Feature", "properties": {"parroquia": "Luis Beltrán Prieto Figueroa", "municipio": "Pedernales", "estado": "Delta Amacuro", "pcode": "VE100302", "estado_pcode": "VE10", "municipio_pcode": "VE1003", "center_lat": 9.77262308, "center_lon": -62.01034458, "area_sqkm": 1241.36933451}, "geometry": {"type": "Polygon", "coordinates": [[[-61.82522411799988, 9.79094015600009], [-61.845926663999876, 9.802187665000133], [-61.847828742999866, 9.799367572000165], [-61.850691879999886, 9.800316589000033], [-61.85786526499993, 9.811164861000066], [-61.86502461299989, 9.814478914000063], [-61.86503363499992, 9.819187055000157], [-61.91426220799991, 9.878170491000105], [-61.94291363699983, 9.898961950000114], [-61.990633938999906, 9.916033206], [-62.0040026019999, 9.92454238400012], [-62.01499216899998, 9.936341667000022], [-62.06941985399982, 9.970382371000142], [-62.1028244609999, 9.982708552000133], [-62.11856620899994, 9.985102550000136], [-62.162006343999906, 10.009117014000083], [-62.198755080999945, 10.017995086000099], [-62.207075449999934, 10.014580950000038], [-62.21470276599996, 10.007750714000167], [-62.22245869699998, 9.995012742000142], [-62.232442, 9.990292000000181], [-62.242917, 9.979028], [-62.24715, 9.967353], [-62.2461, 9.960626000000161], [-62.212655, 9.926571], [-62.205475, 9.91035600000015], [-62.189890999999875, 9.89086500000019], [-62.177804, 9.866577000000177], [-62.173081, 9.845845], [-62.176057, 9.800134000000128], [-62.165376, 9.742522000000179], [-62.16415099999989, 9.716648], [-62.16875, 9.701528], [-62.192868, 9.652309000000173], [-62.20625, 9.639583], [-62.222198, 9.634057], [-62.226138, 9.624474000000134], [-62.226488, 9.607295], [-62.21475, 9.580661], [-62.214244, 9.55736000000013], [-62.217897, 9.531783], [-62.21417099999985, 9.518525000000182], [-62.20199846199995, 9.507781811000086], [-61.82522411799988, 9.79094015600009]]]}}, {"type": "Feature", "properties": {"parroquia": "San José", "municipio": "Tucupita", "estado": "Delta Amacuro", "pcode": "VE100401", "estado_pcode": "VE10", "municipio_pcode": "VE1004", "center_lat": 9.058629, "center_lon": -62.05087644, "area_sqkm": 1.10740653}, "geometry": {"type": "Polygon", "coordinates": [[[-62.038697, 9.059367], [-62.053663, 9.062594], [-62.060426, 9.058771], [-62.051643, 9.054813], [-62.038697, 9.059367]]]}}, {"type": "Feature", "properties": {"parroquia": "José Vidal Marcano", "municipio": "Tucupita", "estado": "Delta Amacuro", "pcode": "VE100402", "estado_pcode": "VE10", "municipio_pcode": "VE1004", "center_lat": 9.448371, "center_lon": -61.73423988, "area_sqkm": 1261.19785572}, "geometry": {"type": "Polygon", "coordinates": [[[-61.59993568699997, 9.780398736000052], [-61.619669044999966, 9.780788131000065], [-61.64472019599998, 9.776932903000102], [-61.76518901899993, 9.822416621000059], [-61.80145273199997, 9.828226615000062], [-61.81575337399988, 9.823573417000034], [-61.823163680999926, 9.816663184000163], [-61.822479102999864, 9.795513430000085], [-61.80688, 9.777239000000122], [-61.80263499999984, 9.752763000000186], [-61.791692999999896, 9.752465], [-61.781995, 9.756624], [-61.77103199999988, 9.75704], [-61.756696, 9.745395], [-61.7529, 9.739572000000123], [-61.75416499999989, 9.727927000000136], [-61.750791999999876, 9.711705000000109], [-61.74615399999982, 9.704219000000137], [-61.733083, 9.693405000000155], [-61.72970899999984, 9.623114], [-61.73716799999988, 9.58852000000013], [-61.73392599999988, 9.571955000000173], [-61.735191, 9.567796000000158], [-61.741094, 9.560725], [-61.741937, 9.551991], [-61.74699699999985, 9.542425], [-61.759225, 9.53077900000011], [-61.764285, 9.501664], [-61.76765799999987, 9.495841], [-61.807294, 9.447179000000176], [-61.838074, 9.399763], [-61.860686, 9.3092630000001], [-61.859879, 9.305702000000167], [-61.854266, 9.302918], [-61.854658, 9.29817300000019], [-61.86065799999989, 9.294233000000133], [-61.864668, 9.295825], [-61.869066, 9.2918820000001], [-61.876561, 9.299326000000178], [-62.06156899999985, 9.11182], [-62.081848, 9.079041000000188], [-62.060332, 9.067228000000114], [-62.055463, 9.075634], [-62.036272, 9.080470000000105], [-62.00971, 9.104765], [-62.000904, 9.10790800000018], [-61.991291, 9.107488], [-61.982861, 9.098369000000162], [-61.977257, 9.099937], [-61.97085899999985, 9.105459], [-61.962481, 9.124026], [-61.950098, 9.142189], [-61.94449499999985, 9.1445480000001], [-61.924868, 9.144103], [-61.908061, 9.153157], [-61.912086, 9.163845000000151], [-61.911292, 9.167404], [-61.907287, 9.167789000000141], [-61.905692, 9.171345], [-61.90208799999982, 9.172127], [-61.896056, 9.159454], [-61.892452, 9.159841000000142], [-61.89166, 9.164981000000125], [-61.89447399999989, 9.170525], [-61.892477, 9.173289000000125], [-61.888072, 9.173673], [-61.87968599999988, 9.187494000000186], [-61.8688719999999, 9.187863000000164], [-61.86886299999986, 9.183117], [-61.866063999999824, 9.185878], [-61.86048199999982, 9.19970700000016], [-61.856882, 9.20207100000016], [-61.856899, 9.211168], [-61.851312, 9.222228000000143], [-61.848114, 9.226174000000128], [-61.84331, 9.227349000000174], [-61.8393319999999, 9.241973000000144], [-61.83292399999988, 9.242352], [-61.831746, 9.255005000000153], [-61.817332, 9.258133000000157], [-61.809746, 9.271166], [-61.787763, 9.296424], [-61.790574, 9.300386000000117], [-61.79738799999984, 9.30317100000019], [-61.797799, 9.308709], [-61.79019199999988, 9.310668], [-61.784175, 9.305511], [-61.779773, 9.30747700000012], [-61.78379, 9.314211], [-61.781797, 9.319347000000107], [-61.771789999999896, 9.32327700000019], [-61.765398, 9.331963000000144], [-61.765844, 9.356485], [-61.761452, 9.363989], [-61.75065599999988, 9.373454000000152], [-61.737042, 9.376583], [-61.728669, 9.396734], [-61.720675999999855, 9.406996], [-61.706669, 9.412893000000167], [-61.691874, 9.4267], [-61.682671, 9.431818], [-61.67585599999984, 9.429428000000144], [-61.66985299999982, 9.431786], [-61.661874999999895, 9.449563], [-61.653598, 9.456102], [-61.649342, 9.47137000000015], [-61.62308499999983, 9.508173], [-61.564297, 9.576532000000157], [-61.537603, 9.593604000000141], [-61.518533, 9.615350000000149], [-61.5055569999999, 9.642226], [-61.505833, 9.65496700000017], [-61.510103, 9.669844], [-61.52630299999987, 9.712386000000151], [-61.544902, 9.741291000000103], [-61.559248, 9.755705], [-61.576048, 9.764982], [-61.593924, 9.780008], [-61.59993568699997, 9.780398736000052]]]}}, {"type": "Feature", "properties": {"parroquia": "Juan Millán", "municipio": "Tucupita", "estado": "Delta Amacuro", "pcode": "VE100403", "estado_pcode": "VE10", "municipio_pcode": "VE1004", "center_lat": 9.2484535, "center_lon": -61.44743148, "area_sqkm": 7204.91270845}, "geometry": {"type": "Polygon", "coordinates": [[[-60.9686364829999, 9.484601346000147], [-60.969239334999884, 9.491676908000102], [-60.95875988499995, 9.50007019200018], [-60.954852778999964, 9.515281654000034], [-60.96700539099987, 9.524702860000104], [-60.97785796799997, 9.540598268000053], [-60.992968737999945, 9.553914573999975], [-61.01002854699988, 9.556547574000092], [-61.031040582999935, 9.568582825000135], [-61.04449523699992, 9.572826879000104], [-61.059573924999825, 9.568654699000035], [-61.081555963999904, 9.572919715000126], [-61.086797199999864, 9.56937058700015], [-61.09795473499997, 9.572960638999973], [-61.09958277699991, 9.566488445000061], [-61.11532852499994, 9.568147421000162], [-61.128770138999926, 9.56591429700012], [-61.11466046899994, 9.561668237], [-61.117277567999906, 9.55843714000008], [-61.138269552999986, 9.559137068000098], [-61.16156867699988, 9.566644172000053], [-61.17018314099988, 9.578441471000133], [-61.18073265599992, 9.585019599000134], [-61.19595837799994, 9.587369601999967], [-61.21744443499989, 9.59821381400019], [-61.22445772699996, 9.591680587999974], [-61.220931536999956, 9.584349402000043], [-61.21037499399995, 9.574303162000149], [-61.23104491599997, 9.566261835000148], [-61.229487855999935, 9.568570918000148], [-61.23222700399998, 9.57243100300002], [-61.23926135099998, 9.577073115000076], [-61.259558313999946, 9.578281051000033], [-61.32285142999996, 9.613508754], [-61.331042803999935, 9.611217651000118], [-61.34822262199998, 9.615114683000115], [-61.353311893999944, 9.623219888999984], [-61.35721507399995, 9.623614885000165], [-61.354503002999934, 9.634013191000065], [-61.376007104999985, 9.654877686000077], [-61.39592004699995, 9.659166715000083], [-61.40763861799991, 9.664591819000066], [-61.4205543089999, 9.683893304000094], [-61.4436174839999, 9.703219752000052], [-61.45968339799987, 9.737558658000182], [-61.471411986999954, 9.748378908000177], [-61.47806634799997, 9.758801176000077], [-61.48353461199997, 9.760741204], [-61.49059002799993, 9.776944632000095], [-61.4906080749999, 9.786964918000137], [-61.49413326899992, 9.793525092000095], [-61.50351273899997, 9.800100234000183], [-61.52857010399987, 9.84084428300008], [-61.56061271699997, 9.86702187800006], [-61.58217873399997, 9.869822856000155], [-61.61767645799995, 9.88456310500004], [-61.62625485599983, 9.884356061000119], [-61.63090009799993, 9.88894616400006], [-61.65037400599988, 9.888995074000036], [-61.65315111799998, 9.88625498700003], [-61.649650896999844, 9.874342663000107], [-61.64268554499995, 9.868372519000161], [-61.64383758599996, 9.864942419000045], [-61.65010288399992, 9.867704469000103], [-61.644752590999985, 9.858306222000124], [-61.63083392599998, 9.85346314900005], [-61.622719538999945, 9.853443191000167], [-61.60601373399999, 9.846533073000046], [-61.61110795199994, 9.842883950000044], [-61.602521525999975, 9.838512859000105], [-61.602516522999906, 9.835765785000035], [-61.613188027999854, 9.839683848000107], [-61.61898229499991, 9.838553779000108], [-61.62082735199982, 9.833293622000042], [-61.61595612899998, 9.83213661800005], [-61.60805971899998, 9.824333432000117], [-61.597628236999924, 9.825222499], [-61.595535119999965, 9.821555412000123], [-61.59877525999997, 9.818587307000087], [-61.593431983999835, 9.812622169], [-61.59041783999993, 9.812614177000057], [-61.59993568699997, 9.780398736000052], [-61.593924, 9.780008], [-61.576048, 9.764982], [-61.559248, 9.755705], [-61.544902, 9.741291000000103], [-61.52630299999987, 9.712386000000151], [-61.510103, 9.669844], [-61.505833, 9.65496700000017], [-61.5055569999999, 9.642226], [-61.518533, 9.615350000000149], [-61.537603, 9.593604000000141], [-61.564297, 9.576532000000157], [-61.62308499999983, 9.508173], [-61.649342, 9.47137000000015], [-61.653598, 9.456102], [-61.650979, 9.446494], [-61.67671, 9.395791], [-61.681049, 9.393462], [-61.683192, 9.386617000000172], [-61.70251899999988, 9.374015], [-61.704952, 9.36591600000014], [-61.713401, 9.356831], [-61.71668099999988, 9.344432000000154], [-61.733523, 9.335494], [-61.745736, 9.306178000000102], [-61.756642, 9.29289800000015], [-61.768980999999826, 9.269433], [-61.782493, 9.254790000000128], [-61.802597999999875, 9.219505], [-61.78590799999989, 9.22252200000014], [-61.78242, 9.218114], [-61.78242, 9.213019], [-61.808369, 9.180241000000137], [-61.833342, 9.15435], [-61.863339, 9.096094], [-61.929062, 9.040152], [-62.039345, 8.920148000000154], [-62.048788999999886, 8.920148000000154], [-62.0637960549999, 8.912799980000045], [-62.06310651899997, 8.90065457300011], [-62.0583452489999, 8.88822225000007], [-62.048984275999885, 8.87928891700011], [-62.03896030699997, 8.876461020000022], [-62.03113796699995, 8.88217320700005], [-62.00903198599991, 8.891246557000102], [-62.00086960999994, 8.890574571000059], [-61.99712941899992, 8.886542471000041], [-61.99678935299994, 8.876125188000117], [-62.006991754999945, 8.860668733000125], [-62.041000186999895, 8.830090754000082], [-62.05868496599999, 8.819338382000183], [-62.062086083999986, 8.810266120000051], [-62.05970486099989, 8.784392428000103], [-62.07092825099994, 8.756838630000061], [-62.115391295999984, 8.72405491700016], [-62.084127, 8.689608], [-62.052838, 8.673144], [-62.0242659999999, 8.661412], [-61.992648, 8.666631000000166], [-61.950847, 8.634865000000161], [-61.932649, 8.634584000000132], [-61.909616, 8.629805000000147], [-61.87606199999988, 8.617998], [-61.863265, 8.609283000000175], [-61.851323, 8.605067], [-61.836536, 8.605629], [-61.805825, 8.614625], [-61.793029, 8.614625], [-61.756915999999876, 8.605629], [-61.707283, 8.604532000000177], [-61.714305, 8.622213000000102], [-61.728750999999875, 8.633749], [-61.731246999999826, 8.638942000000156], [-61.7196459999999, 8.641604000000143], [-61.696269999999856, 8.633339], [-61.688828, 8.634161000000177], [-61.677577, 8.641692000000148], [-61.654638, 8.674086], [-61.645445, 8.678197], [-61.636515, 8.672139], [-61.607841, 8.702086], [-61.588493, 8.718142], [-61.56533499999989, 8.727358000000152], [-61.555942, 8.743941000000177], [-61.554306, 8.752832], [-61.556351, 8.765765], [-61.55062399999986, 8.779911], [-61.54367, 8.784356000000116], [-61.508081, 8.796481], [-61.501537, 8.803351], [-61.4954, 8.814668], [-61.494582, 8.824367], [-61.497037, 8.829621], [-61.505627, 8.831642000000159], [-61.50480899999985, 8.835683], [-61.465947, 8.866399], [-61.462266, 8.873673], [-61.454903, 8.907218], [-61.437313, 8.909240000000182], [-61.440175999999894, 8.921364], [-61.42422299999987, 8.938338000000101], [-61.421567, 8.946623000000102], [-61.341535, 9.054322], [-61.341535, 9.059878], [-61.334014, 9.121259000000123], [-61.3268139999999, 9.126382], [-61.314836, 9.147314000000165], [-61.299284, 9.184453000000133], [-61.294871, 9.180487], [-61.289663, 9.18047300000012], [-61.282466, 9.187179], [-61.264034, 9.183573000000138], [-61.258818, 9.178814], [-61.245195, 9.17680200000018], [-61.241181, 9.171649000000116], [-61.221866, 9.161293000000171], [-61.202878, 9.169702000000143], [-61.182286, 9.171326], [-61.171578999999895, 9.170514], [-61.148516, 9.159959000000129], [-61.136984, 9.151839000000109], [-61.128747, 9.152651000000105], [-61.12380499999989, 9.157524], [-61.117215, 9.167267], [-61.113921, 9.181069], [-61.11804, 9.222478], [-61.11145, 9.237906], [-61.10568399999988, 9.276067], [-61.107332, 9.28987], [-61.104861, 9.297178], [-61.100742, 9.302050000000122], [-61.07191399999988, 9.310169], [-61.038966, 9.328032000000178], [-61.023317, 9.333716], [-61.015079, 9.351578], [-61.017551, 9.360510000000147], [-61.010961, 9.398671], [-61.01508, 9.40679], [-61.011786, 9.412474000000145], [-60.99860599999988, 9.42059300000011], [-60.987899, 9.444952000000114], [-60.982132, 9.472558], [-60.977945, 9.479463], [-60.9686364829999, 9.484601346000147]]]}}, {"type": "Feature", "properties": {"parroquia": "Leonardo Ruiz Pineda", "municipio": "Tucupita", "estado": "Delta Amacuro", "pcode": "VE100404", "estado_pcode": "VE10", "municipio_pcode": "VE1004", "center_lat": 9.2559915, "center_lon": -61.80620239, "area_sqkm": 176.16920612}, "geometry": {"type": "Polygon", "coordinates": [[[-61.802597999999875, 9.219505], [-61.782493, 9.254790000000128], [-61.768980999999826, 9.269433], [-61.756642, 9.29289800000015], [-61.745736, 9.306178000000102], [-61.733523, 9.335494], [-61.71668099999988, 9.344432000000154], [-61.713401, 9.356831], [-61.704952, 9.36591600000014], [-61.70251899999988, 9.374015], [-61.683192, 9.386617000000172], [-61.681049, 9.393462], [-61.67671, 9.395791], [-61.650979, 9.446494], [-61.653598, 9.456102], [-61.661874999999895, 9.449563], [-61.66985299999982, 9.431786], [-61.67585599999984, 9.429428000000144], [-61.682671, 9.431818], [-61.691874, 9.4267], [-61.706669, 9.412893000000167], [-61.720675999999855, 9.406996], [-61.728669, 9.396734], [-61.737042, 9.376583], [-61.75065599999988, 9.373454000000152], [-61.761452, 9.363989], [-61.765844, 9.356485], [-61.765398, 9.331963000000144], [-61.771789999999896, 9.32327700000019], [-61.781797, 9.319347000000107], [-61.78379, 9.314211], [-61.779773, 9.30747700000012], [-61.784175, 9.305511], [-61.79019199999988, 9.310668], [-61.797799, 9.308709], [-61.79738799999984, 9.30317100000019], [-61.790574, 9.300386000000117], [-61.787763, 9.296424], [-61.809746, 9.271166], [-61.817332, 9.258133000000157], [-61.831746, 9.255005000000153], [-61.83292399999988, 9.242352], [-61.8393319999999, 9.241973000000144], [-61.84331, 9.227349000000174], [-61.848114, 9.226174000000128], [-61.851312, 9.222228000000143], [-61.856899, 9.211168], [-61.856882, 9.20207100000016], [-61.86048199999982, 9.19970700000016], [-61.866063999999824, 9.185878], [-61.86886299999986, 9.183117], [-61.8688719999999, 9.187863000000164], [-61.87968599999988, 9.187494000000186], [-61.888072, 9.173673], [-61.892477, 9.173289000000125], [-61.89447399999989, 9.170525], [-61.89166, 9.164981000000125], [-61.892452, 9.159841000000142], [-61.896056, 9.159454], [-61.90208799999982, 9.172127], [-61.905692, 9.171345], [-61.907287, 9.167789000000141], [-61.911292, 9.167404], [-61.912086, 9.163845000000151], [-61.908061, 9.153157], [-61.924868, 9.144103], [-61.94449499999985, 9.1445480000001], [-61.950098, 9.142189], [-61.962481, 9.124026], [-61.97085899999985, 9.105459], [-61.977257, 9.099937], [-61.982861, 9.098369000000162], [-61.991291, 9.107488], [-62.000904, 9.10790800000018], [-62.00971, 9.104765], [-62.036272, 9.080470000000105], [-62.055463, 9.075634], [-62.060332, 9.067228000000114], [-62.06632635699992, 9.057759261000172], [-62.06047757599998, 9.058757822000075], [-62.060426, 9.058771], [-62.053663, 9.062594], [-62.038697, 9.059367], [-61.879776999999876, 9.159620000000132], [-61.802597999999875, 9.219505]]]}}, {"type": "Feature", "properties": {"parroquia": "Monseñor Argimiro García", "municipio": "Tucupita", "estado": "Delta Amacuro", "pcode": "VE100406", "estado_pcode": "VE10", "municipio_pcode": "VE1004", "center_lat": 9.126875, "center_lon": -61.88845692, "area_sqkm": 178.98012659}, "geometry": {"type": "Polygon", "coordinates": [[[-61.929062, 9.040152], [-61.863339, 9.096094], [-61.833342, 9.15435], [-61.808369, 9.180241000000137], [-61.78242, 9.213019], [-61.78242, 9.218114], [-61.78590799999989, 9.22252200000014], [-61.802597999999875, 9.219505], [-61.879776999999876, 9.159620000000132], [-62.038697, 9.059367], [-62.051643, 9.054813], [-62.060426, 9.058771], [-62.06047757599998, 9.058757822000075], [-62.05538903699994, 9.039574987000151], [-61.929062, 9.040152]]]}}, {"type": "Feature", "properties": {"parroquia": "Virgen del Valle", "municipio": "Tucupita", "estado": "Delta Amacuro", "pcode": "VE100408", "estado_pcode": "VE10", "municipio_pcode": "VE1004", "center_lat": 9.455081, "center_lon": -62.0361411, "area_sqkm": 2438.18150083}, "geometry": {"type": "Polygon", "coordinates": [[[-62.06156899999985, 9.11182], [-61.876561, 9.299326000000178], [-61.869066, 9.2918820000001], [-61.864668, 9.295825], [-61.86065799999989, 9.294233000000133], [-61.854658, 9.29817300000019], [-61.854266, 9.302918], [-61.859879, 9.305702000000167], [-61.860686, 9.3092630000001], [-61.838074, 9.399763], [-61.807294, 9.447179000000176], [-61.76765799999987, 9.495841], [-61.764285, 9.501664], [-61.759225, 9.53077900000011], [-61.74699699999985, 9.542425], [-61.741937, 9.551991], [-61.741094, 9.560725], [-61.735191, 9.567796000000158], [-61.73392599999988, 9.571955000000173], [-61.73716799999988, 9.58852000000013], [-61.72970899999984, 9.623114], [-61.733083, 9.693405000000155], [-61.74615399999982, 9.704219000000137], [-61.750791999999876, 9.711705000000109], [-61.75416499999989, 9.727927000000136], [-61.7529, 9.739572000000123], [-61.756696, 9.745395], [-61.77103199999988, 9.75704], [-61.781995, 9.756624], [-61.791692999999896, 9.752465], [-61.80263499999984, 9.752763000000186], [-61.80688, 9.777239000000122], [-61.822479102999864, 9.795513430000085], [-61.81993940199993, 9.790990469000064], [-61.82253452099991, 9.788944401000037], [-61.82522411799988, 9.79094015600009], [-62.20199846199995, 9.507781811000086], [-62.32772625399997, 9.413012854000158], [-62.06156899999985, 9.11182]]]}}, {"type": "Feature", "properties": {"parroquia": "Curiapo", "municipio": "Antonio Díaz", "estado": "Delta Amacuro", "pcode": "VE100101", "estado_pcode": "VE10", "municipio_pcode": "VE1001", "center_lat": 8.295532, "center_lon": -61.06039624, "area_sqkm": 4707.62972381}, "geometry": {"type": "Polygon", "coordinates": [[[-60.679531339999926, 8.706845136000027], [-60.67203104099991, 8.718463484000154], [-60.66822291899996, 8.733347914000149], [-60.65002416599992, 8.755996620000076], [-60.646376042999975, 8.767823966000037], [-60.65303887499988, 8.769255016000159], [-60.68167480699992, 8.79471755700007], [-60.69215837599995, 8.811581986000022], [-60.698017661999984, 8.815623078999977], [-60.70770937199984, 8.835331209000117], [-60.73491, 8.825887], [-60.74679599999985, 8.81812500000018], [-60.76004499999988, 8.816249], [-60.767636, 8.81257], [-60.777462, 8.800641], [-60.796121, 8.79587400000014], [-60.820637, 8.774817], [-60.83092099999982, 8.754282000000103], [-60.84021799999988, 8.74576100000013], [-60.864317, 8.743810000000167], [-60.889716, 8.73092400000013], [-60.933864, 8.719434000000149], [-60.94175899999988, 8.709987000000126], [-60.957652, 8.701566], [-60.961184, 8.690475], [-60.976766, 8.686881], [-60.981545, 8.678768], [-60.986842, 8.683184], [-60.991413, 8.682260000000156], [-60.990894, 8.669629], [-61.00097, 8.651713], [-60.996711, 8.636616], [-61.001827, 8.631884], [-61.046599, 8.617984000000149], [-61.071218, 8.623838], [-61.0936549999999, 8.623222000000112], [-61.12014399999987, 8.595286], [-61.127935, 8.580291000000159], [-61.137804, 8.56987800000013], [-61.154528, 8.559195000000102], [-61.16740899999985, 8.5594], [-61.181641, 8.564536], [-61.196184, 8.577069], [-61.212285, 8.586314], [-61.221894, 8.585755000000177], [-61.256611, 8.572652000000119], [-61.26536799999985, 8.55644], [-61.268262, 8.539978000000133], [-61.284903, 8.509203000000184], [-61.284903, 8.502046], [-61.279838, 8.497752], [-61.272603, 8.498467], [-61.246557, 8.506341], [-61.221956, 8.495605], [-61.216168, 8.497752], [-61.20893299999989, 8.50848800000017], [-61.203868, 8.50848800000017], [-61.17694, 8.498258], [-61.19231399999984, 8.476681000000156], [-61.20531499999987, 8.473418000000152], [-61.216206, 8.474116], [-61.23767, 8.466533], [-61.252772, 8.44657500000011], [-61.259579, 8.417593], [-61.27405, 8.414730000000134], [-61.288808, 8.393536000000154], [-61.28968263899992, 7.977143492000152], [-61.28876882799989, 7.978782983000144], [-61.24300041699985, 7.903028158000154], [-60.97384732699993, 7.753446216999976], [-60.89932385699984, 7.754878527000187], [-60.838547340999924, 7.837899951000054], [-60.83528474299993, 7.87942506800016], [-60.838687, 7.88836], [-60.847661, 8.204856], [-60.83580399999988, 8.217729], [-60.82002099999988, 8.248189], [-60.823220999999876, 8.26501100000013], [-60.829169, 8.269718000000182], [-60.830368, 8.275586], [-60.829192, 8.281839000000161], [-60.832398999999896, 8.302572], [-60.829245, 8.309993000000134], [-60.835184, 8.309617000000117], [-60.835985, 8.314311], [-60.831251, 8.324074], [-60.822158, 8.332655], [-60.823756, 8.340088], [-60.813875, 8.349838], [-60.804799, 8.36702], [-60.799262, 8.371307000000172], [-60.793714, 8.368947000000105], [-60.790553, 8.372459000000106], [-60.78701, 8.38378900000015], [-60.791375, 8.388883], [-60.790985, 8.39201], [-60.770051, 8.421284], [-60.76134499999989, 8.42439], [-60.758642, 8.430772000000161], [-60.761046, 8.440492], [-60.77043, 8.444054000000108], [-60.78327999999988, 8.457352], [-60.784778999999844, 8.465243], [-60.797058, 8.481943000000115], [-60.811115, 8.482927000000188], [-60.821705, 8.507736000000136], [-60.857021, 8.529219], [-60.874901, 8.548498], [-60.885291, 8.550908000000106], [-60.899401999999895, 8.594634], [-60.892053, 8.603757], [-60.867537999999854, 8.61587800000018], [-60.848424, 8.62121900000011], [-60.82681699999989, 8.621425000000102], [-60.822195, 8.633531], [-60.814404, 8.642568000000153], [-60.802717, 8.646524], [-60.796458, 8.654291], [-60.773631, 8.668438], [-60.762698, 8.679939000000104], [-60.728938, 8.692084000000136], [-60.704604, 8.694779000000153], [-60.693437, 8.70266400000014], [-60.679531339999926, 8.706845136000027]]]}}, {"type": "Feature", "properties": {"parroquia": "Almirante Luis Brión", "municipio": "Antonio Díaz", "estado": "Delta Amacuro", "pcode": "VE100102", "estado_pcode": "VE10", "municipio_pcode": "VE1001", "center_lat": 8.19736043, "center_lon": -61.52483317, "area_sqkm": 3439.58975327}, "geometry": {"type": "Polygon", "coordinates": [[[-61.256611, 8.572652000000119], [-61.267668, 8.571997000000124], [-61.328702, 8.58357], [-61.41405999999989, 8.588593000000174], [-61.437499999999886, 8.587501], [-61.49963899999983, 8.570686], [-61.545071, 8.579855000000123], [-61.567819, 8.587166], [-61.588009, 8.598413000000164], [-61.606711, 8.575714000000175], [-61.69423299999988, 8.441739], [-61.700334532999875, 8.440548261], [-61.70114578599987, 8.434575509000183], [-61.70922214199993, 8.429006317000187], [-61.710402156999976, 8.421202109000149], [-61.70180470899993, 8.409578835000161], [-61.70253571199993, 8.40269463900006], [-61.69748443699996, 8.390469334999977], [-61.699241481999934, 8.38311813000007], [-61.68852395899995, 8.37678601000016], [-61.68252562199996, 8.361472623000111], [-61.68711079299999, 8.350659318999988], [-61.6849606589999, 8.341965092000123], [-61.70121135199997, 8.329565693000177], [-61.70664353599983, 8.31209619700013], [-61.72023710199994, 8.297770761000038], [-61.73397374299992, 8.29719869100012], [-61.76844328599992, 8.28625126300011], [-61.774408570999924, 8.287233260000107], [-61.787763171999984, 8.283109103000186], [-61.7863420889999, 8.27864999400009], [-61.7933513779999, 8.270107734000135], [-61.79047724399993, 8.268985712000188], [-61.79188127099985, 8.260949492000123], [-61.79721149899996, 8.256089347000113], [-61.79471234499988, 8.247054117000175], [-61.788959062999936, 8.244466063000118], [-61.79010106999988, 8.23322277], [-61.77920051999985, 8.220130461000053], [-61.77404223899998, 8.20859617300016], [-61.760376580999946, 8.20469712500011], [-61.76092655799988, 8.191509777000022], [-61.747390871999926, 8.17798047399998], [-61.74314167499989, 8.176755459000162], [-61.738632400999904, 8.161431060000098], [-61.72483569999986, 8.144579672000077], [-61.70767586299996, 8.134518477000086], [-61.70560171799997, 8.122040151000022], [-61.69844231899998, 8.104788721000148], [-61.69925727599991, 8.083804162000149], [-61.692337936999934, 8.078702062000048], [-61.68767068899996, 8.07002784399998], [-61.66112041399998, 8.058894662000057], [-61.65014168399995, 8.0031582310001], [-61.65949099999989, 7.973026405000098], [-61.659709985999825, 7.967042239000023], [-61.654821719999916, 7.958669036000117], [-61.65519963499992, 7.946104627000125], [-61.63879493999991, 7.946077775000049], [-61.63742284299997, 7.939490606999982], [-61.61663182199993, 7.924631293000118], [-61.611953556999936, 7.910847949000129], [-61.60130506399997, 7.911359009000137], [-61.5936496839999, 7.904320848000168], [-61.58429324299988, 7.902895851000096], [-61.57556580199997, 7.891807595000159], [-61.572196603999885, 7.881731339999988], [-61.562329132999935, 7.876957251000135], [-61.558079831999976, 7.851895607000074], [-61.551605521999875, 7.84936656400015], [-61.539694003999955, 7.856649808000043], [-61.53507077799992, 7.852885722], [-61.53389269899998, 7.848374606000164], [-61.51937199599996, 7.841562487999965], [-61.51451173999993, 7.83180624400012], [-61.490288645999954, 7.810479857000075], [-61.46269421099993, 7.798780574000091], [-61.45072171999993, 7.815755065000133], [-61.45387691099995, 7.826123334999977], [-61.471202765999976, 7.839084606000142], [-61.472323834999884, 7.844036724000034], [-61.46129436199993, 7.854803052000022], [-61.44397759399993, 7.864737375000175], [-61.43776043799994, 7.898189287000093], [-61.43382528799998, 7.908180559000016], [-61.42612396299995, 7.916084806000072], [-61.40225491499996, 7.93185530400018], [-61.354097770999886, 7.954762096000138], [-61.32887564899994, 7.965805490000093], [-61.28968263899992, 7.977143492000152], [-61.288808, 8.393536000000154], [-61.27405, 8.414730000000134], [-61.259579, 8.417593], [-61.252772, 8.44657500000011], [-61.23767, 8.466533], [-61.216206, 8.474116], [-61.20531499999987, 8.473418000000152], [-61.19231399999984, 8.476681000000156], [-61.17694, 8.498258], [-61.203868, 8.50848800000017], [-61.20893299999989, 8.50848800000017], [-61.216168, 8.497752], [-61.221956, 8.495605], [-61.246557, 8.506341], [-61.272603, 8.498467], [-61.279838, 8.497752], [-61.284903, 8.502046], [-61.284903, 8.509203000000184], [-61.268262, 8.539978000000133], [-61.26536799999985, 8.55644], [-61.256611, 8.572652000000119]]]}}, {"type": "Feature", "properties": {"parroquia": "Francisco Aniceto Lugo", "municipio": "Antonio Díaz", "estado": "Delta Amacuro", "pcode": "VE100103", "estado_pcode": "VE10", "municipio_pcode": "VE1001", "center_lat": 8.27356038, "center_lon": -60.2967109, "area_sqkm": 7615.42932574}, "geometry": {"type": "Polygon", "coordinates": [[[-60.27254206199996, 7.893621540000026], [-60.26251659899992, 7.896157647], [-60.255786332999946, 7.909457032000034], [-60.25152714699988, 7.913224146000175], [-60.246842921999985, 7.912271137000118], [-60.238362596999934, 7.930389667000156], [-60.23033422399993, 7.93321076899997], [-60.23041625099995, 7.937697887000184], [-60.237153573999876, 7.939355902000159], [-60.23585453399994, 7.944984063000163], [-60.226672108999935, 7.949176209000086], [-60.21757172399998, 7.957856480000032], [-60.20931433599986, 7.960675584000057], [-60.201085953999836, 7.959467587000177], [-60.19850785999995, 7.967847825000092], [-60.18699829199994, 7.961553698000046], [-60.17982900199996, 7.971858003000079], [-60.17019755599995, 7.974780112000133], [-60.16265419299992, 7.973692116], [-60.15479987199984, 7.98376041400013], [-60.13149584699988, 8.00329302700004], [-60.11484514999995, 8.027824760000044], [-60.088076913999885, 8.032733989000121], [-60.08270663499991, 8.024321781000026], [-60.05969451399994, 8.016176642000175], [-60.05402625599993, 8.017406698000116], [-60.03126925799995, 8.037189322000074], [-60.008056297999985, 8.071652344000142], [-60.00457425799982, 8.104966263000051], [-59.99644993399994, 8.12104873700008], [-59.9860044749999, 8.130238025000097], [-59.99645002999995, 8.146320429000127], [-59.996450064999976, 8.155510671000059], [-59.987164721999875, 8.178485342000045], [-59.98136147799994, 8.186526586000127], [-59.95234512899998, 8.19112181800017], [-59.9443878429999, 8.213759463000144], [-59.83485875499997, 8.233499427000083], [-59.74110427699992, 8.21984140900014], [-59.74110432099985, 8.231328723000047], [-59.75038984899993, 8.25660138000012], [-59.76083640699994, 8.271534756000051], [-59.797977264999986, 8.301402441000164], [-59.84022134299994, 8.320533807000174], [-59.85123989999988, 8.331491068000048], [-59.85521812099995, 8.339528268000151], [-59.883533572999966, 8.368928969000137], [-59.89589623299986, 8.38858547000018], [-59.92992697599993, 8.426263372000165], [-59.95612435399994, 8.461928268], [-59.97886651899995, 8.483614772000067], [-60.00168570999983, 8.512723493000067], [-60.02211273499995, 8.530390895000096], [-60.035391440999945, 8.55045540400016], [-60.03399039999994, 8.55425652000008], [-60.044175891999885, 8.558887599000172], [-60.0429168629999, 8.565583792999973], [-60.04758909999987, 8.569782891000159], [-60.057770586999936, 8.572319928000184], [-60.05777459299998, 8.574413982000067], [-60.048025146999976, 8.576483075000112], [-60.05184533199997, 8.57858612400014], [-60.059902714999964, 8.579025096000066], [-60.06286684099996, 8.576520018000053], [-60.07008420199992, 8.58156213300009], [-60.082385797999905, 8.583687144000123], [-60.101461678999954, 8.58038497400014], [-60.13624233999997, 8.585496973000033], [-60.160423493999986, 8.591420043000028], [-60.16806888799994, 8.59813819600015], [-60.18672876399995, 8.599441167000066], [-60.196916269999974, 8.604910271000108], [-60.21515414299995, 8.607468265000023], [-60.24231345599998, 8.618841477000103], [-60.264368513999955, 8.621409460000052], [-60.33181773299992, 8.635814582000023], [-60.34878354199992, 8.638369589000092], [-60.38312313799992, 8.633850328000051], [-60.39202555499986, 8.632617253000035], [-60.41108038699997, 8.618428789000063], [-60.410632310999915, 8.605448432000173], [-60.417827625999905, 8.598348203000057], [-60.419089662999966, 8.592908049000073], [-60.42713400799994, 8.586229827000125], [-60.41269829399988, 8.576144604000092], [-60.39317834599996, 8.56855847300011], [-60.39612343999988, 8.5564241350001], [-60.410556142999894, 8.564834299000154], [-60.44107154799997, 8.55611793900016], [-60.44488370899995, 8.55403386300003], [-60.44528066899994, 8.539380468000047], [-60.456268104999936, 8.519310865000136], [-60.47302387399992, 8.514930672000162], [-60.48511949899995, 8.528175998000052], [-60.49485491199994, 8.51898870700012], [-60.513540856999896, 8.534109041000079], [-60.522451284999875, 8.53706309100005], [-60.54577638999996, 8.538796047000119], [-60.59311538299994, 8.549458991000051], [-60.58934271899989, 8.609439810000026], [-60.5806563189999, 8.61341196100011], [-60.581029384999965, 8.623105218000035], [-60.58767570299989, 8.626088285000037], [-60.596240148999925, 8.637065550000159], [-60.629176765999944, 8.654872908000016], [-60.66824015199995, 8.66881713100014], [-60.680729388999964, 8.704367062000188], [-60.679531339999926, 8.706845136000027], [-60.693437, 8.70266400000014], [-60.704604, 8.694779000000153], [-60.728938, 8.692084000000136], [-60.762698, 8.679939000000104], [-60.773631, 8.668438], [-60.796458, 8.654291], [-60.802717, 8.646524], [-60.814404, 8.642568000000153], [-60.822195, 8.633531], [-60.82681699999989, 8.621425000000102], [-60.848424, 8.62121900000011], [-60.867537999999854, 8.61587800000018], [-60.892053, 8.603757], [-60.899401999999895, 8.594634], [-60.885291, 8.550908000000106], [-60.874901, 8.548498], [-60.857021, 8.529219], [-60.821705, 8.507736000000136], [-60.811115, 8.482927000000188], [-60.797058, 8.481943000000115], [-60.784778999999844, 8.465243], [-60.78327999999988, 8.457352], [-60.77043, 8.444054000000108], [-60.761046, 8.440492], [-60.758642, 8.430772000000161], [-60.76134499999989, 8.42439], [-60.770051, 8.421284], [-60.790985, 8.39201], [-60.791375, 8.388883], [-60.78701, 8.38378900000015], [-60.790553, 8.372459000000106], [-60.793714, 8.368947000000105], [-60.799262, 8.371307000000172], [-60.804799, 8.36702], [-60.813875, 8.349838], [-60.823756, 8.340088], [-60.822158, 8.332655], [-60.831251, 8.324074], [-60.835985, 8.314311], [-60.835184, 8.309617000000117], [-60.829245, 8.309993000000134], [-60.832398999999896, 8.302572], [-60.829192, 8.281839000000161], [-60.830368, 8.275586], [-60.829169, 8.269718000000182], [-60.823220999999876, 8.26501100000013], [-60.82002099999988, 8.248189], [-60.83580399999988, 8.217729], [-60.847661, 8.204856], [-60.838687, 7.88836], [-60.83528474299993, 7.87942506800016], [-60.66731234899993, 7.838454605000152], [-60.32259535899993, 7.880959025000152], [-60.27254206199996, 7.893621540000026]]]}}, {"type": "Feature", "properties": {"parroquia": "Manuel Renaud", "municipio": "Antonio Díaz", "estado": "Delta Amacuro", "pcode": "VE100104", "estado_pcode": "VE10", "municipio_pcode": "VE1001", "center_lat": 9.1495765, "center_lon": -61.05548161, "area_sqkm": 2061.99947315}, "geometry": {"type": "Polygon", "coordinates": [[[-60.9686364829999, 9.484601346000147], [-60.977945, 9.479463], [-60.982132, 9.472558], [-60.987899, 9.444952000000114], [-60.99860599999988, 9.42059300000011], [-61.011786, 9.412474000000145], [-61.01508, 9.40679], [-61.010961, 9.398671], [-61.017551, 9.360510000000147], [-61.015079, 9.351578], [-61.023317, 9.333716], [-61.038966, 9.328032000000178], [-61.07191399999988, 9.310169], [-61.100742, 9.302050000000122], [-61.104861, 9.297178], [-61.107332, 9.28987], [-61.10568399999988, 9.276067], [-61.11145, 9.237906], [-61.11804, 9.222478], [-61.113921, 9.181069], [-61.117215, 9.167267], [-61.12380499999989, 9.157524], [-61.128747, 9.152651000000105], [-61.136984, 9.151839000000109], [-61.148516, 9.159959000000129], [-61.171578999999895, 9.170514], [-61.182286, 9.171326], [-61.202878, 9.169702000000143], [-61.221866, 9.161293000000171], [-61.241181, 9.171649000000116], [-61.245195, 9.17680200000018], [-61.258818, 9.178814], [-61.264034, 9.183573000000138], [-61.282466, 9.187179], [-61.289663, 9.18047300000012], [-61.294871, 9.180487], [-61.299284, 9.184453000000133], [-61.314836, 9.147314000000165], [-61.3268139999999, 9.126382], [-61.334014, 9.121259000000123], [-61.341535, 9.059878], [-61.107698, 8.812245000000189], [-61.108048, 8.830382], [-61.102269, 8.868264000000181], [-61.10401999999988, 8.873107000000118], [-61.116802999999834, 8.88608100000016], [-61.116836, 8.890516000000105], [-61.103495, 8.901423], [-61.101919, 8.924774000000127], [-61.091063, 8.952102], [-61.086335, 8.973031], [-61.07933, 8.982891000000109], [-61.06969999999984, 8.989982000000111], [-61.051051, 8.995992000000172], [-61.039581999999825, 8.990809000000127], [-61.02172099999984, 8.994959000000165], [-61.00035799999989, 9.015711000000124], [-60.980570999999884, 9.027816], [-60.944499, 9.073988], [-60.931366, 9.084191], [-60.92576299999985, 9.084883], [-60.909478, 9.079176000000189], [-60.895995, 9.077793000000156], [-60.875508, 9.084537000000182], [-60.862725, 9.101830000000177], [-60.836318, 9.109882], [-60.810247, 9.12935], [-60.787215, 9.165243000000146], [-60.77527, 9.175717], [-60.70936234499993, 9.169111109000028], [-60.739411752999956, 9.19718007900002], [-60.74721372099992, 9.22073121000011], [-60.77002887999993, 9.240192660000105], [-60.762299654999936, 9.27101056600003], [-60.769730041999935, 9.281409830000143], [-60.80138784099995, 9.350029637000091], [-60.83578669099995, 9.40356200400015], [-60.908669381999914, 9.46475942000012], [-60.9314575009999, 9.477259671000127], [-60.949345347999895, 9.477305591000174], [-60.95762968999986, 9.46862030300008], [-60.97478452499996, 9.475499427000159], [-60.97682614999985, 9.478541203000077], [-60.968229236999946, 9.47982158300016], [-60.9686364829999, 9.484601346000147]]]}}, {"type": "Feature", "properties": {"parroquia": "Padre Barral", "municipio": "Antonio Díaz", "estado": "Delta Amacuro", "pcode": "VE100105", "estado_pcode": "VE10", "municipio_pcode": "VE1001", "center_lat": 8.863507, "center_lon": -60.91109594, "area_sqkm": 1865.59054105}, "geometry": {"type": "Polygon", "coordinates": [[[-60.70770937199984, 8.835331209000117], [-60.726794294999934, 8.883262833000117], [-60.761134108999954, 8.931114029000014], [-60.76920764299996, 8.967093992000116], [-60.78328037199992, 8.985549447000096], [-60.712702315999934, 9.041503318000082], [-60.70586500899998, 9.04271438000012], [-60.68167194199992, 9.059731958000043], [-60.67684875099991, 9.066361167000082], [-60.67434865899992, 9.07359139000016], [-60.675197747999846, 9.084964699000125], [-60.67923496499992, 9.0919738770001], [-60.68535436899998, 9.118430593000141], [-60.68117626199995, 9.138474179000127], [-60.69116879199993, 9.152799538000181], [-60.70936234499993, 9.169111109000028], [-60.77527, 9.175717], [-60.787215, 9.165243000000146], [-60.810247, 9.12935], [-60.836318, 9.109882], [-60.862725, 9.101830000000177], [-60.875508, 9.084537000000182], [-60.895995, 9.077793000000156], [-60.909478, 9.079176000000189], [-60.92576299999985, 9.084883], [-60.931366, 9.084191], [-60.944499, 9.073988], [-60.980570999999884, 9.027816], [-61.00035799999989, 9.015711000000124], [-61.02172099999984, 8.994959000000165], [-61.039581999999825, 8.990809000000127], [-61.051051, 8.995992000000172], [-61.06969999999984, 8.989982000000111], [-61.07933, 8.982891000000109], [-61.086335, 8.973031], [-61.091063, 8.952102], [-61.101919, 8.924774000000127], [-61.103495, 8.901423], [-61.116836, 8.890516000000105], [-61.116802999999834, 8.88608100000016], [-61.10401999999988, 8.873107000000118], [-61.102269, 8.868264000000181], [-61.108048, 8.830382], [-61.107698, 8.812245000000189], [-61.139041, 8.791131], [-61.147972, 8.770882000000142], [-61.181382, 8.712765000000104], [-61.186025, 8.69682500000016], [-61.188015, 8.648346000000174], [-61.19288, 8.614062], [-61.212285, 8.586314], [-61.196184, 8.577069], [-61.181641, 8.564536], [-61.16740899999985, 8.5594], [-61.154528, 8.559195000000102], [-61.137804, 8.56987800000013], [-61.127935, 8.580291000000159], [-61.12014399999987, 8.595286], [-61.0936549999999, 8.623222000000112], [-61.071218, 8.623838], [-61.046599, 8.617984000000149], [-61.001827, 8.631884], [-60.996711, 8.636616], [-61.00097, 8.651713], [-60.990894, 8.669629], [-60.991413, 8.682260000000156], [-60.986842, 8.683184], [-60.981545, 8.678768], [-60.976766, 8.686881], [-60.961184, 8.690475], [-60.957652, 8.701566], [-60.94175899999988, 8.709987000000126], [-60.933864, 8.719434000000149], [-60.889716, 8.73092400000013], [-60.864317, 8.743810000000167], [-60.84021799999988, 8.74576100000013], [-60.83092099999982, 8.754282000000103], [-60.820637, 8.774817], [-60.796121, 8.79587400000014], [-60.777462, 8.800641], [-60.767636, 8.81257], [-60.76004499999988, 8.816249], [-60.74679599999985, 8.81812500000018], [-60.73491, 8.825887], [-60.70770937199984, 8.835331209000117]]]}}, {"type": "Feature", "properties": {"parroquia": "Santos de Abelgas", "municipio": "Antonio Díaz", "estado": "Delta Amacuro", "pcode": "VE100106", "estado_pcode": "VE10", "municipio_pcode": "VE1001", "center_lat": 8.8195175, "center_lon": -61.30477817, "area_sqkm": 1821.52435738}, "geometry": {"type": "Polygon", "coordinates": [[[-61.341535, 9.059878], [-61.341535, 9.054322], [-61.421567, 8.946623000000102], [-61.42422299999987, 8.938338000000101], [-61.440175999999894, 8.921364], [-61.437313, 8.909240000000182], [-61.454903, 8.907218], [-61.462266, 8.873673], [-61.465947, 8.866399], [-61.50480899999985, 8.835683], [-61.505627, 8.831642000000159], [-61.497037, 8.829621], [-61.494582, 8.824367], [-61.4954, 8.814668], [-61.501537, 8.803351], [-61.508081, 8.796481], [-61.54367, 8.784356000000116], [-61.55062399999986, 8.779911], [-61.556351, 8.765765], [-61.554306, 8.752832], [-61.555942, 8.743941000000177], [-61.56533499999989, 8.727358000000152], [-61.588493, 8.718142], [-61.607841, 8.702086], [-61.636515, 8.672139], [-61.645445, 8.678197], [-61.654638, 8.674086], [-61.677577, 8.641692000000148], [-61.688828, 8.634161000000177], [-61.696269999999856, 8.633339], [-61.7196459999999, 8.641604000000143], [-61.731246999999826, 8.638942000000156], [-61.728750999999875, 8.633749], [-61.714305, 8.622213000000102], [-61.707283, 8.604532000000177], [-61.666373, 8.600165000000175], [-61.62924, 8.603194000000144], [-61.604501, 8.602350000000115], [-61.588009, 8.598413000000164], [-61.567819, 8.587166], [-61.545071, 8.579855000000123], [-61.49963899999983, 8.570686], [-61.437499999999886, 8.587501], [-61.41405999999989, 8.588593000000174], [-61.328702, 8.58357], [-61.267668, 8.571997000000124], [-61.256611, 8.572652000000119], [-61.221894, 8.585755000000177], [-61.212285, 8.586314], [-61.19288, 8.614062], [-61.188015, 8.648346000000174], [-61.186025, 8.69682500000016], [-61.181382, 8.712765000000104], [-61.147972, 8.770882000000142], [-61.139041, 8.791131], [-61.107698, 8.812245000000189], [-61.341535, 9.059878]]]}}, {"type": "Feature", "properties": {"parroquia": "Imataca", "municipio": "Casacoima", "estado": "Delta Amacuro", "pcode": "VE100201", "estado_pcode": "VE10", "municipio_pcode": "VE1002", "center_lat": 8.38780036, "center_lon": -62.17238483, "area_sqkm": 947.05475774}, "geometry": {"type": "Polygon", "coordinates": [[[-61.85658762199989, 8.402551693000134], [-61.856557, 8.47180400000019], [-62.467342, 8.469417], [-62.40470863799993, 8.324685476000013], [-62.372524283999894, 8.319710677000103], [-62.30957322699987, 8.282035942000107], [-62.24972380499986, 8.299761763000106], [-61.85658762199989, 8.402551693000134]]]}}, {"type": "Feature", "properties": {"parroquia": "Cinco de Julio", "municipio": "Casacoima", "estado": "Delta Amacuro", "pcode": "VE100202", "estado_pcode": "VE10", "municipio_pcode": "VE1002", "center_lat": 8.42396135, "center_lon": -62.55373885, "area_sqkm": 38.36902826}, "geometry": {"type": "Polygon", "coordinates": [[[-62.574923, 8.481802000000187], [-62.582128, 8.463659], [-62.58931183699997, 8.46278255400017], [-62.61160676499992, 8.440991878000034], [-62.55537538099992, 8.41323217400003], [-62.501608306999856, 8.38679887000012], [-62.574923, 8.481802000000187]]]}}, {"type": "Feature", "properties": {"parroquia": "Juan Bautista Arismendi", "municipio": "Casacoima", "estado": "Delta Amacuro", "pcode": "VE100203", "estado_pcode": "VE10", "municipio_pcode": "VE1002", "center_lat": 8.537463, "center_lon": -62.21255429, "area_sqkm": 638.69084599}, "geometry": {"type": "Polygon", "coordinates": [[[-61.856557, 8.47180400000019], [-61.856557, 8.546806000000174], [-61.871512, 8.535729000000117], [-61.90033, 8.528382], [-61.940807, 8.52964500000013], [-61.976598, 8.535966], [-61.993217, 8.532636000000139], [-62.023927, 8.53601], [-62.034733, 8.541635], [-62.036723, 8.568912000000125], [-62.041273, 8.582691000000125], [-62.048950999999875, 8.588878000000136], [-62.087339, 8.59169], [-62.12601199999989, 8.587753000000134], [-62.135111, 8.583535000000154], [-62.147338, 8.567225000000178], [-62.154732, 8.563569], [-62.164684, 8.566100000000176], [-62.18658, 8.579035000000147], [-62.19767, 8.588597000000107], [-62.230165771999964, 8.603974886000117], [-62.2738748939999, 8.59118730300014], [-62.30354519199989, 8.576902793000045], [-62.35429748599995, 8.565706282000122], [-62.39847654799996, 8.541007633000106], [-62.392951, 8.51309700000013], [-62.467342, 8.469417], [-61.856557, 8.47180400000019]]]}}, {"type": "Feature", "properties": {"parroquia": "Manuel Piar", "municipio": "Casacoima", "estado": "Delta Amacuro", "pcode": "VE100204", "estado_pcode": "VE10", "municipio_pcode": "VE1002", "center_lat": 8.42358342, "center_lon": -62.48867176, "area_sqkm": 186.30281328}, "geometry": {"type": "Polygon", "coordinates": [[[-62.467342, 8.469417], [-62.392951, 8.51309700000013], [-62.39847654799996, 8.541007633000106], [-62.46640841399983, 8.512898402000076], [-62.46994059999997, 8.512111281000045], [-62.472347, 8.517862], [-62.493505, 8.521506000000102], [-62.531178, 8.494355], [-62.54624599999988, 8.487967], [-62.574923, 8.481802000000187], [-62.501608306999856, 8.38679887000012], [-62.499633777999975, 8.385533025000143], [-62.40470863799993, 8.324685476000013], [-62.467342, 8.469417]]]}}, {"type": "Feature", "properties": {"parroquia": "Rómulo Gallegos", "municipio": "Casacoima", "estado": "Delta Amacuro", "pcode": "VE100205", "estado_pcode": "VE10", "municipio_pcode": "VE1002", "center_lat": 8.559632, "center_lon": -61.82655091, "area_sqkm": 949.9232677}, "geometry": {"type": "Polygon", "coordinates": [[[-61.707283, 8.604532000000177], [-61.756915999999876, 8.605629], [-61.793029, 8.614625], [-61.805825, 8.614625], [-61.836536, 8.605629], [-61.851323, 8.605067], [-61.863265, 8.609283000000175], [-61.87606199999988, 8.617998], [-61.909616, 8.629805000000147], [-61.932649, 8.634584000000132], [-61.950847, 8.634865000000161], [-61.992648, 8.666631000000166], [-62.0242659999999, 8.661412], [-62.052838, 8.673144], [-62.084127, 8.689608], [-62.115391295999984, 8.72405491700016], [-62.142415332999974, 8.706248963000178], [-62.18118208599998, 8.69864758500006], [-62.20333802799996, 8.681371026000136], [-62.21867762699998, 8.655244260000018], [-62.22890299199992, 8.631225570000083], [-62.23060702199996, 8.618584224000074], [-62.22762484699996, 8.610999038000045], [-62.22215457499988, 8.606052920000081], [-62.230165771999964, 8.603974886000117], [-62.19767, 8.588597000000107], [-62.18658, 8.579035000000147], [-62.164684, 8.566100000000176], [-62.154732, 8.563569], [-62.147338, 8.567225000000178], [-62.135111, 8.583535000000154], [-62.12601199999989, 8.587753000000134], [-62.087339, 8.59169], [-62.048950999999875, 8.588878000000136], [-62.041273, 8.582691000000125], [-62.036723, 8.568912000000125], [-62.034733, 8.541635], [-62.023927, 8.53601], [-61.993217, 8.532636000000139], [-61.976598, 8.535966], [-61.940807, 8.52964500000013], [-61.90033, 8.528382], [-61.871512, 8.535729000000117], [-61.856557, 8.546806000000174], [-61.856557, 8.47180400000019], [-61.85658762199989, 8.402551693000134], [-61.70043478799994, 8.443379747000165], [-61.700334532999875, 8.440548261], [-61.69423299999988, 8.441739], [-61.606711, 8.575714000000175], [-61.588009, 8.598413000000164], [-61.604501, 8.602350000000115], [-61.62924, 8.603194000000144], [-61.666373, 8.600165000000175], [-61.707283, 8.604532000000177]]]}}, {"type": "Feature", "properties": {"parroquia": "Pedernales", "municipio": "Pedernales", "estado": "Delta Amacuro", "pcode": "VE100301", "estado_pcode": "VE10", "municipio_pcode": "VE1003", "center_lat": 9.69190558, "center_lon": -62.26674331, "area_sqkm": 1034.25003986}, "geometry": {"type": "Polygon", "coordinates": [[[-62.22245869699998, 9.995012742000142], [-62.29291831799992, 9.994029940000189], [-62.30077556499998, 9.972309283000072], [-62.30123654999994, 9.96309502300005], [-62.29906639999996, 9.954582787999982], [-62.28252355599989, 9.93823640700009], [-62.2908645039999, 9.934030899000106], [-62.3025703269999, 9.908276457000113], [-62.31037143299994, 9.856781966000142], [-62.31032130099993, 9.829843196000184], [-62.31867763299982, 9.819466871000031], [-62.32058068699996, 9.813090675000069], [-62.319370601999935, 9.805999488000168], [-62.300187616999835, 9.785865005000176], [-62.295624364999924, 9.77687377400008], [-62.29531415899993, 9.738828711], [-62.300210361999916, 9.733971549000103], [-62.30253048799989, 9.738866671000153], [-62.31175586899997, 9.728784345000122], [-62.318989124999916, 9.712828857000147], [-62.324946437999984, 9.720668057000182], [-62.325928455999986, 9.716105920000132], [-62.33911, 9.702773476000118], [-62.351651576999984, 9.700849363000145], [-62.359890917999905, 9.692720103000056], [-62.36021391299994, 9.688808989999984], [-62.35290949499995, 9.673920609000106], [-62.354039522999926, 9.667152408000106], [-62.35057325999992, 9.646643853000114], [-62.35341836199996, 9.640256657000066], [-62.373955218999924, 9.62187704400003], [-62.38690882399993, 9.623038017000056], [-62.389560902999904, 9.615333788000044], [-62.414081911999915, 9.58850092400013], [-62.41445490399997, 9.584176800000137], [-62.41197477999992, 9.581913750000126], [-62.43962186999994, 9.544703588000118], [-62.44416686499994, 9.500397332999967], [-62.44229973499989, 9.491712097000061], [-62.43627043199996, 9.484386923999978], [-62.42839904799996, 9.481168874], [-62.40618702099994, 9.480198947000133], [-62.39831764599995, 9.476855891000127], [-62.39802861699991, 9.474272826000174], [-62.401808794999965, 9.474181800999986], [-62.399009608999904, 9.462572496000178], [-62.40841887599987, 9.427198462000035], [-62.41073491599991, 9.413716084000043], [-62.40893280599994, 9.408080932000132], [-62.373484577999875, 9.390297987], [-62.35927, 9.39408], [-62.354699999999866, 9.39267], [-62.32772625399997, 9.413012854000158], [-62.20199846199995, 9.507781811000086], [-62.21417099999985, 9.518525000000182], [-62.217897, 9.531783], [-62.214244, 9.55736000000013], [-62.21475, 9.580661], [-62.226488, 9.607295], [-62.226138, 9.624474000000134], [-62.222198, 9.634057], [-62.20625, 9.639583], [-62.192868, 9.652309000000173], [-62.16875, 9.701528], [-62.16415099999989, 9.716648], [-62.165376, 9.742522000000179], [-62.176057, 9.800134000000128], [-62.173081, 9.845845], [-62.177804, 9.866577000000177], [-62.189890999999875, 9.89086500000019], [-62.205475, 9.91035600000015], [-62.212655, 9.926571], [-62.2461, 9.960626000000161], [-62.24715, 9.967353], [-62.242917, 9.979028], [-62.232442, 9.990292000000181], [-62.22245869699998, 9.995012742000142]]]}}, {"type": "Feature", "properties": {"parroquia": "Mariscal Antonio José de Sucre", "municipio": "Tucupita", "estado": "Delta Amacuro", "pcode": "VE100405", "estado_pcode": "VE10", "municipio_pcode": "VE1004", "center_lat": 8.97393636, "center_lon": -62.0397532, "area_sqkm": 134.56156862}, "geometry": {"type": "Polygon", "coordinates": [[[-62.0637960549999, 8.912799980000045], [-62.048788999999886, 8.920148000000154], [-62.039345, 8.920148000000154], [-61.929062, 9.040152], [-62.05538903699994, 9.039574987000151], [-62.06491911699993, 9.01496067800008], [-62.089073060999965, 8.977630556000065], [-62.090494091999915, 8.967526269000075], [-62.083957684999916, 8.94619472200003], [-62.06406663999991, 8.917566026000031], [-62.0637960549999, 8.912799980000045]]]}}, {"type": "Feature", "properties": {"parroquia": "San Rafael", "municipio": "Tucupita", "estado": "Delta Amacuro", "pcode": "VE100407", "estado_pcode": "VE10", "municipio_pcode": "VE1004", "center_lat": 9.22837798, "center_lon": -62.23247554, "area_sqkm": 544.03247282}, "geometry": {"type": "Polygon", "coordinates": [[[-62.06156899999985, 9.11182], [-62.32772625399997, 9.413012854000158], [-62.354699999999866, 9.39267], [-62.35927, 9.39408], [-62.373484577999875, 9.390297987], [-62.37170516499998, 9.389519395999969], [-62.349012924999954, 9.382427504000077], [-62.33267210599996, 9.36898221399997], [-62.32310359199994, 9.353861835000089], [-62.32543065699997, 9.345838597000068], [-62.33772917399989, 9.334354229000041], [-62.340976298999976, 9.328200040000013], [-62.33987620099998, 9.317603757000029], [-62.328108560999965, 9.297124244000088], [-62.32164625199994, 9.294351198000129], [-62.32673337499995, 9.270708521000131], [-62.32432518699983, 9.256078128000127], [-62.30932539699995, 9.234864621000042], [-62.30190004699995, 9.231174549000059], [-62.29886487499988, 9.22558140700005], [-62.307190197999944, 9.211549989000105], [-62.301963856999976, 9.190224429000068], [-62.30485195099993, 9.182448198000145], [-62.309336147999886, 9.178967084000078], [-62.321871718999944, 9.177298982000082], [-62.32664571999999, 9.131846705000157], [-62.320674426999915, 9.12794463400013], [-62.300743549999936, 9.135137917000122], [-62.27085616699998, 9.135164056000065], [-62.263066787999946, 9.130933971000104], [-62.26407876899992, 9.117609601000083], [-62.25853148799996, 9.1100634230001], [-62.223736761999874, 9.084349878000182], [-62.22188165799986, 9.080340769000031], [-62.224400680999906, 9.060157207000145], [-62.22214457399991, 9.05903618800005], [-62.19475134399994, 9.065207476000126], [-62.19055515899993, 9.068948602000034], [-62.187833109999985, 9.085180059000038], [-62.166580138999905, 9.088066232000187], [-62.16282800699997, 9.095063437000135], [-62.16325305399994, 9.103233661000047], [-62.16007892499994, 9.106147755000109], [-62.15378563799999, 9.105851772000051], [-62.148947399999884, 9.102524702000096], [-62.146667236999974, 9.090345382000123], [-62.14736416299996, 9.066836733000173], [-62.13348745799988, 9.053279424000152], [-62.12362297599992, 9.048272328999985], [-62.11676466599994, 9.048314363000088], [-62.1134475259999, 9.05310751400009], [-62.111734518999924, 9.06765391600004], [-62.10163509199998, 9.076846215000046], [-62.06632635699992, 9.057759261000172], [-62.060332, 9.067228000000114], [-62.081848, 9.079041000000188], [-62.06156899999985, 9.11182]]]}}]}