{"type": "FeatureCollection", "features": [{"type": "Feature", "properties": {"parroquia": "Altagracia", "municipio": "Libertador", "estado": "Distrito Capital", "pcode": "VE010101", "estado_pcode": "VE01", "municipio_pcode": "VE0101", "center_lat": 10.53201028, "center_lon": -66.91336104, "area_sqkm": 2.9508224}, "geometry": {"type": "Polygon", "coordinates": [[[-66.908232, 10.51012], [-66.912633, 10.513588], [-66.9112875219999, 10.551876940000113], [-66.91604336499995, 10.55265775900017], [-66.916305, 10.513174000000106], [-66.92124299999983, 10.514183], [-66.922268, 10.510492], [-66.908941, 10.506671], [-66.908232, 10.51012]]]}}, {"type": "Feature", "properties": {"parroquia": "Antimano", "municipio": "Libertador", "estado": "Distrito Capital", "pcode": "VE010102", "estado_pcode": "VE01", "municipio_pcode": "VE0101", "center_lat": 10.4683695, "center_lon": -66.9912598, "area_sqkm": 24.84466541}, "geometry": {"type": "Polygon", "coordinates": [[[-66.96361499999989, 10.473216], [-66.967322, 10.478972000000113], [-66.966846, 10.488983000000133], [-66.971362, 10.496989], [-66.976075, 10.49523100000016], [-66.980719, 10.495310000000131], [-66.986898, 10.484483000000125], [-66.992016, 10.481962], [-66.99223, 10.475864000000172], [-66.99596399999984, 10.478499], [-66.99596399999984, 10.474610000000155], [-67.0026299999999, 10.474332], [-66.999019, 10.47127600000016], [-67.008768, 10.469265], [-67.008483, 10.454903000000115], [-67.012012, 10.455029], [-67.01936599999988, 10.461913000000152], [-67.026548, 10.461025], [-67.033638, 10.455887000000189], [-67.047632, 10.45572], [-67.041077, 10.447942], [-67.02949399999989, 10.44678], [-67.02378699999986, 10.443184], [-67.020397, 10.445326000000136], [-67.01187, 10.44380000000018], [-67.000539, 10.446555], [-66.988038, 10.439821000000109], [-66.969955, 10.450455000000147], [-66.968906, 10.45797], [-66.96229, 10.460768], [-66.96216, 10.470106000000158], [-66.973177, 10.46557600000017], [-66.9762219999999, 10.466945000000123], [-66.96361499999989, 10.473216]]]}}, {"type": "Feature", "properties": {"parroquia": "Candelaria", "municipio": "Libertador", "estado": "Distrito Capital", "pcode": "VE010103", "estado_pcode": "VE01", "municipio_pcode": "VE0101", "center_lat": 10.5073545, "center_lon": -66.90575015, "area_sqkm": 1.31842686}, "geometry": {"type": "Polygon", "coordinates": [[[-66.908941, 10.506671], [-66.909973, 10.501374], [-66.909151, 10.499266], [-66.908674, 10.501744], [-66.895987, 10.502042], [-66.89709099999988, 10.504488], [-66.890684, 10.51546], [-66.900207, 10.505219], [-66.90280599999988, 10.505751], [-66.902987, 10.509198], [-66.908232, 10.51012], [-66.908941, 10.506671]]]}}, {"type": "Feature", "properties": {"parroquia": "Caricuao", "municipio": "Libertador", "estado": "Distrito Capital", "pcode": "VE010104", "estado_pcode": "VE01", "municipio_pcode": "VE0101", "center_lat": 10.4252285, "center_lon": -66.98067361, "area_sqkm": 24.00620624}, "geometry": {"type": "Polygon", "coordinates": [[[-66.969955, 10.450455000000147], [-66.988038, 10.439821000000109], [-67.000539, 10.446555], [-67.01187, 10.44380000000018], [-67.020397, 10.445326000000136], [-67.02378699999986, 10.443184], [-67.019264, 10.438669000000175], [-67.01690899999983, 10.426627000000167], [-67.004156, 10.423865], [-66.996993, 10.417804], [-66.990101, 10.41915], [-66.985001, 10.416878], [-66.98128190599988, 10.40075828200014], [-66.95769662999993, 10.41433841100013], [-66.95548156799998, 10.420373581000149], [-66.95080163099993, 10.424173075000112], [-66.95303399999989, 10.42866800000013], [-66.949802, 10.43765500000012], [-66.9517, 10.443638], [-66.961935, 10.444745], [-66.969955, 10.450455000000147]]]}}, {"type": "Feature", "properties": {"parroquia": "Catedral", "municipio": "Libertador", "estado": "Distrito Capital", "pcode": "VE010105", "estado_pcode": "VE01", "municipio_pcode": "VE0101", "center_lat": 10.5060175, "center_lon": -66.91666592, "area_sqkm": 0.84258876}, "geometry": {"type": "Polygon", "coordinates": [[[-66.913674, 10.501567], [-66.909973, 10.501374], [-66.908941, 10.506671], [-66.922268, 10.510492], [-66.9229529999999, 10.511143], [-66.92396, 10.505527], [-66.91795499999989, 10.50378400000011], [-66.913674, 10.501567]]]}}, {"type": "Feature", "properties": {"parroquia": "Coche", "municipio": "Libertador", "estado": "Distrito Capital", "pcode": "VE010106", "estado_pcode": "VE01", "municipio_pcode": "VE0101", "center_lat": 10.4336575, "center_lon": -66.93741391, "area_sqkm": 12.29543577}, "geometry": {"type": "Polygon", "coordinates": [[[-66.90819552399995, 10.408700376000183], [-66.907564, 10.412189000000183], [-66.917353, 10.423459], [-66.929019, 10.42344], [-66.923946, 10.430407000000116], [-66.9235829999999, 10.44612300000017], [-66.91933499999988, 10.452346], [-66.92419699999982, 10.456367000000114], [-66.928315, 10.455026000000146], [-66.934714, 10.458603], [-66.94219699999985, 10.447194000000138], [-66.9517, 10.443638], [-66.949802, 10.43765500000012], [-66.95303399999989, 10.42866800000013], [-66.95080163099993, 10.424173075000112], [-66.94170498099999, 10.422881728000107], [-66.93222651299993, 10.414062544000103], [-66.92338613899994, 10.415262628000107], [-66.90819552399995, 10.408700376000183]]]}}, {"type": "Feature", "properties": {"parroquia": "El Junquito", "municipio": "Libertador", "estado": "Distrito Capital", "pcode": "VE010107", "estado_pcode": "VE01", "municipio_pcode": "VE0101", "center_lat": 10.4946755, "center_lon": -67.02329514, "area_sqkm": 58.73882787}, "geometry": {"type": "Polygon", "coordinates": [[[-66.976075, 10.49523100000016], [-66.982826, 10.498465], [-66.987588, 10.493443000000184], [-66.990246, 10.494813], [-66.989491, 10.499732], [-66.992526, 10.499742], [-66.99211, 10.50237], [-66.998572, 10.50238000000013], [-67.0001299999999, 10.511833000000138], [-66.99429699999985, 10.520166], [-66.992829, 10.527517], [-66.9968899999999, 10.527308000000176], [-66.994352, 10.53004], [-66.9992969999999, 10.531278], [-67.00346499999989, 10.536278], [-67.006242, 10.533778], [-67.020965, 10.531278], [-67.02825900699986, 10.535797533000107], [-67.02770340599989, 10.532715146999976], [-67.03515472599992, 10.532842107000022], [-67.04963032799992, 10.52781488900007], [-67.05304642599998, 10.517991601000176], [-67.06555397399995, 10.51838853900017], [-67.06714301399995, 10.513993413000094], [-67.0562145369999, 10.501976709000076], [-67.0599705269999, 10.484214668000106], [-67.05566531599993, 10.48033558700007], [-67.05856036299986, 10.467400221000048], [-67.07294694299998, 10.460488960000077], [-67.08210636099994, 10.46193994400005], [-67.08832060299994, 10.458378808000077], [-67.09689998399995, 10.458454771000106], [-67.10102578899989, 10.460963807000041], [-67.10669030899999, 10.45701573600013], [-67.09115, 10.453070000000139], [-67.08667, 10.45569], [-67.07076999999987, 10.45449], [-67.06809999999984, 10.45806], [-67.05696, 10.45728000000014], [-67.052461, 10.463559], [-67.047632, 10.45572], [-67.033638, 10.455887000000189], [-67.026548, 10.461025], [-67.01936599999988, 10.461913000000152], [-67.012012, 10.455029], [-67.008483, 10.454903000000115], [-67.008768, 10.469265], [-66.999019, 10.47127600000016], [-67.0026299999999, 10.474332], [-66.99596399999984, 10.474610000000155], [-66.99596399999984, 10.478499], [-66.99223, 10.475864000000172], [-66.992016, 10.481962], [-66.986898, 10.484483000000125], [-66.980719, 10.495310000000131], [-66.976075, 10.49523100000016]]]}}, {"type": "Feature", "properties": {"parroquia": "El Paraíso", "municipio": "Libertador", "estado": "Distrito Capital", "pcode": "VE010108", "estado_pcode": "VE01", "municipio_pcode": "VE0101", "center_lat": 10.485052, "center_lon": -66.94562126, "area_sqkm": 10.3434603}, "geometry": {"type": "Polygon", "coordinates": [[[-66.96361499999989, 10.473216], [-66.948948, 10.482217], [-66.945865, 10.47442], [-66.941514, 10.471551], [-66.933356, 10.472391], [-66.93137599999989, 10.481372], [-66.922043, 10.486642], [-66.91729199999986, 10.486307], [-66.916505, 10.489599000000112], [-66.914371, 10.48926900000015], [-66.91512899999987, 10.493232000000148], [-66.92053799999985, 10.492007], [-66.92752899999982, 10.495935000000145], [-66.940516, 10.488396], [-66.945868, 10.499632000000133], [-66.960012, 10.493148000000133], [-66.96768499999985, 10.498611], [-66.971362, 10.496989], [-66.966846, 10.488983000000133], [-66.967322, 10.478972000000113], [-66.96361499999989, 10.473216]]]}}, {"type": "Feature", "properties": {"parroquia": "El Recreo", "municipio": "Libertador", "estado": "Distrito Capital", "pcode": "VE010109", "estado_pcode": "VE01", "municipio_pcode": "VE0101", "center_lat": 10.51615966, "center_lon": -66.87732569, "area_sqkm": 15.54573253}, "geometry": {"type": "Polygon", "coordinates": [[[-66.8689991839999, 10.487509870000054], [-66.86939326299995, 10.498276158000067], [-66.86134599799988, 10.512581590000082], [-66.87159157799994, 10.53551314300006], [-66.87270869199989, 10.546072414000037], [-66.8798849829999, 10.541589251000062], [-66.89047901299995, 10.545654016000015], [-66.890684, 10.51546], [-66.89709099999988, 10.504488], [-66.895987, 10.502042], [-66.894244, 10.497404000000188], [-66.887782, 10.497361000000183], [-66.884118, 10.491169000000127], [-66.88060989999985, 10.490568125999971], [-66.8689991839999, 10.487509870000054]]]}}, {"type": "Feature", "properties": {"parroquia": "El Valle", "municipio": "Libertador", "estado": "Distrito Capital", "pcode": "VE010110", "estado_pcode": "VE01", "municipio_pcode": "VE0101", "center_lat": 10.44314877, "center_lon": -66.91011781, "area_sqkm": 20.85087021}, "geometry": {"type": "Polygon", "coordinates": [[[-66.89013818399997, 10.464512683], [-66.890528, 10.470467], [-66.900413, 10.478104], [-66.917893, 10.467425], [-66.928972, 10.465825000000166], [-66.934714, 10.458603], [-66.928315, 10.455026000000146], [-66.92419699999982, 10.456367000000114], [-66.91933499999988, 10.452346], [-66.9235829999999, 10.44612300000017], [-66.923946, 10.430407000000116], [-66.929019, 10.42344], [-66.917353, 10.423459], [-66.907564, 10.412189000000183], [-66.90819552399995, 10.408700376000183], [-66.90018208499993, 10.408708593000085], [-66.8957870139999, 10.411991096000122], [-66.89564094899998, 10.419718912000064], [-66.90009118499995, 10.427151087000084], [-66.89637606999997, 10.43562333400007], [-66.89571813399988, 10.451636758000063], [-66.89013818399997, 10.464512683]]]}}, {"type": "Feature", "properties": {"parroquia": "La Pastora", "municipio": "Libertador", "estado": "Distrito Capital", "pcode": "VE010111", "estado_pcode": "VE01", "municipio_pcode": "VE0101", "center_lat": 10.531556, "center_lon": -66.92450243, "area_sqkm": 7.51928825}, "geometry": {"type": "Polygon", "coordinates": [[[-66.922268, 10.510492], [-66.92124299999983, 10.514183], [-66.916305, 10.513174000000106], [-66.91604336499995, 10.55265775900017], [-66.92806298599993, 10.55007574700005], [-66.935222, 10.52762300000012], [-66.931554, 10.513956000000121], [-66.9229529999999, 10.511143], [-66.922268, 10.510492]]]}}, {"type": "Feature", "properties": {"parroquia": "La Vega", "municipio": "Libertador", "estado": "Distrito Capital", "pcode": "VE010112", "estado_pcode": "VE01", "municipio_pcode": "VE0101", "center_lat": 10.462918, "center_lon": -66.9466475, "area_sqkm": 11.45325634}, "geometry": {"type": "Polygon", "coordinates": [[[-66.933356, 10.472391], [-66.941514, 10.471551], [-66.945865, 10.47442], [-66.948948, 10.482217], [-66.96361499999989, 10.473216], [-66.9762219999999, 10.466945000000123], [-66.973177, 10.46557600000017], [-66.96216, 10.470106000000158], [-66.96229, 10.460768], [-66.968906, 10.45797], [-66.969955, 10.450455000000147], [-66.961935, 10.444745], [-66.9517, 10.443638], [-66.94219699999985, 10.447194000000138], [-66.934714, 10.458603], [-66.928972, 10.465825000000166], [-66.933356, 10.472391]]]}}, {"type": "Feature", "properties": {"parroquia": "Macarao", "municipio": "Libertador", "estado": "Distrito Capital", "pcode": "VE010113", "estado_pcode": "VE01", "municipio_pcode": "VE0101", "center_lat": 10.423343, "center_lon": -67.08196419, "area_sqkm": 104.40731635}, "geometry": {"type": "Polygon", "coordinates": [[[-67.047632, 10.45572], [-67.052461, 10.463559], [-67.05696, 10.45728000000014], [-67.06809999999984, 10.45806], [-67.07076999999987, 10.45449], [-67.08667, 10.45569], [-67.09115, 10.453070000000139], [-67.10669030899999, 10.45701573600013], [-67.11320469999998, 10.459766705999982], [-67.12236609799999, 10.45821661399998], [-67.14399199099995, 10.449623254000073], [-67.15072523199996, 10.442117011999983], [-67.16080266399996, 10.439546886000187], [-67.1627857279999, 10.436791800000094], [-67.15898354399991, 10.433471735000126], [-67.15829947199995, 10.425482531000057], [-67.16225061199987, 10.421042398000111], [-67.16337861899996, 10.414126201000158], [-67.15979246499995, 10.413098200000093], [-67.15320318499994, 10.416126312000188], [-67.14169364899993, 10.409119193000095], [-67.13783849399988, 10.411125274000085], [-67.11942165399984, 10.405273222000119], [-67.10639806999995, 10.403890268000112], [-67.09467057299997, 10.406088390999969], [-67.09066539199995, 10.404925382000101], [-67.0797328399999, 10.39300513700016], [-67.07074046199989, 10.394275215999983], [-67.04544930099996, 10.385855147000086], [-67.03180873899993, 10.391673376000028], [-67.02142927699998, 10.389452382000115], [-67.01619073899997, 10.383467357000029], [-66.99885326999998, 10.387412457000153], [-66.99393608999992, 10.393726648999973], [-66.98128190599988, 10.40075828200014], [-66.985001, 10.416878], [-66.990101, 10.41915], [-66.996993, 10.417804], [-67.004156, 10.423865], [-67.01690899999983, 10.426627000000167], [-67.019264, 10.438669000000175], [-67.02378699999986, 10.443184], [-67.02949399999989, 10.44678], [-67.041077, 10.447942], [-67.047632, 10.45572]]]}}, {"type": "Feature", "properties": {"parroquia": "San Agustín", "municipio": "Libertador", "estado": "Distrito Capital", "pcode": "VE010114", "estado_pcode": "VE01", "municipio_pcode": "VE0101", "center_lat": 10.4962395, "center_lon": -66.90472062, "area_sqkm": 1.55371325}, "geometry": {"type": "Polygon", "coordinates": [[[-66.91083, 10.4906620000001], [-66.900561, 10.491676], [-66.89859599999988, 10.496376], [-66.894244, 10.497404000000188], [-66.895987, 10.502042], [-66.908674, 10.501744], [-66.909151, 10.499266], [-66.91083, 10.4906620000001]]]}}, {"type": "Feature", "properties": {"parroquia": "San Bernandino", "municipio": "Libertador", "estado": "Distrito Capital", "pcode": "VE010115", "estado_pcode": "VE01", "municipio_pcode": "VE0101", "center_lat": 10.53176661, "center_lon": -66.89874842, "area_sqkm": 7.61041906}, "geometry": {"type": "Polygon", "coordinates": [[[-66.90321702899996, 10.551301369000043], [-66.90678996299982, 10.551539417000185], [-66.90758199999988, 10.52221500000013], [-66.902987, 10.509198], [-66.90280599999988, 10.505751], [-66.900207, 10.505219], [-66.890684, 10.51546], [-66.89047901299995, 10.545654016000015], [-66.90321702899996, 10.551301369000043]]]}}, {"type": "Feature", "properties": {"parroquia": "San José", "municipio": "Libertador", "estado": "Distrito Capital", "pcode": "VE010116", "estado_pcode": "VE01", "municipio_pcode": "VE0101", "center_lat": 10.53193052, "center_lon": -66.90899264, "area_sqkm": 2.4127559}, "geometry": {"type": "Polygon", "coordinates": [[[-66.902987, 10.509198], [-66.90758199999988, 10.52221500000013], [-66.90678996299982, 10.551539417000185], [-66.9112875219999, 10.551876940000113], [-66.912633, 10.513588], [-66.908232, 10.51012], [-66.902987, 10.509198]]]}}, {"type": "Feature", "properties": {"parroquia": "San Juan", "municipio": "Libertador", "estado": "Distrito Capital", "pcode": "VE010117", "estado_pcode": "VE01", "municipio_pcode": "VE0101", "center_lat": 10.4973285, "center_lon": -66.9317725, "area_sqkm": 3.21184248}, "geometry": {"type": "Polygon", "coordinates": [[[-66.92396, 10.505527], [-66.929945, 10.502498000000116], [-66.943549, 10.502752], [-66.945868, 10.499632000000133], [-66.940516, 10.488396], [-66.92752899999982, 10.495935000000145], [-66.92053799999985, 10.492007], [-66.91795499999989, 10.50378400000011], [-66.92396, 10.505527]]]}}, {"type": "Feature", "properties": {"parroquia": "San Pedro", "municipio": "Libertador", "estado": "Distrito Capital", "pcode": "VE010118", "estado_pcode": "VE01", "municipio_pcode": "VE0101", "center_lat": 10.48110062, "center_lon": -66.89322909, "area_sqkm": 6.55567204}, "geometry": {"type": "Polygon", "coordinates": [[[-66.88060989999985, 10.490568125999971], [-66.884118, 10.491169000000127], [-66.887782, 10.497361000000183], [-66.894244, 10.497404000000188], [-66.89859599999988, 10.496376], [-66.900561, 10.491676], [-66.91083, 10.4906620000001], [-66.91036999999983, 10.486944000000165], [-66.900413, 10.478104], [-66.890528, 10.470467], [-66.89013818399997, 10.464512683], [-66.88096861299994, 10.472081389000095], [-66.88364976499992, 10.477763522000146], [-66.88155369699996, 10.482730665000133], [-66.88332379899998, 10.486494760000085], [-66.88003266699997, 10.487355804000117], [-66.88060989999985, 10.490568125999971]]]}}, {"type": "Feature", "properties": {"parroquia": "Santa Rosalía", "municipio": "Libertador", "estado": "Distrito Capital", "pcode": "VE010119", "estado_pcode": "VE01", "municipio_pcode": "VE0101", "center_lat": 10.483391, "center_lon": -66.91663839, "area_sqkm": 6.21578897}, "geometry": {"type": "Polygon", "coordinates": [[[-66.933356, 10.472391], [-66.928972, 10.465825000000166], [-66.917893, 10.467425], [-66.900413, 10.478104], [-66.91036999999983, 10.486944000000165], [-66.91083, 10.4906620000001], [-66.909151, 10.499266], [-66.909973, 10.501374], [-66.913674, 10.501567], [-66.91512899999987, 10.493232000000148], [-66.914371, 10.48926900000015], [-66.916505, 10.489599000000112], [-66.91729199999986, 10.486307], [-66.922043, 10.486642], [-66.93137599999989, 10.481372], [-66.933356, 10.472391]]]}}, {"type": "Feature", "properties": {"parroquia": "Santa Teresa", "municipio": "Libertador", "estado": "Distrito Capital", "pcode": "VE010120", "estado_pcode": "VE01", "municipio_pcode": "VE0101", "center_lat": 10.496518, "center_lon": -66.91705106, "area_sqkm": 0.66299781}, "geometry": {"type": "Polygon", "coordinates": [[[-66.92053799999985, 10.492007], [-66.91512899999987, 10.493232000000148], [-66.913674, 10.501567], [-66.91795499999989, 10.50378400000011], [-66.92053799999985, 10.492007]]]}}, {"type": "Feature", "properties": {"parroquia": "Sucre", "municipio": "Libertador", "estado": "Distrito Capital", "pcode": "VE010121", "estado_pcode": "VE01", "municipio_pcode": "VE0101", "center_lat": 10.5278695, "center_lon": -66.9656894, "area_sqkm": 50.70001361}, "geometry": {"type": "Polygon", "coordinates": [[[-67.00860859599987, 10.562403111000037], [-67.01744012199998, 10.560734958000126], [-67.02294132499998, 10.553846736000025], [-67.0307521929999, 10.549803014000133], [-67.02825900699986, 10.535797533000107], [-67.020965, 10.531278], [-67.006242, 10.533778], [-67.00346499999989, 10.536278], [-66.9992969999999, 10.531278], [-66.994352, 10.53004], [-66.9968899999999, 10.527308000000176], [-66.992829, 10.527517], [-66.99429699999985, 10.520166], [-67.0001299999999, 10.511833000000138], [-66.998572, 10.50238000000013], [-66.99211, 10.50237], [-66.992526, 10.499742], [-66.989491, 10.499732], [-66.990246, 10.494813], [-66.987588, 10.493443000000184], [-66.982826, 10.498465], [-66.976075, 10.49523100000016], [-66.971362, 10.496989], [-66.96768499999985, 10.498611], [-66.960012, 10.493148000000133], [-66.945868, 10.499632000000133], [-66.947525, 10.502221000000134], [-66.94531499999988, 10.510548], [-66.94077899999985, 10.509692], [-66.938086, 10.505312], [-66.931554, 10.513956000000121], [-66.935222, 10.52762300000012], [-66.92806298599993, 10.55007574700005], [-66.93427941499993, 10.549275140000134], [-66.94409480999991, 10.543218923000097], [-66.95372622799988, 10.543901885000082], [-66.96173161699994, 10.548741159000144], [-66.96842192299988, 10.552032013000087], [-66.98423166099997, 10.55930911500019], [-67.00860859599987, 10.562403111000037]]]}}, {"type": "Feature", "properties": {"parroquia": "23 de Enero", "municipio": "Libertador", "estado": "Distrito Capital", "pcode": "VE010122", "estado_pcode": "VE01", "municipio_pcode": "VE0101", "center_lat": 10.506788, "center_lon": -66.93119152, "area_sqkm": 2.24878105}, "geometry": {"type": "Polygon", "coordinates": [[[-66.945868, 10.499632000000133], [-66.943549, 10.502752], [-66.929945, 10.502498000000116], [-66.92396, 10.505527], [-66.9229529999999, 10.511143], [-66.931554, 10.513956000000121], [-66.938086, 10.505312], [-66.94077899999985, 10.509692], [-66.94531499999988, 10.510548], [-66.947525, 10.502221000000134], [-66.945868, 10.499632000000133]]]}}]}