{"type": "FeatureCollection", "features": [{"type": "Feature", "properties": {"parroquia": "Caraballeda", "municipio": "Vargas", "estado": "La Guaira", "pcode": "VE240101", "estado_pcode": "VE24", "municipio_pcode": "VE2401", "center_lat": 10.5799045, "center_lon": -66.82506624, "area_sqkm": 66.23536386}, "geometry": {"type": "Polygon", "coordinates": [[[-66.80254619899995, 10.611229703], [-66.80547712499998, 10.609840520000091], [-66.81773268799998, 10.612633517000177], [-66.81919973999993, 10.610801459000072], [-66.82388596399989, 10.613748514000122], [-66.83135028999993, 10.613376457000186], [-66.83773257899998, 10.616525503000105], [-66.84144577699993, 10.621617618000187], [-66.84488892799988, 10.62112158399998], [-66.84076172199997, 10.616494491000026], [-66.84504492699989, 10.620508571000187], [-66.84924710699994, 10.619260513000143], [-66.84947712399997, 10.621000560000141], [-66.85750145799994, 10.618279436000023], [-66.86287766099997, 10.612749257000132], [-66.87071410099998, 10.611755049000124], [-66.864818, 10.595808], [-66.8675209999999, 10.58658800000012], [-66.86637184199998, 10.550780800000041], [-66.85145272399996, 10.539149357000156], [-66.84624056999996, 10.538286096000036], [-66.84011522799995, 10.539076414000078], [-66.83542205599997, 10.544766597000091], [-66.82277251899995, 10.548740783000085], [-66.81581621299995, 10.54853580800011], [-66.80826514599988, 10.541277255000182], [-66.79265714299999, 10.540237726000043], [-66.77995921399997, 10.546622423000144], [-66.783489, 10.560487], [-66.782223, 10.578564], [-66.794785, 10.586513000000139], [-66.799587, 10.592526], [-66.80254619899995, 10.611229703]]]}}, {"type": "Feature", "properties": {"parroquia": "Carayaca", "municipio": "Vargas", "estado": "La Guaira", "pcode": "VE240102", "estado_pcode": "VE24", "municipio_pcode": "VE2401", "center_lat": 10.48421986, "center_lon": -67.24610896, "area_sqkm": 472.20398459}, "geometry": {"type": "Polygon", "coordinates": [[[-67.09247501899995, 10.580041361000156], [-67.09996485799996, 10.581539025999973], [-67.11104530599988, 10.574774771000136], [-67.1348673039999, 10.568159451999975], [-67.14200461799999, 10.569547454000087], [-67.14319465699992, 10.565911351000068], [-67.15557917899997, 10.563503205000131], [-67.16078038599989, 10.559707081000056], [-67.1715718619999, 10.560160022000161], [-67.18554944099998, 10.554911804000085], [-67.20760740499998, 10.556634716000133], [-67.21058852999988, 10.555683671000054], [-67.21234858999986, 10.551237541999967], [-67.2178388189999, 10.550533501000075], [-67.23516558199992, 10.552399446000038], [-67.23710368599995, 10.55554252100012], [-67.23950676699991, 10.550607376000073], [-67.24459297199996, 10.549012300000072], [-67.25277134299995, 10.550111272000038], [-67.26216472899989, 10.545852104000062], [-67.2876038409999, 10.547026988000141], [-67.3113268319999, 10.540145671000175], [-67.34211120099997, 10.54405159200013], [-67.34325721599993, 10.53890044100018], [-67.34685940299994, 10.543422539000062], [-67.34968652799989, 10.543113515000073], [-67.37684164899997, 10.534261123000022], [-67.39787455899994, 10.53343697500003], [-67.40044765199997, 10.529766866000045], [-67.40659489199993, 10.524741697000024], [-67.40672486299991, 10.518232522000119], [-67.41286808599983, 10.51189231899997], [-67.40963793499998, 10.510025286000143], [-67.40979292199995, 10.50638319400008], [-67.39881539099991, 10.497234012000149], [-67.39150105899984, 10.49511299600016], [-67.39335007799997, 10.486072756], [-67.38365962799992, 10.481372688000135], [-67.38316553999982, 10.470534398999973], [-67.37709016199994, 10.451923942000178], [-67.37400003499988, 10.451686958000096], [-67.37054584399988, 10.445149802000117], [-67.36400755599982, 10.444130817000087], [-67.36197527099995, 10.412792006000132], [-67.34782557999995, 10.399556736000022], [-67.34770449799993, 10.38760142600006], [-67.33297296699982, 10.405787994999969], [-67.31451419099994, 10.410964233000186], [-67.29271332399992, 10.424380713000062], [-67.28143480699993, 10.42071869199998], [-67.27851469699993, 10.422770756000148], [-67.26111194499998, 10.422956870000064], [-67.2506885059999, 10.426865031999967], [-67.22868045999996, 10.411514754000166], [-67.22024308699997, 10.410398778], [-67.21791601699988, 10.416822953000178], [-67.20949765099994, 10.416280989000086], [-67.21039772799992, 10.422368148000032], [-67.20662955299997, 10.421037136000052], [-67.1627857279999, 10.436791800000094], [-67.16080266399996, 10.439546886000187], [-67.15072523199996, 10.442117011999983], [-67.14399199099995, 10.449623254000073], [-67.12236609799999, 10.45821661399998], [-67.11320469999998, 10.459766705999982], [-67.10669030899999, 10.45701573600013], [-67.10102578899989, 10.460963807000041], [-67.1041699999999, 10.47684], [-67.09971399999989, 10.488856], [-67.09512499999983, 10.489569], [-67.097683, 10.491299], [-67.097308, 10.497737], [-67.07506199999989, 10.501455], [-67.070219, 10.50659700000017], [-67.0562145369999, 10.501976709000076], [-67.06714301399995, 10.513993413000094], [-67.06555397399995, 10.51838853900017], [-67.05304642599998, 10.517991601000176], [-67.04963032799992, 10.52781488900007], [-67.03515472599992, 10.532842107000022], [-67.02770340599989, 10.532715146999976], [-67.02825900699986, 10.535797533000107], [-67.0307521929999, 10.549803014000133], [-67.0371219999999, 10.554915000000165], [-67.044111, 10.55662400000017], [-67.06987, 10.558686], [-67.07738199999983, 10.556457], [-67.089099, 10.54657200000014], [-67.10368, 10.553955000000144], [-67.106816, 10.55785], [-67.105695, 10.565932], [-67.098162, 10.568993], [-67.09247501899995, 10.580041361000156]]]}}, {"type": "Feature", "properties": {"parroquia": "Caruao", "municipio": "Vargas", "estado": "La Guaira", "pcode": "VE240103", "estado_pcode": "VE24", "municipio_pcode": "VE2401", "center_lat": 10.57771028, "center_lon": -66.42380588, "area_sqkm": 229.59941076}, "geometry": {"type": "Polygon", "coordinates": [[[-66.31353051799994, 10.618925644000058], [-66.34917202399998, 10.606612104000135], [-66.36637080799989, 10.610466114000133], [-66.38390964299992, 10.62167631200009], [-66.39178199299994, 10.622146275000148], [-66.41481906799999, 10.631087387000093], [-66.43942511599994, 10.6256880950001], [-66.45135866999993, 10.630036149000148], [-66.45973102399995, 10.62824805200006], [-66.46940546999991, 10.63153108400013], [-66.47732280799988, 10.628740959000083], [-66.49495960599995, 10.632190953000077], [-66.52680799499996, 10.628922672000101], [-66.522774, 10.622475], [-66.524742, 10.61726300000015], [-66.533484, 10.616924000000154], [-66.53602, 10.606663], [-66.5423669999999, 10.605188], [-66.548293, 10.599725000000149], [-66.545147, 10.594194], [-66.529554, 10.591532], [-66.534981, 10.584198], [-66.53625287399996, 10.55284624900014], [-66.50629260599993, 10.54845862400009], [-66.49888425699999, 10.544338548000098], [-66.49600209499988, 10.538835426000048], [-66.47068633699996, 10.532245285000045], [-66.45599334199989, 10.540845703], [-66.44528181099992, 10.529941482000083], [-66.43054817999996, 10.534539690000031], [-66.42613402199987, 10.540987887000028], [-66.4208608049999, 10.542587955000101], [-66.41487754099995, 10.543052003000128], [-66.40260796199993, 10.536116889000084], [-66.39114444599994, 10.535109935000094], [-66.36018611599991, 10.540563255999984], [-66.35163571499999, 10.53629618499997], [-66.3467525509999, 10.525569033000068], [-66.33522893299988, 10.526169014000061], [-66.33021269199998, 10.523159960000157], [-66.31378601299991, 10.531986298000163], [-66.31627118499995, 10.542273559000023], [-66.32189347799988, 10.548499689000039], [-66.31979547199995, 10.563627115999964], [-66.31497027999995, 10.567852262000144], [-66.30966614199991, 10.583945719000099], [-66.30947916199989, 10.588720857000112], [-66.31270133099997, 10.59220592700018], [-66.30982233099996, 10.615222566000057], [-66.31353051799994, 10.618925644000058]]]}}, {"type": "Feature", "properties": {"parroquia": "Catia la Mar", "municipio": "Vargas", "estado": "La Guaira", "pcode": "VE240104", "estado_pcode": "VE24", "municipio_pcode": "VE2401", "center_lat": 10.578645, "center_lon": -67.05331721, "area_sqkm": 40.74114323}, "geometry": {"type": "Polygon", "coordinates": [[[-67.030425, 10.60958079300002], [-67.03657924199996, 10.607574095000075], [-67.03898432199998, 10.602565940000034], [-67.03965036399995, 10.605310013000121], [-67.03889030199991, 10.60146891700009], [-67.05080778399991, 10.59454665900006], [-67.06807150899988, 10.588964403000034], [-67.07379776099992, 10.589629390000084], [-67.07655387199998, 10.586880306000182], [-67.07899899599994, 10.590347381000072], [-67.07795293399988, 10.588370335000093], [-67.08310516199998, 10.588717307000024], [-67.08318814199998, 10.58488421200019], [-67.09247501899995, 10.580041361000156], [-67.098162, 10.568993], [-67.105695, 10.565932], [-67.106816, 10.55785], [-67.10368, 10.553955000000144], [-67.089099, 10.54657200000014], [-67.07738199999983, 10.556457], [-67.06987, 10.558686], [-67.044111, 10.55662400000017], [-67.0371219999999, 10.554915000000165], [-67.0307521929999, 10.549803014000133], [-67.02294132499998, 10.553846736000025], [-67.01744012199998, 10.560734958000126], [-67.00860859599987, 10.562403111000037], [-67.008705, 10.567513000000133], [-67.018202, 10.588401], [-67.015451, 10.590588], [-67.022734, 10.603202], [-67.028989, 10.604907], [-67.030425, 10.60958079300002]]]}}, {"type": "Feature", "properties": {"parroquia": "El Junko", "municipio": "Vargas", "estado": "La Guaira", "pcode": "VE240105", "estado_pcode": "VE24", "municipio_pcode": "VE2401", "center_lat": 10.48238864, "center_lon": -67.07907747, "area_sqkm": 20.92737052}, "geometry": {"type": "Polygon", "coordinates": [[[-67.10102578899989, 10.460963807000041], [-67.09689998399995, 10.458454771000106], [-67.08832060299994, 10.458378808000077], [-67.08210636099994, 10.46193994400005], [-67.07294694299998, 10.460488960000077], [-67.05856036299986, 10.467400221000048], [-67.05566531599993, 10.48033558700007], [-67.0599705269999, 10.484214668000106], [-67.0562145369999, 10.501976709000076], [-67.070219, 10.50659700000017], [-67.07506199999989, 10.501455], [-67.097308, 10.497737], [-67.097683, 10.491299], [-67.09512499999983, 10.489569], [-67.09971399999989, 10.488856], [-67.1041699999999, 10.47684], [-67.10102578899989, 10.460963807000041]]]}}, {"type": "Feature", "properties": {"parroquia": "La Guaira", "municipio": "Vargas", "estado": "La Guaira", "pcode": "VE240106", "estado_pcode": "VE24", "municipio_pcode": "VE2401", "center_lat": 10.5842865, "center_lon": -66.92512897, "area_sqkm": 11.58897699}, "geometry": {"type": "Polygon", "coordinates": [[[-66.91126151299994, 10.60337244800013], [-66.91683899299994, 10.606249765000086], [-66.92707141599988, 10.602296595000041], [-66.93370970499996, 10.603145145000042], [-66.935224, 10.598235000000159], [-66.940177, 10.597573], [-66.93986299999989, 10.586392000000103], [-66.93541299999987, 10.573358], [-66.927216, 10.566425], [-66.908535, 10.562319000000116], [-66.91162899999989, 10.571521000000132], [-66.91306, 10.594773], [-66.91126151299994, 10.60337244800013]]]}}, {"type": "Feature", "properties": {"parroquia": "Macuto", "municipio": "Vargas", "estado": "La Guaira", "pcode": "VE240107", "estado_pcode": "VE24", "municipio_pcode": "VE2401", "center_lat": 10.5773205, "center_lon": -66.88930243, "area_sqkm": 32.05647248}, "geometry": {"type": "Polygon", "coordinates": [[[-66.87071410099998, 10.611755049000124], [-66.87653124599996, 10.609195076000162], [-66.88670871099998, 10.612287101000106], [-66.89413399299991, 10.606574907000152], [-66.90750055699982, 10.60242671800006], [-66.91126151299994, 10.60337244800013], [-66.91306, 10.594773], [-66.91162899999989, 10.571521000000132], [-66.908535, 10.562319000000116], [-66.90321702899996, 10.551301369000043], [-66.89047901299995, 10.545654016000015], [-66.8798849829999, 10.541589251000062], [-66.87270869199989, 10.546072414000037], [-66.86637184199998, 10.550780800000041], [-66.8675209999999, 10.58658800000012], [-66.864818, 10.595808], [-66.87071410099998, 10.611755049000124]]]}}, {"type": "Feature", "properties": {"parroquia": "Maiquetía", "municipio": "Vargas", "estado": "La Guaira", "pcode": "VE240108", "estado_pcode": "VE24", "municipio_pcode": "VE2401", "center_lat": 10.577393, "center_lon": -66.95035379, "area_sqkm": 23.35649088}, "geometry": {"type": "Polygon", "coordinates": [[[-66.93370970499996, 10.603145145000042], [-66.95044647399993, 10.607797608000169], [-66.9452722179999, 10.604202540000074], [-66.93467774499987, 10.602249556000118], [-66.93822090099991, 10.601131497999972], [-66.93626779999988, 10.599410465000119], [-66.94463315799999, 10.598822401000177], [-66.94241508099987, 10.6008774660001], [-66.94581221099992, 10.598945401000037], [-66.94470718199989, 10.602113494000037], [-66.95372458299994, 10.60251245], [-66.95845577999995, 10.599755349000077], [-66.96275948399989, 10.601129859000139], [-66.964711, 10.575322], [-66.96173161699994, 10.548741159000144], [-66.95372622799988, 10.543901885000082], [-66.94409480999991, 10.543218923000097], [-66.93427941499993, 10.549275140000134], [-66.92806298599993, 10.55007574700005], [-66.91604336499995, 10.55265775900017], [-66.9112875219999, 10.551876940000113], [-66.90678996299982, 10.551539417000185], [-66.90321702899996, 10.551301369000043], [-66.908535, 10.562319000000116], [-66.927216, 10.566425], [-66.93541299999987, 10.573358], [-66.93986299999989, 10.586392000000103], [-66.940177, 10.597573], [-66.935224, 10.598235000000159], [-66.93370970499996, 10.603145145000042]]]}}, {"type": "Feature", "properties": {"parroquia": "Naiguata", "municipio": "Vargas", "estado": "La Guaira", "pcode": "VE240109", "estado_pcode": "VE24", "municipio_pcode": "VE2401", "center_lat": 10.5833285, "center_lon": -66.66202338, "area_sqkm": 239.83964705}, "geometry": {"type": "Polygon", "coordinates": [[[-66.52680799499996, 10.628922672000101], [-66.56204952399997, 10.626921407000168], [-66.56924286499998, 10.62961044399998], [-66.6084935639999, 10.625525096000047], [-66.62655936499993, 10.626780023000038], [-66.66694611199989, 10.62174265900012], [-66.68241781299997, 10.62396662700013], [-66.70745289099989, 10.621193406000089], [-66.71761036399994, 10.625048449000133], [-66.71982045599992, 10.624309412000173], [-66.71901839299989, 10.620992331000082], [-66.72489664699998, 10.618847231000018], [-66.73419407799992, 10.623383298000078], [-66.73588514499994, 10.622237261], [-66.73826326299991, 10.625152330999981], [-66.74625561399995, 10.623187223000116], [-66.74843868499994, 10.62079315], [-66.74637761399998, 10.622538213000041], [-66.74480451899996, 10.619770139000025], [-66.74980671399987, 10.615719002000105], [-66.76656146199997, 10.616365926000185], [-66.77071962999997, 10.613531821000038], [-66.80254619899995, 10.611229703], [-66.799587, 10.592526], [-66.794785, 10.586513000000139], [-66.782223, 10.578564], [-66.783489, 10.560487], [-66.77995921399997, 10.546622423000144], [-66.77815129199996, 10.54694465600005], [-66.76580201399992, 10.54719907100008], [-66.75106632299998, 10.541095991000134], [-66.74110791699991, 10.546550195], [-66.72773334099998, 10.547766307000131], [-66.72130904799997, 10.546754321000037], [-66.71279519899997, 10.540939657000138], [-66.67846315999998, 10.545632538000064], [-66.64328057699998, 10.538533554000082], [-66.6328781329999, 10.541849707000154], [-66.60389034499997, 10.538833216000057], [-66.60038573999998, 10.54713703300007], [-66.59168039799994, 10.553913266000052], [-66.5830840399999, 10.55694640400003], [-66.56990641899984, 10.550555309000117], [-66.55137758499984, 10.546774317000086], [-66.54057610799998, 10.547378394000077], [-66.53625287399996, 10.55284624900014], [-66.534981, 10.584198], [-66.529554, 10.591532], [-66.545147, 10.594194], [-66.548293, 10.599725000000149], [-66.5423669999999, 10.605188], [-66.53602, 10.606663], [-66.533484, 10.616924000000154], [-66.524742, 10.61726300000015], [-66.522774, 10.622475], [-66.52680799499996, 10.628922672000101]]]}}, {"type": "Feature", "properties": {"parroquia": "Urimare", "municipio": "Vargas", "estado": "La Guaira", "pcode": "VE240110", "estado_pcode": "VE24", "municipio_pcode": "VE2401", "center_lat": 10.5839595, "center_lon": -66.99816571, "area_sqkm": 26.03871913}, "geometry": {"type": "Polygon", "coordinates": [[[-66.96582470599992, 10.603014784000038], [-66.97155539399989, 10.6074684780001], [-66.97991576399994, 10.607116413000028], [-66.98118782699999, 10.609638474000064], [-66.9823008709999, 10.608126423000101], [-66.98115282999987, 10.610672503999979], [-66.98232587499996, 10.608822449000115], [-66.98355094499993, 10.611627514000133], [-66.98600604399996, 10.610174464000181], [-66.9857940519999, 10.612828528000023], [-66.98918420299992, 10.612580507000018], [-66.9881381649999, 10.614625561000139], [-66.99555046099982, 10.610655414000178], [-66.99996767199997, 10.612689449000186], [-66.99908261399986, 10.610699394999983], [-67.00245875999997, 10.609862355000189], [-67.00102171399988, 10.61227242300015], [-67.0040158299999, 10.610334354000088], [-67.00383484099996, 10.612393414999985], [-67.0119441949999, 10.612831377000191], [-67.01205520699995, 10.613795400000129], [-67.01333325799982, 10.61322037400015], [-67.01479133499993, 10.615437436000093], [-67.01711544299985, 10.615991426000107], [-67.01494034699994, 10.61528442700012], [-67.01488531999996, 10.612813361000121], [-67.01720042799997, 10.613217359000146], [-67.01624840099998, 10.61482141099998], [-67.02304569199998, 10.613809336000031], [-67.030425, 10.60958079300002], [-67.028989, 10.604907], [-67.022734, 10.603202], [-67.015451, 10.590588], [-67.018202, 10.588401], [-67.008705, 10.567513000000133], [-67.00860859599987, 10.562403111000037], [-66.98423166099997, 10.55930911500019], [-66.96842192299988, 10.552032013000087], [-66.97622699999988, 10.564767000000131], [-66.9739019999999, 10.573894], [-66.980612, 10.582214], [-66.9807249999999, 10.587385], [-66.97478, 10.599212000000136], [-66.96582470599992, 10.603014784000038]]]}}, {"type": "Feature", "properties": {"parroquia": "Carlos Soublette", "municipio": "Vargas", "estado": "La Guaira", "pcode": "VE240111", "estado_pcode": "VE24", "municipio_pcode": "VE2401", "center_lat": 10.5759865, "center_lon": -66.97004871, "area_sqkm": 7.49074363}, "geometry": {"type": "Polygon", "coordinates": [[[-66.96275948399989, 10.601129859000139], [-66.96582470599992, 10.603014784000038], [-66.97478, 10.599212000000136], [-66.9807249999999, 10.587385], [-66.980612, 10.582214], [-66.9739019999999, 10.573894], [-66.97622699999988, 10.564767000000131], [-66.96842192299988, 10.552032013000087], [-66.96173161699994, 10.548741159000144], [-66.964711, 10.575322], [-66.96275948399989, 10.601129859000139]]]}}]}