{"type": "FeatureCollection", "features": [{"type": "Feature", "properties": {"parroquia": "Capital Arismendi", "municipio": "Arismendi", "estado": "Nueva Esparta", "pcode": "VE170201", "estado_pcode": "VE17", "municipio_pcode": "VE1702", "center_lat": 11.0300995, "center_lon": -63.85640754, "area_sqkm": 52.22218364}, "geometry": {"type": "Polygon", "coordinates": [[[-63.820354956999836, 11.063594143999978], [-63.853639, 11.061178], [-63.866337, 11.063952], [-63.874617, 11.060617], [-63.884989, 11.061483000000123], [-63.884996999999885, 11.04150900000019], [-63.887442, 11.035724], [-63.895051, 11.030233000000123], [-63.898015, 11.020436], [-63.900925, 11.019104], [-63.900697, 11.011036], [-63.913426, 10.996609], [-63.879322, 10.996733000000177], [-63.870898, 11.00560200000018], [-63.870177999999896, 11.00131000000016], [-63.863912, 10.99644], [-63.857584, 10.999260000000163], [-63.8563, 11.006113], [-63.85021, 11.009199], [-63.84780199999983, 11.016228], [-63.838949, 11.01663200000013], [-63.833592, 11.020978000000184], [-63.814792999999895, 11.03228300000012], [-63.801937203999955, 11.032931545000054], [-63.820354956999836, 11.063594143999978]]]}}, {"type": "Feature", "properties": {"parroquia": "Capital Díaz", "municipio": "Díaz", "estado": "Nueva Esparta", "pcode": "VE170301", "estado_pcode": "VE17", "municipio_pcode": "VE1703", "center_lat": 10.96256418, "center_lon": -63.96616751, "area_sqkm": 89.01694193}, "geometry": {"type": "Polygon", "coordinates": [[[-63.926997, 11.036916000000133], [-63.942039, 11.033388], [-63.953591, 11.038077], [-63.958383, 11.03114], [-63.968236, 11.03065400000014], [-63.978324, 11.023394], [-63.993471, 11.013189000000182], [-63.99452999999983, 11.00839], [-63.993942, 11.00091], [-63.99024599999984, 10.994505], [-63.9890112359999, 10.89439360900019], [-63.97510733699994, 10.900081932000035], [-63.972892226999875, 10.898692904000029], [-63.9794125059999, 10.89565577600007], [-63.96927707099991, 10.899788956000123], [-63.956727488999945, 10.898016976000065], [-63.943482918999905, 10.902377173000104], [-63.9523573269999, 10.904658196000128], [-63.94249092499996, 10.91108543200005], [-63.9473861859999, 10.918476623000117], [-63.95363846999987, 10.918732595000165], [-63.95644562299998, 10.921798666000086], [-63.952995474999966, 10.924103752], [-63.953713549999975, 10.930925943000034], [-63.94716128699997, 10.936788146000083], [-63.94154601899987, 10.935963159000096], [-63.94339999999988, 10.977033000000176], [-63.940539, 10.988052], [-63.931078, 10.994693], [-63.919162, 10.995989], [-63.913426, 10.996609], [-63.900697, 11.011036], [-63.900925, 11.019104], [-63.898015, 11.020436], [-63.913698999999895, 11.025992], [-63.926997, 11.036916000000133]]]}}, {"type": "Feature", "properties": {"parroquia": "Zabala", "municipio": "Díaz", "estado": "Nueva Esparta", "pcode": "VE170302", "estado_pcode": "VE17", "municipio_pcode": "VE1703", "center_lat": 10.9705117, "center_lon": -64.00831702, "area_sqkm": 47.63737968}, "geometry": {"type": "Polygon", "coordinates": [[[-63.9890112359999, 10.89439360900019], [-63.99024599999984, 10.994505], [-63.993942, 11.00091], [-63.99452999999983, 11.00839], [-63.993471, 11.013189000000182], [-63.978324, 11.023394], [-63.99428199999983, 11.031892], [-63.999712, 11.039658000000145], [-64.01550105799993, 11.050428030000035], [-64.0134828709999, 11.035645615000078], [-64.02296320899995, 11.01984511400002], [-64.02199505999988, 11.001084577000029], [-64.03539849099991, 10.98936118000006], [-64.01952399999988, 10.954325000000154], [-63.990933661999975, 10.891146379000077], [-63.9890112359999, 10.89439360900019]]]}}, {"type": "Feature", "properties": {"parroquia": "Capital García", "municipio": "García", "estado": "Nueva Esparta", "pcode": "VE170401", "estado_pcode": "VE17", "municipio_pcode": "VE1704", "center_lat": 10.977862, "center_lon": -63.88150988, "area_sqkm": 21.08903493}, "geometry": {"type": "Polygon", "coordinates": [[[-63.857584, 10.999260000000163], [-63.863912, 10.99644], [-63.870177999999896, 11.00131000000016], [-63.870898, 11.00560200000018], [-63.879322, 10.996733000000177], [-63.913426, 10.996609], [-63.919162, 10.995989], [-63.888394, 10.967282000000182], [-63.901915, 10.95044], [-63.875188, 10.960092], [-63.86783699999984, 10.95957200000015], [-63.85922099999988, 10.964578], [-63.864517, 10.973925], [-63.864639999999895, 10.979576], [-63.85609799999986, 10.984677], [-63.847658, 10.98555], [-63.850198, 10.997605], [-63.857584, 10.999260000000163]]]}}, {"type": "Feature", "properties": {"parroquia": "Francisco Fajardo", "municipio": "García", "estado": "Nueva Esparta", "pcode": "VE170402", "estado_pcode": "VE17", "municipio_pcode": "VE1704", "center_lat": 10.94041575, "center_lon": -63.92111675, "area_sqkm": 48.54534094}, "geometry": {"type": "Polygon", "coordinates": [[[-63.901915, 10.95044], [-63.888394, 10.967282000000182], [-63.919162, 10.995989], [-63.931078, 10.994693], [-63.940539, 10.988052], [-63.94339999999988, 10.977033000000176], [-63.94154601899987, 10.935963159000096], [-63.94090617299997, 10.9275353700001], [-63.936988644999985, 10.927904390000094], [-63.93656061099995, 10.924489304000133], [-63.921295173999965, 10.92470925900011], [-63.92800947199993, 10.917173141999967], [-63.92096313999991, 10.917020032000096], [-63.91995993799998, 10.913934994000101], [-63.91005757199997, 10.918012169000065], [-63.90543302799995, 10.913958100000059], [-63.89996124999993, 10.91306613400019], [-63.907898545999956, 10.909687966999968], [-63.912037735999945, 10.903852739000172], [-63.91683548499998, 10.903216745000123], [-63.926567044999956, 10.9057807800001], [-63.93297572299997, 10.912446985000031], [-63.93591372699996, 10.911591996000084], [-63.94048077299993, 10.907143643000154], [-63.940320766999946, 10.90194518700008], [-63.93561355199989, 10.90208721300013], [-63.932942394999884, 10.895343033000074], [-63.93843863899997, 10.89402496100007], [-63.91391647399996, 10.885855868000135], [-63.90425304099995, 10.887392969000018], [-63.902757949999966, 10.883449864], [-63.89370515599995, 10.884428677000074], [-63.901915, 10.95044]]]}}, {"type": "Feature", "properties": {"parroquia": "Capital Gómez", "municipio": "Gómez", "estado": "Nueva Esparta", "pcode": "VE170501", "estado_pcode": "VE17", "municipio_pcode": "VE1705", "center_lat": 11.0676985, "center_lon": -63.92384754, "area_sqkm": 20.50128223}, "geometry": {"type": "Polygon", "coordinates": [[[-63.88857799999988, 11.068673000000103], [-63.887019, 11.083358000000146], [-63.900302, 11.085324], [-63.903099, 11.095816], [-63.919084, 11.087477], [-63.94447399999984, 11.07239600000014], [-63.955002, 11.073567], [-63.953475, 11.066025], [-63.948692, 11.059586], [-63.943719, 11.053097], [-63.939481999999884, 11.054506000000117], [-63.925743999999895, 11.039614], [-63.915898, 11.060976], [-63.88857799999988, 11.068673000000103]]]}}, {"type": "Feature", "properties": {"parroquia": "Bolívar", "municipio": "Gómez", "estado": "Nueva Esparta", "pcode": "VE170502", "estado_pcode": "VE17", "municipio_pcode": "VE1705", "center_lat": 11.0471635, "center_lon": -63.94232803, "area_sqkm": 4.9789104}, "geometry": {"type": "Polygon", "coordinates": [[[-63.925743999999895, 11.039614], [-63.939481999999884, 11.054506000000117], [-63.943719, 11.053097], [-63.948692, 11.059586], [-63.953591, 11.038077], [-63.942039, 11.033388], [-63.926997, 11.036916000000133], [-63.925743999999895, 11.039614]]]}}, {"type": "Feature", "properties": {"parroquia": "Guevara", "municipio": "Gómez", "estado": "Nueva Esparta", "pcode": "VE170503", "estado_pcode": "VE17", "municipio_pcode": "VE1705", "center_lat": 11.0443475, "center_lon": -63.90447433, "area_sqkm": 16.07817656}, "geometry": {"type": "Polygon", "coordinates": [[[-63.884989, 11.061483000000123], [-63.88857799999988, 11.068673000000103], [-63.915898, 11.060976], [-63.925743999999895, 11.039614], [-63.926997, 11.036916000000133], [-63.913698999999895, 11.025992], [-63.898015, 11.020436], [-63.895051, 11.030233000000123], [-63.887442, 11.035724], [-63.884996999999885, 11.04150900000019], [-63.884989, 11.061483000000123]]]}}, {"type": "Feature", "properties": {"parroquia": "Matasiete", "municipio": "Gómez", "estado": "Nueva Esparta", "pcode": "VE170504", "estado_pcode": "VE17", "municipio_pcode": "VE1705", "center_lat": 11.11356679, "center_lon": -63.91378445, "area_sqkm": 22.63874128}, "geometry": {"type": "Polygon", "coordinates": [[[-63.903099, 11.095816], [-63.884654, 11.110095], [-63.884433, 11.12650500000018], [-63.893482, 11.135122000000138], [-63.91238483599989, 11.140072423], [-63.91245886599995, 11.136634118000188], [-63.92110923699994, 11.13239195], [-63.919992168999954, 11.12974588100019], [-63.92515837299993, 11.124236694000103], [-63.93452380999997, 11.125900678999983], [-63.93252767499996, 11.11872648900004], [-63.94558841699995, 11.116156780000154], [-63.919084, 11.087477], [-63.903099, 11.095816]]]}}, {"type": "Feature", "properties": {"parroquia": "Sucre", "municipio": "Gómez", "estado": "Nueva Esparta", "pcode": "VE170505", "estado_pcode": "VE17", "municipio_pcode": "VE1705", "center_lat": 11.09286021, "center_lon": -63.9459533, "area_sqkm": 17.36807033}, "geometry": {"type": "Polygon", "coordinates": [[[-63.919084, 11.087477], [-63.94558841699995, 11.116156780000154], [-63.94865037699998, 11.111656187], [-63.95585870499997, 11.113320197], [-63.96692919899988, 11.1114810790001], [-63.969319319999954, 11.113839134000045], [-63.96970332299992, 11.110512035000056], [-63.97605901299988, 11.11032567500007], [-63.958876, 11.074402000000191], [-63.955002, 11.073567], [-63.94447399999984, 11.07239600000014], [-63.919084, 11.087477]]]}}, {"type": "Feature", "properties": {"parroquia": "Capital Maneiro", "municipio": "Maneiro", "estado": "Nueva Esparta", "pcode": "VE170601", "estado_pcode": "VE17", "municipio_pcode": "VE1706", "center_lat": 11.00655205, "center_lon": -63.80240956, "area_sqkm": 17.52853804}, "geometry": {"type": "Polygon", "coordinates": [[[-63.801937203999955, 11.032931545000054], [-63.814792999999895, 11.03228300000012], [-63.833592, 11.020978000000184], [-63.833388, 11.014231], [-63.817124, 11.00288600000016], [-63.81161394299994, 10.981576407000091], [-63.80855221399992, 10.97944715900013], [-63.80359599699989, 10.98114323699997], [-63.80115695799998, 10.993874619000167], [-63.798072840999964, 10.9971877320001], [-63.791965571999924, 10.998831820000078], [-63.78919442399996, 10.99514772000009], [-63.78102004599998, 10.993969738000146], [-63.77655086099986, 10.997131849000027], [-63.79983911399984, 11.029550665999977], [-63.79375978099989, 11.01946139800009], [-63.79972506199988, 11.022356457000058], [-63.801937203999955, 11.032931545000054]]]}}, {"type": "Feature", "properties": {"parroquia": "Aguirre", "municipio": "Maneiro", "estado": "Nueva Esparta", "pcode": "VE170602", "estado_pcode": "VE17", "municipio_pcode": "VE1706", "center_lat": 11.0010835, "center_lon": -63.83705575, "area_sqkm": 12.71320115}, "geometry": {"type": "Polygon", "coordinates": [[[-63.833592, 11.020978000000184], [-63.838949, 11.01663200000013], [-63.84780199999983, 11.016228], [-63.85021, 11.009199], [-63.8563, 11.006113], [-63.857584, 10.999260000000163], [-63.850198, 10.997605], [-63.847658, 10.98555], [-63.826372, 10.985658], [-63.81471298099984, 10.981361205000098], [-63.81161394299994, 10.981576407000091], [-63.817124, 11.00288600000016], [-63.833388, 11.014231], [-63.833592, 11.020978000000184]]]}}, {"type": "Feature", "properties": {"parroquia": "Capital Marcano", "municipio": "Marcano", "estado": "Nueva Esparta", "pcode": "VE170701", "estado_pcode": "VE17", "municipio_pcode": "VE1707", "center_lat": 11.08436576, "center_lon": -63.96827808, "area_sqkm": 9.53190936}, "geometry": {"type": "Polygon", "coordinates": [[[-63.97605901299988, 11.11032567500007], [-63.981210811999915, 11.103672768000024], [-63.982239822999986, 11.097611586000141], [-63.980400721999956, 11.094698517000097], [-63.975924517999886, 11.094770548000099], [-63.97887358899982, 11.085778265999977], [-63.973002324999925, 11.08556730000015], [-63.972848284999884, 11.07949612100009], [-63.99375417099992, 11.068612686000108], [-64.00024446299994, 11.06819863100003], [-64.0027825919999, 11.070355678000055], [-64.0064067369999, 11.067503585000054], [-64.01225991899997, 11.067960444000107], [-63.999878, 11.064327], [-63.991579999999885, 11.056701], [-63.971721999999886, 11.066821000000175], [-63.953475, 11.066025], [-63.955002, 11.073567], [-63.958876, 11.074402000000191], [-63.97605901299988, 11.11032567500007]]]}}, {"type": "Feature", "properties": {"parroquia": "Adrian", "municipio": "Marcano", "estado": "Nueva Esparta", "pcode": "VE170702", "estado_pcode": "VE17", "municipio_pcode": "VE1707", "center_lat": 11.04607, "center_lon": -63.9808409, "area_sqkm": 23.23577301}, "geometry": {"type": "Polygon", "coordinates": [[[-63.953475, 11.066025], [-63.971721999999886, 11.066821000000175], [-63.991579999999885, 11.056701], [-63.999878, 11.064327], [-64.01225991899997, 11.067960444000107], [-64.01550105799993, 11.050428030000035], [-63.999712, 11.039658000000145], [-63.99428199999983, 11.031892], [-63.978324, 11.023394], [-63.968236, 11.03065400000014], [-63.958383, 11.03114], [-63.953591, 11.038077], [-63.948692, 11.059586], [-63.953475, 11.066025]]]}}, {"type": "Feature", "properties": {"parroquia": "Capital Mariño", "municipio": "Mariño", "estado": "Nueva Esparta", "pcode": "VE170801", "estado_pcode": "VE17", "municipio_pcode": "VE1708", "center_lat": 10.93418943, "center_lon": -63.89142893, "area_sqkm": 31.88051013}, "geometry": {"type": "Polygon", "coordinates": [[[-63.81471298099984, 10.981361205000098], [-63.826372, 10.985658], [-63.847658, 10.98555], [-63.85609799999986, 10.984677], [-63.864639999999895, 10.979576], [-63.864517, 10.973925], [-63.85922099999988, 10.964578], [-63.86783699999984, 10.95957200000015], [-63.875188, 10.960092], [-63.901915, 10.95044], [-63.89370515599995, 10.884428677000074], [-63.88749029999997, 10.891691186000116], [-63.88850944699993, 10.9076506400001], [-63.88553442199998, 10.927792233000105], [-63.88212231299991, 10.935449471000084], [-63.87039583099988, 10.945286828000178], [-63.86101740499993, 10.94497386400002], [-63.85159801799995, 10.951151099000185], [-63.848123843999986, 10.94989908700012], [-63.84951289599991, 10.947876023000106], [-63.84559375299989, 10.953149191000136], [-63.83520431099993, 10.958364404000065], [-63.828344985999934, 10.955993365999973], [-63.82663589899994, 10.953858322000087], [-63.828449958999954, 10.95154924700006], [-63.824305762999984, 10.950599234000094], [-63.82295768399996, 10.946092118000024], [-63.81695041099994, 10.94749919100019], [-63.81642437099987, 10.944596107000109], [-63.81890863499996, 10.969301805000043], [-63.81785362799991, 10.977059037000117], [-63.81649154799999, 10.974643978000188], [-63.81759861699993, 10.978166068000121], [-63.81471298099984, 10.981361205000098]]]}}, {"type": "Feature", "properties": {"parroquia": "Capital Península de Macanao", "municipio": "Macanao", "estado": "Nueva Esparta", "pcode": "VE170901", "estado_pcode": "VE17", "municipio_pcode": "VE1709", "center_lat": 11.00020881, "center_lon": -64.22163324, "area_sqkm": 155.39289493}, "geometry": {"type": "Polygon", "coordinates": [[[-64.16545865399996, 11.01494015100019], [-64.19174897499994, 11.035695595000107], [-64.20512268199997, 11.052095993000137], [-64.19642035699997, 11.065468427000098], [-64.19402031499993, 11.075202721000096], [-64.19526842199997, 11.083825968000099], [-64.21638338499997, 11.085730897000076], [-64.22569775799997, 11.07746160500011], [-64.24466060299994, 11.073406384000066], [-64.24812772199994, 11.06761619000008], [-64.26385944099985, 11.067874104999987], [-64.26993067799992, 11.062723931], [-64.27736930199995, 11.064093843000023], [-64.27723463699994, 10.944134581000128], [-64.2577964269999, 10.943145564000076], [-64.24237170299989, 10.939358539000011], [-64.23119321099995, 10.941742675000114], [-64.20806711999995, 10.934694607000154], [-64.20435897999994, 10.939827773000104], [-64.19692263999997, 10.939318805000084], [-64.18553818799995, 10.9486641310001], [-64.17963397099999, 10.957396422999977], [-64.1804850499999, 10.964645626], [-64.17325674499995, 10.970226827000033], [-64.17423581299994, 10.973640915999965], [-64.16687350399997, 10.977713074000121], [-64.16545865399996, 11.01494015100019]]]}}, {"type": "Feature", "properties": {"parroquia": "San Francisco", "municipio": "Macanao", "estado": "Nueva Esparta", "pcode": "VE170902", "estado_pcode": "VE17", "municipio_pcode": "VE1709", "center_lat": 11.00845472, "center_lon": -64.32976308, "area_sqkm": 134.94999195}, "geometry": {"type": "Polygon", "coordinates": [[[-64.27736930199995, 11.064093843000023], [-64.29805501099997, 11.071848026999987], [-64.29953704299999, 11.065124825000055], [-64.31219560599993, 11.064660738000157], [-64.31506670399995, 11.058427547000178], [-64.33552461899995, 11.057012385000121], [-64.3435789429999, 11.050451153000097], [-64.34828815299988, 11.049769099000173], [-64.36070573299997, 11.05305312600018], [-64.38306669499997, 11.043498722000152], [-64.38106156099997, 11.036251525000125], [-64.38308562299994, 11.03059235400002], [-64.37727335999989, 11.03093839700017], [-64.3759652679999, 11.025233233000051], [-64.38254344699993, 11.004865615000085], [-64.40496834099997, 10.985773944000073], [-64.40971948099997, 10.972594538000067], [-64.40186813599996, 10.974069629000041], [-64.3924006719999, 10.968591522000168], [-64.37462585299994, 10.965723541000102], [-64.36775951899989, 10.961642466000058], [-64.35597598799995, 10.96239655300019], [-64.33911018599997, 10.95539644900009], [-64.33359395299993, 10.957953557000053], [-64.31596013899997, 10.956775618000052], [-64.29392407399996, 10.944658399000105], [-64.28236455699994, 10.945907505000093], [-64.27723463699994, 10.944134581000128], [-64.27736930199995, 11.064093843000023]]]}}, {"type": "Feature", "properties": {"parroquia": "Los Barales", "municipio": "Tubores", "estado": "Nueva Esparta", "pcode": "VE171002", "estado_pcode": "VE17", "municipio_pcode": "VE1710", "center_lat": 10.90469992, "center_lon": -64.03953934, "area_sqkm": 57.36211634}, "geometry": {"type": "Polygon", "coordinates": [[[-63.990933661999975, 10.891146379000077], [-64.01952399999988, 10.954325000000154], [-64.034934, 10.948514], [-64.08321299999989, 10.90849], [-64.07936089199995, 10.895818938000104], [-64.07418182699996, 10.89792830800019], [-64.06489938199985, 10.892114194000158], [-64.05540486999996, 10.880156911000142], [-64.05420476299997, 10.869338609000124], [-64.06364016199996, 10.865331433000051], [-64.06353013299997, 10.860572301000104], [-64.04382327899992, 10.868150635000063], [-64.05065160299995, 10.869439630000045], [-64.04861852699997, 10.872639733000085], [-64.04128118899985, 10.872072761000027], [-64.0426472449999, 10.87091171700007], [-64.03928109299989, 10.870816731000048], [-64.04131417499991, 10.86865265900002], [-64.03902707099996, 10.869216693000169], [-64.05049355499995, 10.863477459000137], [-64.02609850799996, 10.874311904000137], [-64.01345692199988, 10.872236923000116], [-64.00025635899988, 10.879209196000147], [-63.990933661999975, 10.891146379000077]]]}}, {"type": "Feature", "properties": {"parroquia": "Vicente Fuentes", "municipio": "Villalba", "estado": "Nueva Esparta", "pcode": "VE171102", "estado_pcode": "VE17", "municipio_pcode": "VE1711", "center_lat": 10.76139773, "center_lon": -63.92939461, "area_sqkm": 34.49064739}, "geometry": {"type": "Polygon", "coordinates": [[[-63.96742148199996, 10.763651985000081], [-63.961621940999976, 10.762394060000133], [-63.956861690999915, 10.756870930000048], [-63.95638768699996, 10.760889054000131], [-63.952690520999965, 10.759888047], [-63.946234163999975, 10.749302783000132], [-63.951671394999835, 10.747275688000173], [-63.95161541499982, 10.749797762000128], [-63.9604038089999, 10.748844685000051], [-63.96329195299995, 10.751529743000162], [-63.962326890999975, 10.748930680000171], [-63.936792683999954, 10.740410581000162], [-63.93329648599996, 10.734135412000057], [-63.92239797399998, 10.730099365000171], [-63.898530907999884, 10.734202607000043], [-63.893301749999864, 10.749037066000085], [-63.893622809999954, 10.756824288000075], [-63.900700204999964, 10.768799582999975], [-63.916411041999936, 10.789864107000085], [-63.93420394499998, 10.792075412000031], [-63.96742148199996, 10.763651985000081]]]}}, {"type": "Feature", "properties": {"parroquia": "Capital Tubores", "municipio": "Tubores", "estado": "Nueva Esparta", "pcode": "VE171001", "estado_pcode": "VE17", "municipio_pcode": "VE1710", "center_lat": 10.95506405, "center_lon": -64.08103041, "area_sqkm": 125.35020631}, "geometry": {"type": "MultiPolygon", "coordinates": [[[[-64.03539849099991, 10.98936118000006], [-64.04459299799993, 10.985345991000088], [-64.06534991599989, 10.98240279300012], [-64.09883345599997, 10.985391682000056], [-64.13387010799988, 10.995374768000033], [-64.16545865399996, 11.01494015100019], [-64.16687350399997, 10.977713074000121], [-64.16952159699997, 10.973640943000078], [-64.16820149599988, 10.966854753000064], [-64.17036660999997, 10.968712796999966], [-64.16803947699998, 10.963344649000078], [-64.16575236099993, 10.961788624000064], [-64.16720644499998, 10.964398694000181], [-64.16307228899996, 10.969457858999988], [-64.16505034399995, 10.964730714000098], [-64.15902207499994, 10.96499674800009], [-64.16392426999994, 10.961021607000077], [-64.15873803099998, 10.959836607000113], [-64.15845500599994, 10.957047531000057], [-64.15760897699994, 10.960162627000045], [-64.15327877699991, 10.959047616000078], [-64.1479595269999, 10.956398569000044], [-64.14729947899991, 10.953470487000061], [-64.14367734699988, 10.960721714000044], [-64.14345031599993, 10.956002587000114], [-64.12915160299991, 10.94533535800008], [-64.13467985499989, 10.945491326000024], [-64.13836605599988, 10.95208050500014], [-64.14519838799998, 10.955468557000188], [-64.14672244799993, 10.952707472000043], [-64.14001711299983, 10.947844374000056], [-64.14157419399987, 10.949852414000077], [-64.13912909699997, 10.951735484000096], [-64.13919107299995, 10.94743736200013], [-64.12031311299995, 10.92954096000011], [-64.11767894399992, 10.922369768000067], [-64.1134607869999, 10.926713914000175], [-64.10981760899989, 10.924363872000072], [-64.11048461599995, 10.922350805], [-64.11582185899994, 10.921912764000126], [-64.11169856999993, 10.904535293000151], [-64.10526429099991, 10.906044373000157], [-64.10294920099994, 10.909488482000086], [-64.09253373999996, 10.909838547], [-64.09378276699994, 10.906089433000147], [-64.09132864399999, 10.903299364000134], [-64.1041982139999, 10.90124223700019], [-64.09586584599998, 10.903802353000117], [-64.09554185699983, 10.907095453000068], [-64.09887601899999, 10.908650478000027], [-64.09762494499995, 10.90622642], [-64.10049505899985, 10.903483326000071], [-64.10954546699986, 10.903975280000111], [-64.11074850699993, 10.900545179000062], [-64.10848040999991, 10.901688230000047], [-64.10528623799996, 10.89780112800014], [-64.09942898999992, 10.900114233000124], [-64.09994900499998, 10.89783016500013], [-64.0958038149999, 10.898649212000123], [-64.09644383399996, 10.896017136000125], [-64.09362071299995, 10.898578225000051], [-64.08803744399984, 10.895549160000144], [-64.07936089199995, 10.895818938000104], [-64.08321299999989, 10.90849], [-64.034934, 10.948514], [-64.01952399999988, 10.954325000000154], [-64.03539849099991, 10.98936118000006]]], [[[-64.15369379999999, 10.821433056999979], [-64.16052949199997, 10.835247489000096], [-64.16905251899988, 10.819886855000163], [-64.18982788299996, 10.827256952000027], [-64.20062220199992, 10.827488077000055], [-64.20526121099988, 10.82401091600002], [-64.21567584599995, 10.826100004000068], [-64.2304006309999, 10.813991305000116], [-64.22055777599996, 10.798134075000121], [-64.22103993899998, 10.794004912000162], [-64.21495866799995, 10.796194029000162], [-64.20028575399988, 10.79476104600019], [-64.1951365999999, 10.797662162000051], [-64.18745418499992, 10.79557925500012], [-64.17185271699992, 10.800064410000061], [-64.15619579099996, 10.801264652000043], [-64.15496791099997, 10.8076426450001], [-64.14879561299989, 10.810976870000047], [-64.14555346999998, 10.818176097000162], [-64.15369379999999, 10.821433056999979]]]]}}, {"type": "Feature", "properties": {"parroquia": "Capital Villalba", "municipio": "Villalba", "estado": "Nueva Esparta", "pcode": "VE171101", "estado_pcode": "VE17", "municipio_pcode": "VE1711", "center_lat": 10.78685764, "center_lon": -63.96696268, "area_sqkm": 21.04683014}, "geometry": {"type": "Polygon", "coordinates": [[[-63.93420394499998, 10.792075412000031], [-63.96884947799998, 10.800193109000134], [-63.97774792699994, 10.806594235000034], [-63.99031648699997, 10.805860142000142], [-63.99482672499994, 10.810010244000182], [-63.99965593699994, 10.810718236000127], [-63.9922005279999, 10.796940879000147], [-63.99328951499996, 10.786015558000088], [-63.997850710999955, 10.784252492000064], [-64.00517798999994, 10.775368191000098], [-63.98240888899994, 10.76454200500018], [-63.973300485999914, 10.76577509600014], [-63.96742148199996, 10.763651985000081], [-63.93420394499998, 10.792075412000031]]]}}, {"type": "Feature", "properties": {"parroquia": "Capital Antolín del Campo", "municipio": "Antolín del Campo", "estado": "Nueva Esparta", "pcode": "VE170101", "estado_pcode": "VE17", "municipio_pcode": "VE1701", "center_lat": 11.12015151, "center_lon": -63.86359794, "area_sqkm": 62.21447998}, "geometry": {"type": "Polygon", "coordinates": [[[-63.820354956999836, 11.063594143999978], [-63.84449764399989, 11.115393891], [-63.843840668999974, 11.124223160000042], [-63.84003550699998, 11.126623243000097], [-63.872387161999825, 11.156304927000178], [-63.87723344199998, 11.165558163000185], [-63.87616740799996, 11.168044247000182], [-63.88048162999996, 11.172628354000096], [-63.87904259699991, 11.179678564000085], [-63.889350031999925, 11.173107312000127], [-63.889176009999915, 11.169534214000066], [-63.89174411099992, 11.168705171000113], [-63.889858013999856, 11.165677100000153], [-63.89122903799995, 11.158810894000112], [-63.90551765699996, 11.153663663000088], [-63.906457635999914, 11.143947373000174], [-63.91238483599989, 11.140072423], [-63.893482, 11.135122000000138], [-63.884433, 11.12650500000018], [-63.884654, 11.110095], [-63.903099, 11.095816], [-63.900302, 11.085324], [-63.887019, 11.083358000000146], [-63.88857799999988, 11.068673000000103], [-63.884989, 11.061483000000123], [-63.874617, 11.060617], [-63.866337, 11.063952], [-63.853639, 11.061178], [-63.820354956999836, 11.063594143999978]]]}}]}