{"type": "FeatureCollection", "features": [{"type": "Feature", "properties": {"parroquia": "Arístides Bastidas", "municipio": "Arístides Bastidas", "estado": "Yaracuy", "pcode": "VE220101", "estado_pcode": "VE22", "municipio_pcode": "VE2201", "center_lat": 10.255794, "center_lon": -68.86161871, "area_sqkm": 64.12467442}, "geometry": {"type": "Polygon", "coordinates": [[[-68.79664899999983, 10.181949], [-68.795606, 10.185043], [-68.79188, 10.186089], [-68.791343, 10.193256000000133], [-68.814384, 10.212115], [-68.818216, 10.218720000000133], [-68.820499, 10.236336000000165], [-68.824496, 10.24423000000013], [-68.85575199999988, 10.281218], [-68.864548, 10.280828000000156], [-68.866884, 10.286374], [-68.880143, 10.298142], [-68.885552, 10.319831000000136], [-68.88251, 10.32395], [-68.885483, 10.328404], [-68.893892, 10.321697], [-68.90436099999988, 10.295514], [-68.911334, 10.286700000000167], [-68.906717, 10.27732500000019], [-68.90003699999988, 10.27509], [-68.896002, 10.26673], [-68.89286499999986, 10.267046], [-68.88441599999987, 10.24371200000013], [-68.876818, 10.238725000000102], [-68.867979, 10.226578000000131], [-68.866939, 10.222564], [-68.85265, 10.212354], [-68.8444669999999, 10.211435], [-68.829262, 10.204009], [-68.815278, 10.18860500000011], [-68.803677, 10.186854000000153], [-68.79664899999983, 10.181949]]]}}, {"type": "Feature", "properties": {"parroquia": "Bolívar", "municipio": "Bolívar", "estado": "Yaracuy", "pcode": "VE220201", "estado_pcode": "VE22", "municipio_pcode": "VE2202", "center_lat": 10.46873, "center_lon": -68.89291021, "area_sqkm": 828.67767489}, "geometry": {"type": "Polygon", "coordinates": [[[-68.87378565599994, 10.649584693000065], [-68.87485797299996, 10.649597034000067], [-68.87934007099989, 10.633735603000162], [-68.87720885099998, 10.614425113000095], [-68.88240104199997, 10.609014943999966], [-68.88223298399998, 10.600469729000054], [-68.88620411499994, 10.594090543000164], [-68.89293137599992, 10.590561404000084], [-68.89510241199997, 10.581640166], [-68.90522078699996, 10.571853858000111], [-68.90985790899998, 10.560172519000048], [-68.94540728699997, 10.538851758000135], [-68.95578474899997, 10.540769747000127], [-68.95599878799993, 10.545944878000114], [-68.96206407699987, 10.551268972000116], [-68.98991629099999, 10.554660889], [-69.01386315199994, 10.529397099000107], [-69.02823975599989, 10.528152977000161], [-69.04928559599989, 10.520130643000073], [-69.05636581899995, 10.508216297000104], [-69.04760345699998, 10.509330378000016], [-69.04646339199996, 10.507052323000096], [-69.05007447399998, 10.495275006000043], [-69.05003639299991, 10.481589653000071], [-69.05892873999983, 10.476494476000084], [-69.06496594899994, 10.469614263999972], [-69.06859914999995, 10.458957905000148], [-69.06684995899991, 10.459060985000121], [-69.06519681099991, 10.445653655000172], [-69.06678981599993, 10.436602416000085], [-69.07802419599989, 10.420694937000064], [-69.07888217499993, 10.411641704000033], [-69.07458994899997, 10.403298518000156], [-69.05514310899997, 10.402157612999986], [-69.0503539149999, 10.403231663000042], [-69.04836389399992, 10.414454964000072], [-69.04575879799995, 10.416983041000094], [-69.04168564799988, 10.41950712900001], [-69.03655442599995, 10.418768138000075], [-69.03261420399991, 10.411512984000183], [-69.02929890299998, 10.385423346000152], [-69.02712330499998, 10.302829273000043], [-69.01039550599995, 10.288685011000155], [-69.003864, 10.292475000000138], [-69.005349, 10.303873000000124], [-68.998931, 10.315002000000106], [-68.995082, 10.31672500000019], [-68.99890499999987, 10.31918300000018], [-68.99386399999986, 10.319696], [-68.993935, 10.32463300000012], [-68.990603, 10.327616], [-68.986256, 10.327482], [-68.986903, 10.329990000000123], [-68.95717799999989, 10.325698000000102], [-68.930198, 10.323587], [-68.930743, 10.316073], [-68.918413, 10.303581000000122], [-68.915165, 10.290002000000129], [-68.911334, 10.286700000000167], [-68.90436099999988, 10.295514], [-68.893892, 10.321697], [-68.885483, 10.328404], [-68.864401, 10.35226200000011], [-68.845083, 10.36059200000011], [-68.841009, 10.359501], [-68.827119, 10.363035000000139], [-68.821123, 10.363803], [-68.800311, 10.391559000000143], [-68.79961, 10.403392], [-68.788523, 10.406153], [-68.777766, 10.414961], [-68.775564, 10.416099], [-68.76879799999989, 10.420693], [-68.760834, 10.420158000000129], [-68.7554, 10.423094], [-68.751994, 10.431847], [-68.754104, 10.441787], [-68.74509199999989, 10.449423], [-68.732071, 10.45406400000013], [-68.715945, 10.452513], [-68.718637, 10.465856], [-68.723759, 10.475981000000104], [-68.72259799999983, 10.48679], [-68.718293, 10.490817000000163], [-68.713172, 10.504916], [-68.716822, 10.52137800000014], [-68.720919, 10.528569], [-68.727187, 10.531947000000116], [-68.72526999999985, 10.535921000000144], [-68.7285619999999, 10.534925000000158], [-68.728163, 10.54428600000017], [-68.730412, 10.54405], [-68.732765, 10.549343], [-68.730601, 10.557126000000153], [-68.73464299999989, 10.560234], [-68.730919, 10.565292], [-68.72897299999988, 10.578006], [-68.734542, 10.57874800000019], [-68.74244, 10.573426], [-68.753947, 10.574632000000122], [-68.759042, 10.570052], [-68.787839, 10.575657], [-68.794927, 10.571207], [-68.794851, 10.568248], [-68.810084, 10.565564], [-68.8133, 10.561907000000133], [-68.819822, 10.564112000000137], [-68.82522299999988, 10.562811000000124], [-68.83138, 10.556758], [-68.831091, 10.552699000000132], [-68.841025, 10.565193], [-68.848404, 10.585770000000139], [-68.85270999999983, 10.591515000000129], [-68.87378565599994, 10.649584693000065]]]}}, {"type": "Feature", "properties": {"parroquia": "Bruzual", "municipio": "Bruzual", "estado": "Yaracuy", "pcode": "VE220301", "estado_pcode": "VE22", "municipio_pcode": "VE2203", "center_lat": 10.1467315, "center_lon": -68.83670314, "area_sqkm": 265.08906348}, "geometry": {"type": "Polygon", "coordinates": [[[-68.79664899999983, 10.181949], [-68.803677, 10.186854000000153], [-68.815278, 10.18860500000011], [-68.829262, 10.204009], [-68.8444669999999, 10.211435], [-68.85265, 10.212354], [-68.866939, 10.222564], [-68.867979, 10.226578000000131], [-68.9102319999999, 10.198750000000132], [-68.9324759999999, 10.180981], [-68.96198916699996, 10.165574487000129], [-68.957397, 10.155453000000136], [-68.9565869999999, 10.146293000000185], [-68.953906, 10.144242000000133], [-68.953868, 10.131562], [-68.947819, 10.129462000000103], [-68.944357, 10.124429], [-68.92058, 10.122093000000177], [-68.912917, 10.114206], [-68.90186099999988, 10.11162000000013], [-68.908996, 10.107890000000111], [-68.90968, 10.105268], [-68.9294, 10.100284000000102], [-68.92189899999988, 10.095504], [-68.9255639999999, 10.074695000000133], [-68.896195, 10.090114000000142], [-68.886813, 10.091585000000123], [-68.88490699999988, 10.088332], [-68.87291599999986, 10.087681], [-68.869546, 10.08327400000013], [-68.854321, 10.075506], [-68.849505, 10.069386000000122], [-68.837257, 10.066553], [-68.828579, 10.073982000000115], [-68.81432399999989, 10.075383], [-68.793935, 10.086207000000172], [-68.777351, 10.091829], [-68.775695, 10.096115000000168], [-68.76129499999985, 10.107315000000142], [-68.74884299999985, 10.110853000000134], [-68.748526, 10.11429900000013], [-68.74563399999988, 10.11526700000013], [-68.74988699999989, 10.121263], [-68.743856, 10.124097], [-68.743414, 10.129243], [-68.732472, 10.132881000000168], [-68.7135679999999, 10.149295], [-68.71481399999988, 10.152895], [-68.72685399999989, 10.160182], [-68.734085, 10.16059], [-68.775567, 10.176142], [-68.783346, 10.17548], [-68.788174, 10.180001000000175], [-68.79664899999983, 10.181949]]]}}, {"type": "Feature", "properties": {"parroquia": "Campo Elías", "municipio": "Bruzual", "estado": "Yaracuy", "pcode": "VE220302", "estado_pcode": "VE22", "municipio_pcode": "VE2203", "center_lat": 10.245641, "center_lon": -68.92974545, "area_sqkm": 121.35472381}, "geometry": {"type": "Polygon", "coordinates": [[[-68.867979, 10.226578000000131], [-68.876818, 10.238725000000102], [-68.88441599999987, 10.24371200000013], [-68.89286499999986, 10.267046], [-68.896002, 10.26673], [-68.90003699999988, 10.27509], [-68.906717, 10.27732500000019], [-68.911334, 10.286700000000167], [-68.915165, 10.290002000000129], [-68.918413, 10.303581000000122], [-68.930743, 10.316073], [-68.930198, 10.323587], [-68.95717799999989, 10.325698000000102], [-68.960884, 10.270501], [-68.9745779999999, 10.24589600000013], [-68.975686, 10.235625000000141], [-68.99182499999989, 10.246063000000106], [-69.001243, 10.240459], [-68.995056, 10.236758], [-68.987594, 10.211519], [-68.964385, 10.197068], [-68.95501499999989, 10.186545], [-68.964698, 10.18065300000012], [-68.96198916699996, 10.165574487000129], [-68.9324759999999, 10.180981], [-68.9102319999999, 10.198750000000132], [-68.867979, 10.226578000000131]]]}}, {"type": "Feature", "properties": {"parroquia": "Cocorote", "municipio": "Cocorote", "estado": "Yaracuy", "pcode": "VE220401", "estado_pcode": "VE22", "municipio_pcode": "VE2204", "center_lat": 10.2958905, "center_lon": -68.78378455, "area_sqkm": 86.88822145}, "geometry": {"type": "Polygon", "coordinates": [[[-68.674684, 10.197643], [-68.671913, 10.20039700000018], [-68.671154, 10.209286], [-68.763108, 10.302132000000142], [-68.764603, 10.320809], [-68.7725, 10.331816], [-68.786083, 10.339895], [-68.79961, 10.403392], [-68.800311, 10.391559000000143], [-68.821123, 10.363803], [-68.827119, 10.363035000000139], [-68.826734, 10.327226], [-68.80174804899991, 10.280399627000122], [-68.76470299999983, 10.254656], [-68.710605, 10.236017], [-68.674684, 10.197643]]]}}, {"type": "Feature", "properties": {"parroquia": "Independencia", "municipio": "Independencia", "estado": "Yaracuy", "pcode": "VE220501", "estado_pcode": "VE22", "municipio_pcode": "VE2205", "center_lat": 10.312383, "center_lon": -68.73241902, "area_sqkm": 84.96095605}, "geometry": {"type": "Polygon", "coordinates": [[[-68.671154, 10.209286], [-68.680645, 10.29495], [-68.689726, 10.299612], [-68.699629, 10.311942], [-68.720699, 10.327403000000118], [-68.722561, 10.321517], [-68.727069, 10.321033000000114], [-68.73939, 10.33028800000011], [-68.75150399999984, 10.348605], [-68.76448, 10.34687], [-68.76791899999989, 10.350393], [-68.77633199999985, 10.371633], [-68.777766, 10.414961], [-68.788523, 10.406153], [-68.79961, 10.403392], [-68.786083, 10.339895], [-68.7725, 10.331816], [-68.764603, 10.320809], [-68.763108, 10.302132000000142], [-68.671154, 10.209286]]]}}, {"type": "Feature", "properties": {"parroquia": "José Antonio Páez", "municipio": "José Antonio Páez", "estado": "Yaracuy", "pcode": "VE220601", "estado_pcode": "VE22", "municipio_pcode": "VE2206", "center_lat": 10.074992, "center_lon": -68.97777655, "area_sqkm": 125.96038827}, "geometry": {"type": "Polygon", "coordinates": [[[-68.9294, 10.100284000000102], [-68.932281, 10.09565], [-68.939071, 10.092395], [-68.955879, 10.100312000000145], [-68.977888, 10.088765], [-68.982966, 10.09568], [-68.986336, 10.108461], [-68.99265999999989, 10.113591000000156], [-69.003046, 10.11882], [-69.01717999999983, 10.119805], [-69.014679, 10.123874000000114], [-69.01781299999988, 10.137097000000153], [-69.00506, 10.146923], [-69.012543, 10.15108400000014], [-69.043785, 10.15598100000011], [-69.05783, 10.147695], [-69.067909, 10.144854000000123], [-69.070253, 10.131246], [-69.066282, 10.129896], [-69.06898, 10.12168300000019], [-69.06696299999987, 10.112212000000113], [-69.05524799999984, 10.110010000000159], [-69.038492, 10.095614], [-69.034359, 10.084886], [-69.036325, 10.080386], [-69.034689, 10.075068000000101], [-69.02976399999989, 10.074916], [-69.024215, 10.064029000000119], [-69.020655, 10.047864], [-69.023333, 10.038408000000118], [-69.017296, 10.027569], [-69.019588, 10.023320000000183], [-69.015865, 10.019978], [-69.018972, 10.01683], [-69.013137, 10.000714], [-69.01285482799989, 9.993207431000087], [-68.96363825799989, 10.017097984000145], [-68.961306, 10.021632000000125], [-68.963321, 10.03485], [-68.954013, 10.040533], [-68.948146, 10.048388], [-68.951028, 10.057273000000123], [-68.9255639999999, 10.074695000000133], [-68.92189899999988, 10.095504], [-68.9294, 10.100284000000102]]]}}, {"type": "Feature", "properties": {"parroquia": "La Trinidad", "municipio": "La Trinidad", "estado": "Yaracuy", "pcode": "VE220701", "estado_pcode": "VE22", "municipio_pcode": "VE2207", "center_lat": 10.2347455, "center_lon": -68.74555551, "area_sqkm": 44.60525998}, "geometry": {"type": "Polygon", "coordinates": [[[-68.674684, 10.197643], [-68.710605, 10.236017], [-68.76470299999983, 10.254656], [-68.80174804899991, 10.280399627000122], [-68.802502, 10.24884800000018], [-68.78515999999985, 10.238965], [-68.7796249999999, 10.232619000000113], [-68.762519, 10.228876], [-68.694717, 10.189573], [-68.674684, 10.197643]]]}}, {"type": "Feature", "properties": {"parroquia": "Manuel Monge", "municipio": "Manuel Monge", "estado": "Yaracuy", "pcode": "VE220801", "estado_pcode": "VE22", "municipio_pcode": "VE2208", "center_lat": 10.61329365, "center_lon": -68.74726916, "area_sqkm": 411.14101812}, "geometry": {"type": "Polygon", "coordinates": [[[-68.60988336999992, 10.606766563], [-68.61304051999991, 10.608479594000073], [-68.61129943099985, 10.605482527], [-68.61359252899996, 10.605656522000118], [-68.61563963899994, 10.608862587999965], [-68.62018181199988, 10.60600748100012], [-68.62230695699998, 10.614604692000114], [-68.62675713199985, 10.612597614000094], [-68.62865223299997, 10.61500166400009], [-68.62873321799992, 10.61183658400006], [-68.6517982439999, 10.6186786130001], [-68.61815111099992, 10.774063650000073], [-68.62737415299983, 10.769575685000063], [-68.64021263199999, 10.757672294000088], [-68.65559513599999, 10.73336157000017], [-68.67012968699999, 10.723089210000012], [-68.67936313099995, 10.73098835400009], [-68.68829251199992, 10.730589289000022], [-68.69338869899997, 10.724171093000109], [-68.69892195499995, 10.728786182000135], [-68.7140736049999, 10.729151088000151], [-68.73207835899996, 10.725681891000079], [-68.74292079499992, 10.720861697000032], [-68.76637283199994, 10.727248720000091], [-68.77889937299989, 10.72785366000005], [-68.77806829799988, 10.721955508], [-68.77301606299994, 10.718530445000056], [-68.78076635699995, 10.712396242000125], [-68.78332442199985, 10.705967065000095], [-68.79258680399988, 10.703007925], [-68.79384679099996, 10.69220364], [-68.80437324699989, 10.694515636000176], [-68.80979847499998, 10.693288572000085], [-68.84347764299997, 10.650402249000024], [-68.87378565599994, 10.649584693000065], [-68.85270999999983, 10.591515000000129], [-68.848404, 10.585770000000139], [-68.841025, 10.565193], [-68.831091, 10.552699000000132], [-68.83138, 10.556758], [-68.82522299999988, 10.562811000000124], [-68.819822, 10.564112000000137], [-68.8133, 10.561907000000133], [-68.810084, 10.565564], [-68.794851, 10.568248], [-68.794927, 10.571207], [-68.787839, 10.575657], [-68.759042, 10.570052], [-68.753947, 10.574632000000122], [-68.74244, 10.573426], [-68.734542, 10.57874800000019], [-68.72897299999988, 10.578006], [-68.730919, 10.565292], [-68.73464299999989, 10.560234], [-68.730601, 10.557126000000153], [-68.732765, 10.549343], [-68.730412, 10.54405], [-68.728163, 10.54428600000017], [-68.7285619999999, 10.534925000000158], [-68.72526999999985, 10.535921000000144], [-68.727187, 10.531947000000116], [-68.720919, 10.528569], [-68.716822, 10.52137800000014], [-68.713172, 10.504916], [-68.718293, 10.490817000000163], [-68.72259799999983, 10.48679], [-68.723759, 10.475981000000104], [-68.718637, 10.465856], [-68.715945, 10.452513], [-68.706257, 10.454564000000119], [-68.700075, 10.459644], [-68.707262, 10.482589], [-68.695876, 10.506706000000122], [-68.697218, 10.505372], [-68.696786, 10.521799000000158], [-68.69486299999988, 10.523135], [-68.696496, 10.527398000000119], [-68.684445, 10.532821000000126], [-68.683904, 10.54092], [-68.680481, 10.545907], [-68.67751, 10.544882], [-68.67325099999988, 10.549482], [-68.68207399999983, 10.554781000000105], [-68.681896, 10.558544], [-68.677335, 10.562983000000145], [-68.677135, 10.568145], [-68.681644, 10.572997], [-68.681608, 10.578777], [-68.686395, 10.583307000000104], [-68.68594, 10.588079], [-68.67196599999988, 10.59516], [-68.667327, 10.595585], [-68.663193, 10.592407], [-68.65934299999986, 10.593587000000127], [-68.651421, 10.599342], [-68.63118899999989, 10.596984000000191], [-68.611434, 10.602607], [-68.60988336999992, 10.606766563]]]}}, {"type": "Feature", "properties": {"parroquia": "Nirgua", "municipio": "Nirgua", "estado": "Yaracuy", "pcode": "VE220901", "estado_pcode": "VE22", "municipio_pcode": "VE2209", "center_lat": 10.03415728, "center_lon": -68.6741613, "area_sqkm": 1584.95303832}, "geometry": {"type": "Polygon", "coordinates": [[[-68.480528, 10.228570000000104], [-68.4880399999999, 10.226449000000116], [-68.502384, 10.215949], [-68.51194, 10.215177], [-68.531251, 10.220859000000189], [-68.547586, 10.209101], [-68.555461, 10.207126], [-68.59372, 10.206538], [-68.602696, 10.215136], [-68.607042, 10.229425000000163], [-68.611043, 10.23370800000015], [-68.616664, 10.23367], [-68.623456, 10.233226], [-68.633724, 10.225598], [-68.64830699999987, 10.22633500000012], [-68.65434499999986, 10.219695000000115], [-68.662658, 10.216644000000144], [-68.671154, 10.209286], [-68.671913, 10.20039700000018], [-68.674684, 10.197643], [-68.694717, 10.189573], [-68.698758, 10.186696], [-68.70288, 10.171792], [-68.699097, 10.166896000000122], [-68.702262, 10.156842], [-68.709829, 10.149567], [-68.7135679999999, 10.149295], [-68.732472, 10.132881000000168], [-68.743414, 10.129243], [-68.743856, 10.124097], [-68.74988699999989, 10.121263], [-68.74563399999988, 10.11526700000013], [-68.748526, 10.11429900000013], [-68.74884299999985, 10.110853000000134], [-68.76129499999985, 10.107315000000142], [-68.775695, 10.096115000000168], [-68.777351, 10.091829], [-68.793935, 10.086207000000172], [-68.81432399999989, 10.075383], [-68.828579, 10.073982000000115], [-68.837257, 10.066553], [-68.849505, 10.069386000000122], [-68.854321, 10.075506], [-68.869546, 10.08327400000013], [-68.87291599999986, 10.087681], [-68.88490699999988, 10.088332], [-68.886813, 10.091585000000123], [-68.896195, 10.090114000000142], [-68.9255639999999, 10.074695000000133], [-68.951028, 10.057273000000123], [-68.948146, 10.048388], [-68.954013, 10.040533], [-68.963321, 10.03485], [-68.961306, 10.021632000000125], [-68.96363825799989, 10.017097984000145], [-68.96437583099998, 10.004137159000038], [-68.95986155599996, 9.991264863000083], [-68.9618156009999, 9.984846683000171], [-68.95927842999993, 9.973503423000068], [-68.9616685119999, 9.97046733500008], [-68.95606922799988, 9.962159161999978], [-68.95825926399982, 9.952105896000035], [-68.95652417099996, 9.948861825000108], [-68.9608593449999, 9.94722975500008], [-68.95377897899994, 9.937656568000023], [-68.95417796499999, 9.932640440000114], [-68.96026116999997, 9.92242714400004], [-68.95621096399998, 9.917503043000067], [-68.95653995999993, 9.913199946000077], [-68.94660450599997, 9.908135867], [-68.94978460599992, 9.903511744000127], [-68.94875052599997, 9.895712553000067], [-68.95308768299992, 9.891503420000106], [-68.95609980699993, 9.891757410000139], [-68.95580377599987, 9.887317308000092], [-68.96044194299992, 9.883591190000175], [-68.9733013639999, 9.861139549000143], [-68.97004217599988, 9.853776394000135], [-68.9709581589999, 9.844257155000037], [-68.97415529399996, 9.84264209700018], [-68.96855004499997, 9.841593096000167], [-68.94774121999995, 9.851652463000164], [-68.93706270199988, 9.84104226500017], [-68.92779634499993, 9.847798489000127], [-68.91938000099992, 9.849680580000154], [-68.90593537799992, 9.841083443000173], [-68.87732916299996, 9.842199643000185], [-68.85871632499993, 9.834419556000114], [-68.82744306299992, 9.846942039000169], [-68.80234297699997, 9.843568106000134], [-68.78752044599992, 9.861349630000063], [-68.77151681999999, 9.86950192800009], [-68.76213841499998, 9.869947985000124], [-68.75541212999997, 9.868860002000076], [-68.74122254099996, 9.87155114300009], [-68.72823100499988, 9.87614533400017], [-68.72220877499996, 9.880999487000054], [-68.71412351599997, 9.894281874000114], [-68.72359497899998, 9.904293070000108], [-68.71580986099997, 9.941223025000113], [-68.7099076369999, 9.946195184000032], [-68.69511301899996, 9.94888234400014], [-68.68295353699995, 9.955497581000088], [-68.66560787499998, 9.968512003000114], [-68.66161975599994, 9.976341226000159], [-68.65272835499997, 9.973936212000126], [-68.63688860999997, 9.962595025999974], [-68.63110838099988, 9.966259140000147], [-68.61811585199996, 9.968948288000036], [-68.61259159999992, 9.96679126700019], [-68.60938537099992, 9.952402923000022], [-68.61097039299989, 9.944565720000014], [-68.6047530599999, 9.932424449000052], [-68.5732507319999, 9.93469169399998], [-68.56027915299984, 9.930605667000066], [-68.55462491299988, 9.932129732000135], [-68.54717658099992, 9.930320729000073], [-68.53369804699997, 9.937072981000142], [-68.52879082499993, 9.93481094800012], [-68.52699871199991, 9.92802078800014], [-68.52933476099992, 9.920248585000024], [-68.53716205799998, 9.912760346000141], [-68.53613297999993, 9.907030214000088], [-68.5395270969999, 9.902043064000111], [-68.53857499899993, 9.893437858000084], [-68.54141109999995, 9.889507739000067], [-68.53876354499988, 9.887951527000098], [-68.5294976049999, 9.890961846000039], [-68.53088067499993, 9.893954916000041], [-68.52591547899988, 9.896799011000098], [-68.52114121699992, 9.887358808000158], [-68.5142569329999, 9.888636878000057], [-68.49200151799994, 9.90201958700004], [-68.48656085099992, 9.906067469000106], [-68.48572862599997, 9.91087166799997], [-68.48329272499996, 9.909398569000075], [-68.48060164599997, 9.914250706000132], [-68.47058122599998, 9.915869811999983], [-68.4284395499999, 9.939689650000162], [-68.41920222999994, 9.951777006000043], [-68.41163790399997, 9.952520068000013], [-68.40604170299997, 9.958052236000185], [-68.40505271899991, 9.967355479000162], [-68.39438424299988, 9.965822496000044], [-68.37029735499993, 9.989877249000017], [-68.38239795599998, 10.002852504000089], [-68.38544515199993, 10.014517780000176], [-68.38886631699995, 10.01817285500016], [-68.38211316699994, 10.04176548400011], [-68.37820101599982, 10.043708558000105], [-68.37849705199989, 10.049174696000136], [-68.39120866899998, 10.060549913000102], [-68.39930701099996, 10.059900846000119], [-68.40292838199991, 10.064735787000075], [-68.424368, 10.063471000000106], [-68.4290299999999, 10.066572], [-68.444836, 10.066585], [-68.445445, 10.095406], [-68.457051, 10.091373], [-68.460233, 10.097425], [-68.471795, 10.094959], [-68.4864209999999, 10.105663], [-68.496468, 10.102024], [-68.506383, 10.115300000000161], [-68.50610399999982, 10.121985000000109], [-68.510429, 10.130073], [-68.51924, 10.139013], [-68.51938, 10.145903], [-68.524302, 10.151829000000134], [-68.526287, 10.168427000000122], [-68.5327319999999, 10.171452000000158], [-68.53397199999984, 10.180404000000124], [-68.505233, 10.207225], [-68.49931999999984, 10.207025], [-68.488661, 10.21356], [-68.48158799999987, 10.22298400000011], [-68.480528, 10.228570000000104]]]}}, {"type": "Feature", "properties": {"parroquia": "Salom", "municipio": "Nirgua", "estado": "Yaracuy", "pcode": "VE220902", "estado_pcode": "VE22", "municipio_pcode": "VE2209", "center_lat": 10.147151, "center_lon": -68.46643515, "area_sqkm": 163.75484274}, "geometry": {"type": "Polygon", "coordinates": [[[-68.41110407399998, 10.216331474000185], [-68.428191, 10.206147], [-68.44892899999985, 10.201934000000165], [-68.453405, 10.203837], [-68.44481599999989, 10.214545], [-68.450348, 10.219650000000172], [-68.47492099999988, 10.230058000000156], [-68.479438, 10.228862000000106], [-68.480528, 10.228570000000104], [-68.48158799999987, 10.22298400000011], [-68.488661, 10.21356], [-68.49931999999984, 10.207025], [-68.505233, 10.207225], [-68.53397199999984, 10.180404000000124], [-68.5327319999999, 10.171452000000158], [-68.526287, 10.168427000000122], [-68.524302, 10.151829000000134], [-68.51938, 10.145903], [-68.51924, 10.139013], [-68.510429, 10.130073], [-68.50610399999982, 10.121985000000109], [-68.506383, 10.115300000000161], [-68.496468, 10.102024], [-68.4864209999999, 10.105663], [-68.471795, 10.094959], [-68.460233, 10.097425], [-68.457051, 10.091373], [-68.445445, 10.095406], [-68.444836, 10.066585], [-68.4290299999999, 10.066572], [-68.424368, 10.063471000000106], [-68.40292838199991, 10.064735787000075], [-68.40196421099984, 10.075183213000116], [-68.4058283949999, 10.076622235000173], [-68.40708448899983, 10.084690431000183], [-68.40070825999999, 10.091259625000134], [-68.39712928199998, 10.121273413000154], [-68.40008744499988, 10.127282542000046], [-68.41212702999997, 10.13864777100008], [-68.4134081499999, 10.149084020000032], [-68.42476471599997, 10.162210289000143], [-68.42777992899994, 10.17662864], [-68.41320841099997, 10.195514210000113], [-68.41110407399998, 10.216331474000185]]]}}, {"type": "Feature", "properties": {"parroquia": "Temerla", "municipio": "Nirgua", "estado": "Yaracuy", "pcode": "VE220903", "estado_pcode": "VE22", "municipio_pcode": "VE2209", "center_lat": 10.28352571, "center_lon": -68.42956319, "area_sqkm": 188.21064299}, "geometry": {"type": "Polygon", "coordinates": [[[-68.39885107499998, 10.366383418000055], [-68.412679, 10.361910000000137], [-68.41822999999988, 10.363543], [-68.434914, 10.361811000000102], [-68.447691, 10.356452], [-68.450735, 10.35187400000018], [-68.49049, 10.335479], [-68.49957499999988, 10.325143], [-68.49786899999987, 10.31422300000014], [-68.485184, 10.306475000000148], [-68.485178, 10.296496000000104], [-68.482683, 10.29460900000015], [-68.4906309999999, 10.278987], [-68.486924, 10.258237], [-68.489981, 10.249669], [-68.488908, 10.243847], [-68.479438, 10.228862000000106], [-68.47492099999988, 10.230058000000156], [-68.450348, 10.219650000000172], [-68.44481599999989, 10.214545], [-68.453405, 10.203837], [-68.44892899999985, 10.201934000000165], [-68.428191, 10.206147], [-68.41110407399998, 10.216331474000185], [-68.40281812399996, 10.220703909000065], [-68.37928713299988, 10.225056162000158], [-68.36459142299998, 10.24666931400003], [-68.36227659099984, 10.25564504000016], [-68.35496232799994, 10.264287301000138], [-68.35869749799991, 10.266096325999968], [-68.36274272999992, 10.27530353300017], [-68.36929204899997, 10.280596631000094], [-68.37314136399993, 10.306662280000182], [-68.37913064299988, 10.310656348000066], [-68.39226133799991, 10.332402819000038], [-68.38892624299996, 10.33936202000001], [-68.39350344499985, 10.340628022000146], [-68.39345747199997, 10.345259144000181], [-68.39065236799985, 10.347516221000149], [-68.39885107499998, 10.366383418000055]]]}}, {"type": "Feature", "properties": {"parroquia": "Capital Peña", "municipio": "Peña", "estado": "Yaracuy", "pcode": "VE221001", "estado_pcode": "VE22", "municipio_pcode": "VE2210", "center_lat": 10.052988, "center_lon": -69.10992879, "area_sqkm": 391.88014333}, "geometry": {"type": "Polygon", "coordinates": [[[-69.04848257699996, 10.22848512400003], [-69.0498538359999, 10.231879350000042], [-69.05867422599988, 10.234666367000159], [-69.07043167299997, 10.226223079000022], [-69.07309675399995, 10.220754926000097], [-69.07669690599994, 10.219937882000181], [-69.08234316599993, 10.222928928000044], [-69.07599495799997, 10.233928234000075], [-69.09091859599988, 10.234359165000114], [-69.09950078799989, 10.206509408000045], [-69.11187924899986, 10.195917070000064], [-69.11539236399983, 10.18904288400006], [-69.11402428099996, 10.184827775000088], [-69.12045146399998, 10.170730384000137], [-69.11833032599998, 10.163385218000087], [-69.12295347999998, 10.154846981000162], [-69.12132029299994, 10.137107541000034], [-69.13499740499998, 10.13579918500011], [-69.158307, 10.113028], [-69.157111, 10.097730000000183], [-69.18328799999989, 10.090411000000188], [-69.193301, 10.090368000000183], [-69.199352, 10.086575], [-69.20820958099983, 10.087930645000029], [-69.20822247599995, 10.087881971000115], [-69.19233160299996, 10.03978408800009], [-69.18457237599995, 10.036254663000022], [-69.16164642899992, 10.041340918000117], [-69.15941831299995, 10.03716183500012], [-69.16073033899988, 10.03287871700013], [-69.15246392899991, 10.022471511000049], [-69.15129482099996, 10.012028255000132], [-69.15388187899998, 10.002840008000078], [-69.14995265599987, 9.99520984100019], [-69.15065259899995, 9.979865462000078], [-69.15882994799995, 9.941342317000021], [-69.14921924399994, 9.930671257000142], [-69.14447092599988, 9.91089178700014], [-69.12869018399982, 9.897675562000074], [-69.12875810799994, 9.885393254000064], [-69.12458463499996, 9.879942750000112], [-69.08861431499992, 9.86973609800009], [-69.08588171199989, 9.95770529400005], [-69.01285482799989, 9.993207431000087], [-69.013137, 10.000714], [-69.018972, 10.01683], [-69.015865, 10.019978], [-69.019588, 10.023320000000183], [-69.017296, 10.027569], [-69.023333, 10.038408000000118], [-69.020655, 10.047864], [-69.024215, 10.064029000000119], [-69.02976399999989, 10.074916], [-69.034689, 10.075068000000101], [-69.036325, 10.080386], [-69.034359, 10.084886], [-69.038492, 10.095614], [-69.05524799999984, 10.110010000000159], [-69.06696299999987, 10.112212000000113], [-69.06898, 10.12168300000019], [-69.066282, 10.129896], [-69.070253, 10.131246], [-69.074567, 10.135806], [-69.074651, 10.154723000000104], [-69.079062, 10.158021000000133], [-69.0798329999999, 10.164793], [-69.060871, 10.186609000000146], [-69.058281, 10.199103], [-69.050073, 10.207196000000181], [-69.04848257699996, 10.22848512400003]]]}}, {"type": "Feature", "properties": {"parroquia": "Capital San Felipe", "municipio": "San Felipe", "estado": "Yaracuy", "pcode": "VE221101", "estado_pcode": "VE22", "municipio_pcode": "VE2211", "center_lat": 10.3560095, "center_lon": -68.73172943, "area_sqkm": 57.56651425}, "geometry": {"type": "Polygon", "coordinates": [[[-68.775564, 10.416099], [-68.777766, 10.414961], [-68.77633199999985, 10.371633], [-68.76791899999989, 10.350393], [-68.76448, 10.34687], [-68.75150399999984, 10.348605], [-68.73939, 10.33028800000011], [-68.727069, 10.321033000000114], [-68.722561, 10.321517], [-68.720699, 10.327403000000118], [-68.699629, 10.311942], [-68.689726, 10.299612], [-68.680645, 10.29495], [-68.686317, 10.330055000000186], [-68.698919, 10.369493000000148], [-68.718119, 10.367993000000183], [-68.737182, 10.372482000000161], [-68.742694, 10.38123000000013], [-68.7377709999999, 10.388378], [-68.740889, 10.393737], [-68.74518299999988, 10.396776000000159], [-68.755758, 10.398512], [-68.76659299999989, 10.413461], [-68.775564, 10.416099]]]}}, {"type": "Feature", "properties": {"parroquia": "Albarico", "municipio": "San Felipe", "estado": "Yaracuy", "pcode": "VE221102", "estado_pcode": "VE22", "municipio_pcode": "VE2211", "center_lat": 10.487514, "center_lon": -68.65936521, "area_sqkm": 224.98423964}, "geometry": {"type": "Polygon", "coordinates": [[[-68.6037453699999, 10.603489112000034], [-68.60988336999992, 10.606766563], [-68.611434, 10.602607], [-68.63118899999989, 10.596984000000191], [-68.651421, 10.599342], [-68.65934299999986, 10.593587000000127], [-68.663193, 10.592407], [-68.667327, 10.595585], [-68.67196599999988, 10.59516], [-68.68594, 10.588079], [-68.686395, 10.583307000000104], [-68.681608, 10.578777], [-68.681644, 10.572997], [-68.677135, 10.568145], [-68.677335, 10.562983000000145], [-68.681896, 10.558544], [-68.68207399999983, 10.554781000000105], [-68.67325099999988, 10.549482], [-68.67751, 10.544882], [-68.680481, 10.545907], [-68.683904, 10.54092], [-68.684445, 10.532821000000126], [-68.696496, 10.527398000000119], [-68.69486299999988, 10.523135], [-68.696786, 10.521799000000158], [-68.697218, 10.505372], [-68.695876, 10.506706000000122], [-68.707262, 10.482589], [-68.700075, 10.459644], [-68.706257, 10.454564000000119], [-68.715945, 10.452513], [-68.732071, 10.45406400000013], [-68.74509199999989, 10.449423], [-68.754104, 10.441787], [-68.751994, 10.431847], [-68.7554, 10.423094], [-68.760834, 10.420158000000129], [-68.76879799999989, 10.420693], [-68.775564, 10.416099], [-68.76659299999989, 10.413461], [-68.755758, 10.398512], [-68.74518299999988, 10.396776000000159], [-68.740889, 10.393737], [-68.7377709999999, 10.388378], [-68.742694, 10.38123000000013], [-68.737182, 10.372482000000161], [-68.718119, 10.367993000000183], [-68.698919, 10.369493000000148], [-68.672771, 10.393518], [-68.645074, 10.391794], [-68.634381, 10.394596], [-68.62855499999984, 10.4097000000001], [-68.62979, 10.415048000000127], [-68.64305199999984, 10.41506100000015], [-68.65217699999988, 10.410128], [-68.604552, 10.47171], [-68.64062, 10.537316], [-68.636471, 10.539047000000153], [-68.632704, 10.54665], [-68.63343, 10.550938], [-68.626183, 10.558411], [-68.625419, 10.57275], [-68.620678, 10.581434], [-68.62593699999985, 10.591423000000134], [-68.620869, 10.598638000000108], [-68.61152, 10.5988210000001], [-68.6037453699999, 10.603489112000034]]]}}, {"type": "Feature", "properties": {"parroquia": "San Javier", "municipio": "San Felipe", "estado": "Yaracuy", "pcode": "VE221103", "estado_pcode": "VE22", "municipio_pcode": "VE2211", "center_lat": 10.3022055, "center_lon": -68.65268789, "area_sqkm": 115.62041045}, "geometry": {"type": "Polygon", "coordinates": [[[-68.616664, 10.23367], [-68.61854, 10.234877], [-68.619328, 10.248355], [-68.626833, 10.255321000000151], [-68.623597, 10.278490000000147], [-68.62590299999988, 10.292190000000176], [-68.622916, 10.307663], [-68.62639399999989, 10.317982], [-68.63318, 10.323622000000114], [-68.633703, 10.328411], [-68.63159699999989, 10.330238], [-68.634406, 10.331147000000101], [-68.628777, 10.333226], [-68.630731, 10.33537600000011], [-68.627853, 10.334925], [-68.62718599999988, 10.337060000000179], [-68.62976599999985, 10.338566], [-68.628339, 10.342354000000114], [-68.632995, 10.348487], [-68.629781, 10.35205000000019], [-68.628592, 10.365903000000117], [-68.627082, 10.365219], [-68.634394, 10.375197000000128], [-68.631967, 10.377955], [-68.63397, 10.381046], [-68.631926, 10.380042], [-68.63072899999986, 10.383141000000137], [-68.636959, 10.387779], [-68.633136, 10.389486], [-68.634284, 10.394601000000137], [-68.634381, 10.394596], [-68.645074, 10.391794], [-68.672771, 10.393518], [-68.698919, 10.369493000000148], [-68.686317, 10.330055000000186], [-68.680645, 10.29495], [-68.671154, 10.209286], [-68.662658, 10.216644000000144], [-68.65434499999986, 10.219695000000115], [-68.64830699999987, 10.22633500000012], [-68.633724, 10.225598], [-68.623456, 10.233226], [-68.616664, 10.23367]]]}}, {"type": "Feature", "properties": {"parroquia": "Sucre", "municipio": "Sucre", "estado": "Yaracuy", "pcode": "VE221201", "estado_pcode": "VE22", "municipio_pcode": "VE2212", "center_lat": 10.254912, "center_lon": -68.81862092, "area_sqkm": 142.49510054}, "geometry": {"type": "Polygon", "coordinates": [[[-68.827119, 10.363035000000139], [-68.841009, 10.359501], [-68.845083, 10.36059200000011], [-68.864401, 10.35226200000011], [-68.885483, 10.328404], [-68.88251, 10.32395], [-68.885552, 10.319831000000136], [-68.880143, 10.298142], [-68.866884, 10.286374], [-68.864548, 10.280828000000156], [-68.85575199999988, 10.281218], [-68.824496, 10.24423000000013], [-68.820499, 10.236336000000165], [-68.818216, 10.218720000000133], [-68.814384, 10.212115], [-68.791343, 10.193256000000133], [-68.79188, 10.186089], [-68.795606, 10.185043], [-68.79664899999983, 10.181949], [-68.788174, 10.180001000000175], [-68.783346, 10.17548], [-68.775567, 10.176142], [-68.734085, 10.16059], [-68.72685399999989, 10.160182], [-68.71481399999988, 10.152895], [-68.7135679999999, 10.149295], [-68.709829, 10.149567], [-68.702262, 10.156842], [-68.699097, 10.166896000000122], [-68.70288, 10.171792], [-68.698758, 10.186696], [-68.694717, 10.189573], [-68.762519, 10.228876], [-68.7796249999999, 10.232619000000113], [-68.78515999999985, 10.238965], [-68.802502, 10.24884800000018], [-68.80174804899991, 10.280399627000122], [-68.826734, 10.327226], [-68.827119, 10.363035000000139]]]}}, {"type": "Feature", "properties": {"parroquia": "Urachiche", "municipio": "Urachiche", "estado": "Yaracuy", "pcode": "VE221301", "estado_pcode": "VE22", "municipio_pcode": "VE2213", "center_lat": 10.209251, "center_lon": -69.01646847, "area_sqkm": 185.69686703}, "geometry": {"type": "Polygon", "coordinates": [[[-68.95717799999989, 10.325698000000102], [-68.986903, 10.329990000000123], [-68.986256, 10.327482], [-68.990603, 10.327616], [-68.993935, 10.32463300000012], [-68.99386399999986, 10.319696], [-68.99890499999987, 10.31918300000018], [-68.995082, 10.31672500000019], [-68.998931, 10.315002000000106], [-69.005349, 10.303873000000124], [-69.003864, 10.292475000000138], [-69.01039550599995, 10.288685011000155], [-69.00755634799998, 10.283575895000013], [-69.01008232099991, 10.260038291000114], [-69.01572949399997, 10.249910998000189], [-69.01512841499988, 10.240129763000084], [-69.0353642529999, 10.237288566000132], [-69.04506060499989, 10.22644824200006], [-69.04848257699996, 10.22848512400003], [-69.050073, 10.207196000000181], [-69.058281, 10.199103], [-69.060871, 10.186609000000146], [-69.0798329999999, 10.164793], [-69.079062, 10.158021000000133], [-69.074651, 10.154723000000104], [-69.074567, 10.135806], [-69.070253, 10.131246], [-69.067909, 10.144854000000123], [-69.05783, 10.147695], [-69.043785, 10.15598100000011], [-69.012543, 10.15108400000014], [-69.00506, 10.146923], [-69.01781299999988, 10.137097000000153], [-69.014679, 10.123874000000114], [-69.01717999999983, 10.119805], [-69.003046, 10.11882], [-68.99265999999989, 10.113591000000156], [-68.986336, 10.108461], [-68.982966, 10.09568], [-68.977888, 10.088765], [-68.955879, 10.100312000000145], [-68.939071, 10.092395], [-68.932281, 10.09565], [-68.9294, 10.100284000000102], [-68.90968, 10.105268], [-68.908996, 10.107890000000111], [-68.90186099999988, 10.11162000000013], [-68.912917, 10.114206], [-68.92058, 10.122093000000177], [-68.944357, 10.124429], [-68.947819, 10.129462000000103], [-68.953868, 10.131562], [-68.953906, 10.144242000000133], [-68.9565869999999, 10.146293000000185], [-68.957397, 10.155453000000136], [-68.96198916699996, 10.165574487000129], [-68.964698, 10.18065300000012], [-68.95501499999989, 10.186545], [-68.964385, 10.197068], [-68.987594, 10.211519], [-68.995056, 10.236758], [-69.001243, 10.240459], [-68.99182499999989, 10.246063000000106], [-68.975686, 10.235625000000141], [-68.9745779999999, 10.24589600000013], [-68.960884, 10.270501], [-68.95717799999989, 10.325698000000102]]]}}, {"type": "Feature", "properties": {"parroquia": "Capital Veroes", "municipio": "Veroes", "estado": "Yaracuy", "pcode": "VE221401", "estado_pcode": "VE22", "municipio_pcode": "VE2214", "center_lat": 10.500152, "center_lon": -68.54916419, "area_sqkm": 394.95610298}, "geometry": {"type": "Polygon", "coordinates": [[[-68.52010676499998, 10.596794655000053], [-68.52937385699994, 10.596558800000025], [-68.5316519839999, 10.600476889000106], [-68.54827866099998, 10.596242676000145], [-68.5519028519999, 10.60047775900017], [-68.55998021299996, 10.603258785000037], [-68.55879917299995, 10.604637825000111], [-68.56490042999991, 10.605151798000065], [-68.56702849999988, 10.601177689000167], [-68.57217471099989, 10.598849597000083], [-68.57382779899996, 10.60253868100017], [-68.5756798729999, 10.600355611000168], [-68.58231716499995, 10.60217462200012], [-68.58282115399999, 10.597906510000143], [-68.58419423299989, 10.6009545820001], [-68.58797439699993, 10.600601549000089], [-68.58851444599986, 10.604614642000058], [-68.59508174099994, 10.60609063700008], [-68.60001490899998, 10.600871483000049], [-68.6037453699999, 10.603489112000034], [-68.61152, 10.5988210000001], [-68.620869, 10.598638000000108], [-68.62593699999985, 10.591423000000134], [-68.620678, 10.581434], [-68.625419, 10.57275], [-68.626183, 10.558411], [-68.63343, 10.550938], [-68.632704, 10.54665], [-68.636471, 10.539047000000153], [-68.64062, 10.537316], [-68.604552, 10.47171], [-68.65217699999988, 10.410128], [-68.64305199999984, 10.41506100000015], [-68.62979, 10.415048000000127], [-68.62855499999984, 10.4097000000001], [-68.634381, 10.394596], [-68.634284, 10.394601000000137], [-68.630044, 10.394813], [-68.61772799999989, 10.410146], [-68.605134, 10.418055], [-68.594908, 10.431076], [-68.57821599999988, 10.433664000000135], [-68.58021, 10.44366900000017], [-68.57808599999987, 10.449180000000183], [-68.572123, 10.448943], [-68.564896, 10.453547000000185], [-68.547981, 10.45329], [-68.535866, 10.461253], [-68.529206, 10.461085], [-68.525827, 10.46416500000015], [-68.48078, 10.47570700000017], [-68.47853799999984, 10.479636], [-68.481623, 10.490925], [-68.479952, 10.502393000000154], [-68.4753419999999, 10.512775], [-68.465661, 10.525033], [-68.438501, 10.529362000000106], [-68.42524, 10.524051000000156], [-68.414136, 10.529415], [-68.40279, 10.528267], [-68.389521, 10.530359], [-68.384531, 10.53464200000019], [-68.37806495699994, 10.53362520700017], [-68.35972627699994, 10.549342615000171], [-68.3524359779999, 10.5510436940001], [-68.34568166999998, 10.548983684], [-68.33564024299994, 10.549960775000159], [-68.32624381999989, 10.545960732000026], [-68.31638833999989, 10.537744578], [-68.30467784099989, 10.537488643000074], [-68.30044069899986, 10.544816849000142], [-68.29196236699994, 10.549386023000181], [-68.28544708599998, 10.548836056000084], [-68.26534529799994, 10.562110514999972], [-68.26276221599994, 10.567827678000072], [-68.25918206599982, 10.567816702000073], [-68.25707099399995, 10.570827794000138], [-68.25880507799997, 10.571210794000024], [-68.25608996699987, 10.573604868000075], [-68.25852208099991, 10.575016890000029], [-68.25772506899989, 10.577563960000077], [-68.24875193099996, 10.57860848900009], [-68.24872068099995, 10.57862804500013], [-68.52010676499998, 10.596794655000053]]]}}, {"type": "Feature", "properties": {"parroquia": "El Guayabo", "municipio": "Veroes", "estado": "Yaracuy", "pcode": "VE221402", "estado_pcode": "VE22", "municipio_pcode": "VE2214", "center_lat": 10.37065888, "center_lon": -68.5143455, "area_sqkm": 573.36032415}, "geometry": {"type": "Polygon", "coordinates": [[[-68.37806495699994, 10.53362520700017], [-68.384531, 10.53464200000019], [-68.389521, 10.530359], [-68.40279, 10.528267], [-68.414136, 10.529415], [-68.42524, 10.524051000000156], [-68.438501, 10.529362000000106], [-68.465661, 10.525033], [-68.4753419999999, 10.512775], [-68.479952, 10.502393000000154], [-68.481623, 10.490925], [-68.47853799999984, 10.479636], [-68.48078, 10.47570700000017], [-68.525827, 10.46416500000015], [-68.529206, 10.461085], [-68.535866, 10.461253], [-68.547981, 10.45329], [-68.564896, 10.453547000000185], [-68.572123, 10.448943], [-68.57808599999987, 10.449180000000183], [-68.58021, 10.44366900000017], [-68.57821599999988, 10.433664000000135], [-68.594908, 10.431076], [-68.605134, 10.418055], [-68.61772799999989, 10.410146], [-68.630044, 10.394813], [-68.634284, 10.394601000000137], [-68.633136, 10.389486], [-68.636959, 10.387779], [-68.63072899999986, 10.383141000000137], [-68.631926, 10.380042], [-68.63397, 10.381046], [-68.631967, 10.377955], [-68.634394, 10.375197000000128], [-68.627082, 10.365219], [-68.628592, 10.365903000000117], [-68.629781, 10.35205000000019], [-68.632995, 10.348487], [-68.628339, 10.342354000000114], [-68.62976599999985, 10.338566], [-68.62718599999988, 10.337060000000179], [-68.627853, 10.334925], [-68.630731, 10.33537600000011], [-68.628777, 10.333226], [-68.634406, 10.331147000000101], [-68.63159699999989, 10.330238], [-68.633703, 10.328411], [-68.63318, 10.323622000000114], [-68.62639399999989, 10.317982], [-68.622916, 10.307663], [-68.62590299999988, 10.292190000000176], [-68.623597, 10.278490000000147], [-68.626833, 10.255321000000151], [-68.619328, 10.248355], [-68.61854, 10.234877], [-68.616664, 10.23367], [-68.611043, 10.23370800000015], [-68.607042, 10.229425000000163], [-68.602696, 10.215136], [-68.59372, 10.206538], [-68.555461, 10.207126], [-68.547586, 10.209101], [-68.531251, 10.220859000000189], [-68.51194, 10.215177], [-68.502384, 10.215949], [-68.4880399999999, 10.226449000000116], [-68.480528, 10.228570000000104], [-68.479438, 10.228862000000106], [-68.488908, 10.243847], [-68.489981, 10.249669], [-68.486924, 10.258237], [-68.4906309999999, 10.278987], [-68.482683, 10.29460900000015], [-68.485178, 10.296496000000104], [-68.485184, 10.306475000000148], [-68.49786899999987, 10.31422300000014], [-68.49957499999988, 10.325143], [-68.49049, 10.335479], [-68.450735, 10.35187400000018], [-68.447691, 10.356452], [-68.434914, 10.361811000000102], [-68.41822999999988, 10.363543], [-68.412679, 10.361910000000137], [-68.39885107499998, 10.366383418000055], [-68.39847784299985, 10.370498409999982], [-68.40019501199998, 10.386300157000164], [-68.39601592599996, 10.402261592000173], [-68.40119622799995, 10.414871891000189], [-68.39923225099983, 10.432760366000139], [-68.40139238899997, 10.439789529000052], [-68.39753325199996, 10.44372464800017], [-68.39557822899991, 10.454253938000022], [-68.40212556199992, 10.46151807900003], [-68.40412468499989, 10.46861726100019], [-68.40177561899986, 10.474426423000125], [-68.39006616899991, 10.483091713000022], [-68.40178471399997, 10.489945815999988], [-68.39813758999992, 10.494704969000054], [-68.3895872459999, 10.498246110000025], [-68.3865731539999, 10.504951303000155], [-68.38679123999992, 10.516297592000058], [-68.38255707399998, 10.519179694000172], [-68.38370716799994, 10.52751990000013], [-68.37806495699994, 10.53362520700017]]]}}, {"type": "Feature", "properties": {"parroquia": "San Andrés", "municipio": "Peña", "estado": "Yaracuy", "pcode": "VE221002", "estado_pcode": "VE22", "municipio_pcode": "VE2210", "center_lat": 10.1103785, "center_lon": -69.18036872, "area_sqkm": 24.65726753}, "geometry": {"type": "Polygon", "coordinates": [[[-69.20820958099983, 10.087930645000029], [-69.199352, 10.086575], [-69.193301, 10.090368000000183], [-69.18328799999989, 10.090411000000188], [-69.157111, 10.097730000000183], [-69.158307, 10.113028], [-69.13499740499998, 10.13579918500011], [-69.1967911889999, 10.130866341], [-69.20820958099983, 10.087930645000029]]]}}]}