{"type": "FeatureCollection", "features": [{"type": "Feature", "properties": {"municipio": "Alto Orinoco", "estado": "Amazonas", "gid": "VEN.1.1_1"}, "geometry": {"type": "Polygon", "coordinates": [[[-64.0614, 1.9249], [-64.0619, 1.9307], [-64.0191, 1.9513], [-64.0016, 1.9749], [-63.9755, 1.9913], [-63.9227, 1.9829], [-63.8985, 1.9924], [-63.8877, 1.9824], [-63.8541, 1.9785], [-63.846, 1.964], [-63.8297, 1.9682], [-63.8238, 1.991], [-63.7849, 1.9815], [-63.7602, 2.0041], [-63.7519, 1.996], [-63.7405, 1.9996], [-63.7391, 2.0163], [-63.7033, 2.0462], [-63.6885, 2.0315], [-63.6922, 2.0232], [-63.668, 2.0169], [-63.6608, 2.0332], [-63.6622, 2.0654], [-63.638, 2.0692], [-63.6174, 2.1065], [-63.5619, 2.1323], [-63.5363, 2.131], [-63.5094, 2.1135], [-63.4924, 2.1154], [-63.4666, 2.141], [-63.4441, 2.1251], [-63.3977, 2.1469], [-63.3888, 2.183], [-63.3952, 2.1996], [-63.3723, 2.2117], [-63.4012, 2.2456], [-63.4014, 2.2966], [-63.4255, 2.3642], [-63.4223, 2.3785], [-63.3948, 2.4071], [-63.3959, 2.4261], [-63.4068, 2.4359], [-63.4459, 2.4424], [-63.4999, 2.436], [-63.6887, 2.388], [-63.7808, 2.3912], [-63.9612, 2.4546], [-63.978, 2.4675], [-63.9883, 2.4649], [-64.0005, 2.4782], [-64.0208, 2.4665], [-64.032, 2.4722], [-64.0388, 2.494], [-64.0561, 2.4977], [-64.0572, 2.5129], [-64.0454, 2.5325], [-64.0444, 2.5732], [-64.0291, 2.576], [-64.0091, 2.6082], [-64.0099, 2.6202], [-63.9849, 2.6485], [-63.9914, 2.6701], [-63.9855, 2.686], [-64.0036, 2.7071], [-63.9827, 2.7174], [-63.9866, 2.7307], [-63.9997, 2.7402], [-63.9938, 2.7699], [-64.0094, 2.7782], [-64.0133, 2.819], [-64.0472, 2.8363], [-64.0577, 2.8504], [-64.0716, 2.9376], [-64.1113, 2.9604], [-64.1305, 3.0043], [-64.1608, 3.0327], [-64.178, 3.0632], [-64.2352, 3.1143], [-64.2083, 3.1888], [-64.2138, 3.2463], [-64.2413, 3.3149], [-64.2344, 3.384], [-64.2552, 3.411], [-64.2399, 3.4429], [-64.1899, 3.4949], [-64.1844, 3.4893], [-64.1858, 3.5596], [-64.2061, 3.5904], [-64.2758, 3.6613], [-64.2891, 3.6996], [-64.4286, 3.7799], [-64.4855, 3.7874], [-64.5245, 3.8419], [-64.5684, 3.8817], [-64.5802, 3.9283], [-64.6199, 3.9513], [-64.6507, 3.9919], [-64.6739, 4.0046], [-64.6839, 4.0401], [-64.7086, 4.0665], [-64.7169, 4.0887], [-64.8089, 4.0581], [-64.9343, 4.0353], [-65.0653, 4.041], [-65.2591, 4.1094], [-65.2933, 4.172], [-65.3047, 4.2518], [-65.3503, 4.3373], [-65.413, 4.3886], [-65.4699, 4.4], [-65.5212, 4.4], [-65.5554, 4.3031], [-65.5611, 4.1549], [-65.5896, 4.1322], [-65.6466, 4.1549], [-65.7264, 4.1549], [-65.7509, 4.1481], [-65.9201, 3.8814], [-65.9201, 3.8073], [-65.829, 3.6421], [-65.7777, 3.5908], [-65.7492, 3.5053], [-65.7663, 3.3628], [-65.7663, 3.1121], [-65.715, 3.0494], [-65.658, 3.0323], [-65.6352, 3.0437], [-65.601, 3.0209], [-65.6238, 2.9639], [-65.658, 2.924], [-65.658, 2.8841], [-65.6409, 2.7987], [-65.6202, 2.7369], [-65.6215, 2.7454], [-65.5032, 2.7478], [-65.4462, 2.7136], [-65.4177, 2.6281], [-65.4177, 2.5882], [-65.3892, 2.5028], [-65.3379, 2.4458], [-65.2752, 2.3945], [-65.3094, 2.195], [-65.3322, 1.9728], [-65.3778, 1.8702], [-65.4604, 1.6024], [-65.449, 1.571], [-65.392, 1.5083], [-65.3664, 1.4941], [-65.3037, 1.4941], [-65.1783, 1.5254], [-65.147, 1.5824], [-65.0843, 1.6593], [-64.654, 1.9186], [-64.617, 1.9642], [-64.6028, 1.9984], [-64.56, 1.9956], [-64.5059, 1.9357], [-64.4831, 1.93], [-64.4603, 1.9329], [-64.3777, 1.9671], [-64.315, 1.9671], [-64.2038, 1.9614], [-64.1041, 1.9471], [-64.0614, 1.9249]]]}}, {"type": "Feature", "properties": {"municipio": "Atabapo", "estado": "Amazonas", "gid": "VEN.1.2_1"}, "geometry": {"type": "Polygon", "coordinates": [[[-67.4046, 3.2489], [-67.3794, 3.1726], [-67.3514, 3.1153], [-67.3251, 3.0867], [-67.2764, 3.0691], [-67.2366, 3.0746], [-67.1871, 3.1342], [-67.1411, 3.1512], [-67.0362, 3.1188], [-66.9855, 3.139], [-66.9506, 3.1432], [-66.929, 3.1411], [-66.8876, 3.1227], [-66.8321, 3.1151], [-66.5445, 3.1047], [-66.4503, 3.1165], [-66.3977, 3.1037], [-66.3648, 3.082], [-66.314, 3.0263], [-66.266, 3.0003], [-66.2023, 2.9885], [-66.1418, 2.9975], [-66.073, 2.9878], [-65.9406, 2.5703], [-65.9358, 2.582], [-65.9439, 2.6305], [-65.9258, 2.6712], [-65.8451, 2.6795], [-65.7961, 2.7034], [-65.7733, 2.7069], [-65.6864, 2.6955], [-65.6574, 2.7027], [-65.6281, 2.7221], [-65.6203, 2.7367], [-65.6409, 2.7987], [-65.658, 2.8841], [-65.658, 2.924], [-65.6238, 2.9639], [-65.601, 3.0209], [-65.6352, 3.0437], [-65.658, 3.0323], [-65.715, 3.0494], [-65.7663, 3.1121], [-65.7663, 3.3628], [-65.7492, 3.5053], [-65.7777, 3.5908], [-65.829, 3.6421], [-65.9201, 3.8073], [-65.9201, 3.8814], [-65.7509, 4.1481], [-65.829, 4.1265], [-65.9429, 4.1379], [-65.9999, 4.1891], [-66.1025, 4.3544], [-66.1538, 4.3943], [-66.2279, 4.5026], [-66.3589, 4.571], [-66.4045, 4.702], [-66.4758, 4.8189], [-66.4815, 4.8587], [-66.4957, 4.8815], [-66.5185, 4.8958], [-66.5584, 4.8587], [-66.5664, 4.8624], [-66.5812, 4.8388], [-66.7237, 4.7875], [-66.7408, 4.7647], [-66.7351, 4.7419], [-66.718, 4.7305], [-66.6781, 4.7305], [-66.6268, 4.7533], [-66.604, 4.6906], [-66.6895, 4.6051], [-66.8205, 4.5539], [-66.9231, 4.4114], [-67.0086, 4.2689], [-67.2252, 4.1379], [-67.2764, 4.1493], [-67.3619, 4.2062], [-67.4303, 4.2632], [-67.5101, 4.4057], [-67.607, 4.4798], [-67.8434, 4.5744], [-67.8582, 4.5203], [-67.8124, 4.4883], [-67.7971, 4.4691], [-67.7989, 4.435], [-67.7754, 4.4176], [-67.7877, 4.3896], [-67.7658, 4.3523], [-67.7682, 4.3394], [-67.7958, 4.3388], [-67.8061, 4.3239], [-67.7932, 4.2777], [-67.8057, 4.24], [-67.7875, 4.2094], [-67.7741, 4.1665], [-67.7435, 4.139], [-67.7262, 4.1023], [-67.7176, 4.0572], [-67.6992, 4.0351], [-67.6913, 3.9333], [-67.6495, 3.8639], [-67.6434, 3.8383], [-67.6481, 3.8219], [-67.6357, 3.7838], [-67.6263, 3.7803], [-67.6149, 3.7568], [-67.5963, 3.7493], [-67.5407, 3.7586], [-67.5214, 3.7781], [-67.4976, 3.7705], [-67.4621, 3.6859], [-67.4431, 3.6788], [-67.4466, 3.655], [-67.4356, 3.6375], [-67.4398, 3.5907], [-67.4266, 3.5797], [-67.4234, 3.5616], [-67.4049, 3.5402], [-67.4018, 3.482], [-67.337, 3.4536], [-67.3103, 3.3985], [-67.3079, 3.378], [-67.3197, 3.3657], [-67.3284, 3.337], [-67.3451, 3.3151], [-67.3743, 3.2949], [-67.3736, 3.25], [-67.4046, 3.2489]]]}}, {"type": "Feature", "properties": {"municipio": "Atures", "estado": "Amazonas", "gid": "VEN.1.3_1"}, "geometry": {"type": "Polygon", "coordinates": [[[-67.8505, 5.2936], [-67.8054, 5.3008], [-67.6772, 5.355], [-67.5718, 5.3692], [-67.3837, 5.4376], [-67.3154, 5.4718], [-67.1358, 5.5202], [-67.0133, 5.5829], [-66.9409, 5.645], [-66.9521, 5.6536], [-66.9758, 5.713], [-67.0054, 5.7412], [-67.0398, 5.744], [-67.1116, 5.7246], [-67.1315, 5.7249], [-67.1482, 5.7399], [-67.149, 5.7714], [-67.1212, 5.9535], [-67.1322, 6.0567], [-67.1524, 6.0923], [-67.1795, 6.1093], [-67.2606, 6.1085], [-67.2865, 6.1312], [-67.374, 6.1191], [-67.3909, 6.1244], [-67.4228, 6.152], [-67.4697, 6.1566], [-67.4909, 6.1493], [-67.4901, 6.1226], [-67.4581, 6.0634], [-67.4275, 6.0362], [-67.4051, 5.9985], [-67.4346, 5.9674], [-67.4811, 5.9419], [-67.4917, 5.9187], [-67.538, 5.8935], [-67.5928, 5.8401], [-67.6277, 5.734], [-67.637, 5.6753], [-67.6388, 5.6507], [-67.622, 5.5926], [-67.6246, 5.579], [-67.6014, 5.5439], [-67.6295, 5.4718], [-67.7151, 5.4129], [-67.7393, 5.3874], [-67.796, 5.3618], [-67.8229, 5.3406], [-67.8505, 5.2936]]]}}, {"type": "Feature", "properties": {"municipio": "Autana", "estado": "Amazonas", "gid": "VEN.1.4_1"}, "geometry": {"type": "Polygon", "coordinates": [[[-67.8434, 4.5744], [-67.607, 4.4798], [-67.5101, 4.4057], [-67.4303, 4.2632], [-67.3619, 4.2062], [-67.2764, 4.1493], [-67.2252, 4.1379], [-67.0086, 4.2689], [-66.9231, 4.4114], [-66.8205, 4.5539], [-66.6895, 4.6051], [-66.604, 4.6906], [-66.6268, 4.7533], [-66.6781, 4.7305], [-66.718, 4.7305], [-66.7351, 4.7419], [-66.7408, 4.7647], [-66.7237, 4.7875], [-66.5812, 4.8388], [-66.5664, 4.8624], [-66.6325, 4.8929], [-66.6866, 4.9129], [-66.7579, 4.9642], [-66.8348, 4.9727], [-66.9887, 5.0297], [-67.0143, 5.0553], [-66.9602, 5.1323], [-66.9231, 5.1693], [-66.9003, 5.2463], [-66.8462, 5.3004], [-66.6752, 5.3802], [-66.547, 5.4087], [-66.4843, 5.4315], [-66.4387, 5.4714], [-66.3789, 5.6594], [-66.2906, 5.762], [-66.2737, 5.7771], [-66.3014, 5.7863], [-66.3667, 5.7953], [-66.4323, 5.7838], [-66.5031, 5.7973], [-66.5902, 5.7708], [-66.6778, 5.7819], [-66.7484, 5.7735], [-66.7803, 5.7519], [-66.8123, 5.7127], [-66.844, 5.6932], [-66.8659, 5.6659], [-66.9131, 5.643], [-66.9409, 5.645], [-67.0133, 5.5829], [-67.1358, 5.5202], [-67.3154, 5.4718], [-67.3837, 5.4376], [-67.5718, 5.3692], [-67.6772, 5.355], [-67.8054, 5.3008], [-67.8505, 5.2936], [-67.8397, 5.277], [-67.8134, 5.265], [-67.8082, 5.2044], [-67.814, 5.1889], [-67.8266, 5.1968], [-67.8413, 5.1672], [-67.8313, 5.148], [-67.8403, 5.1148], [-67.8238, 5.0827], [-67.8384, 5.0684], [-67.8143, 5.0585], [-67.8093, 5.0487], [-67.8245, 5.0215], [-67.8255, 4.9705], [-67.8411, 4.9453], [-67.8392, 4.8814], [-67.827, 4.8518], [-67.8219, 4.7052], [-67.8434, 4.6657], [-67.8482, 4.6385], [-67.8434, 4.5744]]]}}, {"type": "Feature", "properties": {"municipio": "Manapiare", "estado": "Amazonas", "gid": "VEN.1.5_1"}, "geometry": {"type": "Polygon", "coordinates": [[[-64.6386, 4.1647], [-64.6402, 4.2216], [-64.615, 4.2495], [-64.5918, 4.2482], [-64.5366, 4.227], [-64.5264, 4.2643], [-64.5257, 4.3245], [-64.5383, 4.4401], [-64.5602, 4.5564], [-64.5672, 4.5673], [-64.5944, 4.579], [-64.6829, 4.5858], [-64.7298, 4.5984], [-64.7697, 4.62], [-64.788, 4.6414], [-64.9, 4.8225], [-64.9643, 4.967], [-64.9846, 5.0222], [-65.0115, 5.1503], [-65.0631, 5.2725], [-65.0688, 5.3159], [-65.0594, 5.3356], [-65.0208, 5.3448], [-64.9594, 5.3394], [-64.9377, 5.3531], [-64.9108, 5.3945], [-64.8942, 5.4342], [-64.8957, 5.4479], [-64.9379, 5.4823], [-64.993, 5.5668], [-65.0242, 5.6368], [-65.0162, 5.661], [-64.9793, 5.699], [-64.9767, 5.7151], [-64.9857, 5.7324], [-65.0141, 5.7442], [-65.171, 5.7422], [-65.2077, 5.7517], [-65.2381, 5.746], [-65.2812, 5.6985], [-65.2947, 5.676], [-65.3125, 5.6695], [-65.3469, 5.6797], [-65.3681, 5.704], [-65.4, 5.7821], [-65.4189, 5.9311], [-65.3858, 6.0249], [-65.3825, 6.0537], [-65.3866, 6.0871], [-65.402, 6.1148], [-65.4444, 6.1248], [-65.4957, 6.1157], [-65.5308, 6.1268], [-65.6714, 6.0817], [-65.7148, 6.0443], [-65.802, 6.01], [-65.8334, 5.9881], [-65.8779, 5.9056], [-66.0452, 5.7357], [-66.0619, 5.7265], [-66.1044, 5.7282], [-66.2219, 5.7536], [-66.2737, 5.7771], [-66.2906, 5.762], [-66.3789, 5.6594], [-66.4387, 5.4714], [-66.4843, 5.4315], [-66.547, 5.4087], [-66.6752, 5.3802], [-66.8462, 5.3004], [-66.9003, 5.2463], [-66.9231, 5.1693], [-66.9602, 5.1323], [-67.0143, 5.0553], [-66.9887, 5.0297], [-66.8348, 4.9727], [-66.7579, 4.9642], [-66.6866, 4.9129], [-66.6325, 4.8929], [-66.5584, 4.8587], [-66.5185, 4.8958], [-66.4957, 4.8815], [-66.4815, 4.8587], [-66.4758, 4.8189], [-66.4045, 4.702], [-66.3589, 4.571], [-66.2279, 4.5026], [-66.1538, 4.3943], [-66.1025, 4.3544], [-65.9999, 4.1891], [-65.9429, 4.1379], [-65.829, 4.1265], [-65.7264, 4.1549], [-65.6466, 4.1549], [-65.5896, 4.1322], [-65.5611, 4.1549], [-65.5554, 4.3031], [-65.5212, 4.4], [-65.4699, 4.4], [-65.413, 4.3886], [-65.3503, 4.3373], [-65.3047, 4.2518], [-65.2933, 4.172], [-65.2591, 4.1094], [-65.0653, 4.041], [-64.9343, 4.0353], [-64.8089, 4.0581], [-64.7169, 4.0887], [-64.7322, 4.1201], [-64.8105, 4.1746], [-64.825, 4.244], [-64.8177, 4.2651], [-64.7969, 4.2857], [-64.7805, 4.2865], [-64.6914, 4.2446], [-64.6586, 4.2115], [-64.6386, 4.1647]]]}}, {"type": "Feature", "properties": {"municipio": "Maroa", "estado": "Amazonas", "gid": "VEN.1.6_1"}, "geometry": {"type": "Polygon", "coordinates": [[[-67.4046, 3.2489], [-67.43, 3.2472], [-67.4718, 3.2122], [-67.855, 2.8672], [-67.857, 2.7903], [-67.8434, 2.7949], [-67.8262, 2.8256], [-67.8108, 2.8348], [-67.7837, 2.8303], [-67.7385, 2.84], [-67.7358, 2.8177], [-67.6576, 2.7963], [-67.6316, 2.8131], [-67.6135, 2.812], [-67.5659, 2.7691], [-67.5682, 2.7473], [-67.5476, 2.7227], [-67.5538, 2.6691], [-67.545, 2.6493], [-67.5084, 2.6679], [-67.4739, 2.6571], [-67.4579, 2.6161], [-67.4372, 2.6121], [-67.3851, 2.5639], [-67.379, 2.5379], [-67.3373, 2.5127], [-67.3303, 2.4853], [-67.3124, 2.4681], [-67.2914, 2.4299], [-67.2729, 2.4188], [-67.2578, 2.4188], [-67.2212, 2.3896], [-67.1852, 2.3389], [-67.1967, 2.3128], [-67.216, 2.294], [-67.2128, 2.2718], [-67.2217, 2.2415], [-67.193, 2.1666], [-67.1568, 2.1166], [-67.1199, 2.1246], [-67.1086, 2.1046], [-67.0991, 2.0446], [-67.1179, 2.0072], [-67.1251, 1.9734], [-67.1057, 1.9741], [-67.0495, 1.9965], [-66.9282, 1.956], [-66.7749, 1.9668], [-66.6978, 1.9603], [-66.572, 1.9053], [-66.5423, 1.8974], [-66.5257, 1.9005], [-66.4965, 1.9278], [-66.4561, 2.0104], [-66.4421, 2.0219], [-66.3677, 2.047], [-66.3447, 2.0771], [-66.3424, 2.1236], [-66.3551, 2.1487], [-66.373, 2.1633], [-66.4341, 2.189], [-66.4944, 2.2545], [-66.4925, 2.2648], [-66.477, 2.2766], [-66.407, 2.3049], [-66.3786, 2.3415], [-66.301, 2.3547], [-66.284, 2.3678], [-66.2766, 2.3972], [-66.2837, 2.4318], [-66.3336, 2.4771], [-66.3295, 2.4965], [-66.1737, 2.5509], [-66.0804, 2.5493], [-66.0249, 2.5683], [-65.9464, 2.5662], [-65.9406, 2.5703], [-66.073, 2.9878], [-66.1418, 2.9975], [-66.2023, 2.9885], [-66.266, 3.0003], [-66.314, 3.0263], [-66.3648, 3.082], [-66.3977, 3.1037], [-66.4503, 3.1165], [-66.5445, 3.1047], [-66.8321, 3.1151], [-66.8876, 3.1227], [-66.929, 3.1411], [-66.9506, 3.1432], [-66.9855, 3.139], [-67.0362, 3.1188], [-67.1411, 3.1512], [-67.1871, 3.1342], [-67.2366, 3.0746], [-67.2764, 3.0691], [-67.3251, 3.0867], [-67.3514, 3.1153], [-67.3794, 3.1726], [-67.4046, 3.2489]]]}}, {"type": "Feature", "properties": {"municipio": "Río Negro", "estado": "Amazonas", "gid": "VEN.1.7_1"}, "geometry": {"type": "Polygon", "coordinates": [[[-67.1251, 1.9734], [-67.1254, 1.9648], [-67.0922, 1.9449], [-67.0792, 1.9176], [-67.0666, 1.9076], [-67.0588, 1.8691], [-67.0418, 1.8327], [-67.0359, 1.7723], [-67.0216, 1.7566], [-67.0171, 1.7304], [-66.9995, 1.7032], [-66.9888, 1.6651], [-66.9627, 1.6279], [-66.9665, 1.5842], [-66.9452, 1.5725], [-66.9205, 1.5236], [-66.9093, 1.4847], [-66.9077, 1.4229], [-66.8984, 1.41], [-66.8718, 1.404], [-66.8496, 1.373], [-66.8453, 1.3322], [-66.8676, 1.2835], [-66.8596, 1.2335], [-66.3185, 0.755], [-66.213, 0.7806], [-66.1882, 0.7787], [-66.1611, 0.7463], [-66.1511, 0.7444], [-66.1212, 0.752], [-66.1146, 0.7634], [-66.0886, 0.759], [-66.0763, 0.7683], [-66.0701, 0.805], [-66.0557, 0.8023], [-66.038, 0.812], [-66.0173, 0.8], [-65.9778, 0.8118], [-65.9714, 0.806], [-65.9645, 0.8095], [-65.946, 0.8526], [-65.9334, 0.8625], [-65.9366, 0.8821], [-65.9254, 0.8913], [-65.9012, 0.8836], [-65.8816, 0.9016], [-65.8737, 0.922], [-65.8798, 0.9327], [-65.8317, 0.94], [-65.78, 0.964], [-65.7742, 0.959], [-65.7394, 0.9996], [-65.7122, 0.9974], [-65.6956, 1.004], [-65.6786, 0.9888], [-65.6528, 1.0117], [-65.625, 0.989], [-65.6272, 1.0092], [-65.6103, 1.0142], [-65.6067, 1.0045], [-65.5911, 1.0022], [-65.5856, 1.0089], [-65.5722, 0.985], [-65.5673, 0.9942], [-65.5578, 0.9933], [-65.5581, 0.9758], [-65.5419, 0.9755], [-65.5309, 0.9561], [-65.5364, 0.948], [-65.5084, 0.9155], [-65.5123, 0.8852], [-65.4962, 0.8893], [-65.4937, 0.8821], [-65.5053, 0.8685], [-65.5003, 0.8424], [-65.5278, 0.8332], [-65.5311, 0.8051], [-65.5408, 0.8051], [-65.5486, 0.7746], [-65.5564, 0.7776], [-65.5736, 0.7643], [-65.5758, 0.7446], [-65.5914, 0.7216], [-65.5764, 0.7116], [-65.5642, 0.6757], [-65.5406, 0.6488], [-65.5306, 0.6679], [-65.5005, 0.6721], [-65.4803, 0.6869], [-65.4528, 0.6854], [-65.4236, 0.7079], [-65.4214, 0.7321], [-65.4106, 0.7396], [-65.4139, 0.7551], [-65.3975, 0.7499], [-65.3955, 0.7582], [-65.3967, 0.7905], [-65.413, 0.8157], [-65.398, 0.8213], [-65.3917, 0.8441], [-65.3769, 0.8493], [-65.3736, 0.8646], [-65.3519, 0.873], [-65.3564, 0.8846], [-65.3433, 0.8935], [-65.3292, 0.9315], [-65.3219, 0.9279], [-65.3028, 0.9421], [-65.2775, 0.9382], [-65.27, 0.9432], [-65.2636, 0.9196], [-65.2089, 0.9287], [-65.2075, 0.9068], [-65.1825, 0.9224], [-65.165, 0.9505], [-65.1616, 0.9785], [-65.1473, 1.0093], [-65.1669, 1.0113], [-65.1695, 1.0184], [-65.154, 1.0563], [-65.1551, 1.1249], [-65.1225, 1.1351], [-65.1191, 1.1464], [-65.1031, 1.1566], [-65.0882, 1.146], [-65.0713, 1.1534], [-65.0609, 1.1377], [-65.0661, 1.119], [-65.0613, 1.1117], [-65.0222, 1.1149], [-64.9608, 1.1896], [-64.9697, 1.2171], [-64.9608, 1.2302], [-64.9516, 1.2315], [-64.9352, 1.2113], [-64.9144, 1.2279], [-64.9072, 1.2513], [-64.8983, 1.2526], [-64.8781, 1.2286], [-64.8616, 1.2693], [-64.8251, 1.2951], [-64.8105, 1.3144], [-64.7891, 1.2857], [-64.7836, 1.2608], [-64.7639, 1.2307], [-64.7466, 1.2254], [-64.7225, 1.2385], [-64.7019, 1.2912], [-64.6847, 1.2838], [-64.6602, 1.2913], [-64.635, 1.3202], [-64.6114, 1.3357], [-64.5908, 1.3374], [-64.5761, 1.354], [-64.5827, 1.3755], [-64.5533, 1.4168], [-64.5305, 1.426], [-64.528, 1.4441], [-64.5219, 1.4376], [-64.5005, 1.4426], [-64.4766, 1.468], [-64.4536, 1.4802], [-64.4386, 1.4718], [-64.3974, 1.5268], [-64.3513, 1.5182], [-64.3488, 1.5021], [-64.3572, 1.4838], [-64.3788, 1.4635], [-64.3774, 1.4482], [-64.3975, 1.4243], [-64.4, 1.3948], [-64.3774, 1.3865], [-64.3594, 1.3899], [-64.338, 1.3635], [-64.3427, 1.3843], [-64.3261, 1.4019], [-64.3261, 1.436], [-64.3022, 1.4683], [-64.2674, 1.4846], [-64.2616, 1.4998], [-64.2474, 1.5082], [-64.2155, 1.5085], [-64.1949, 1.5249], [-64.1938, 1.5427], [-64.1677, 1.576], [-64.1441, 1.5824], [-64.1261, 1.5776], [-64.1122, 1.5893], [-64.0755, 1.6526], [-64.0613, 1.7016], [-64.0722, 1.7257], [-64.0652, 1.7398], [-64.078, 1.759], [-64.0624, 1.7896], [-64.058, 1.8129], [-64.0627, 1.8207], [-64.0552, 1.8254], [-64.0561, 1.841], [-64.0711, 1.8524], [-64.0619, 1.8827], [-64.0614, 1.9249], [-64.1041, 1.9471], [-64.2038, 1.9614], [-64.315, 1.9671], [-64.3777, 1.9671], [-64.4603, 1.9329], [-64.4831, 1.93], [-64.5059, 1.9357], [-64.56, 1.9956], [-64.6028, 1.9984], [-64.617, 1.9642], [-64.654, 1.9186], [-65.0843, 1.6593], [-65.147, 1.5824], [-65.1783, 1.5254], [-65.3037, 1.4941], [-65.3664, 1.4941], [-65.392, 1.5083], [-65.449, 1.571], [-65.4604, 1.6024], [-65.3778, 1.8702], [-65.3322, 1.9728], [-65.3094, 2.195], [-65.2752, 2.3945], [-65.3379, 2.4458], [-65.3892, 2.5028], [-65.4177, 2.5882], [-65.4177, 2.6281], [-65.4462, 2.7136], [-65.5032, 2.7478], [-65.6215, 2.7454], [-65.6202, 2.7369], [-65.6281, 2.7221], [-65.6574, 2.7027], [-65.6864, 2.6955], [-65.7733, 2.7069], [-65.7961, 2.7034], [-65.8451, 2.6795], [-65.9258, 2.6712], [-65.9439, 2.6305], [-65.9358, 2.582], [-65.9403, 2.5705], [-65.9464, 2.5662], [-66.0249, 2.5683], [-66.0804, 2.5493], [-66.1737, 2.5509], [-66.3295, 2.4965], [-66.3336, 2.4771], [-66.2837, 2.4318], [-66.2766, 2.3972], [-66.284, 2.3678], [-66.301, 2.3547], [-66.3786, 2.3415], [-66.407, 2.3049], [-66.477, 2.2766], [-66.4925, 2.2648], [-66.4944, 2.2545], [-66.4341, 2.189], [-66.373, 2.1633], [-66.3551, 2.1487], [-66.3424, 2.1236], [-66.3447, 2.0771], [-66.3677, 2.047], [-66.4421, 2.0219], [-66.4561, 2.0104], [-66.4965, 1.9278], [-66.5257, 1.9005], [-66.5423, 1.8974], [-66.572, 1.9053], [-66.6978, 1.9603], [-66.7749, 1.9668], [-66.9282, 1.956], [-67.0495, 1.9965], [-67.1057, 1.9741], [-67.1251, 1.9734]]]}}]}