{"type": "FeatureCollection", "features": [{"type": "Feature", "properties": {"municipio": "Anaco", "estado": "Anzoátegui", "gid": "VEN.2.1_1"}, "geometry": {"type": "Polygon", "coordinates": [[[-64.5672, 9.3978], [-64.5808, 9.2282], [-64.4688, 9.0723], [-64.4153, 8.9512], [-64.3578, 9.025], [-64.3834, 9.0905], [-64.3778, 9.1803], [-64.3963, 9.2714], [-64.3893, 9.3269], [-64.3504, 9.3777], [-64.3507, 9.4623], [-64.366, 9.4734], [-64.3895, 9.4828], [-64.4193, 9.4815], [-64.457, 9.4932], [-64.4831, 9.4886], [-64.5226, 9.4958], [-64.5518, 9.4862], [-64.5607, 9.4864], [-64.5672, 9.3978]]]}}, {"type": "Feature", "properties": {"municipio": "Aragua", "estado": "Anzoátegui", "gid": "VEN.2.2_1"}, "geometry": {"type": "Polygon", "coordinates": [[[-64.5607, 9.4864], [-64.5723, 9.4889], [-64.6777, 9.5663], [-64.7278, 9.5822], [-64.7408, 9.6009], [-64.7577, 9.6672], [-64.7857, 9.6885], [-64.8792, 9.7354], [-64.8896, 9.7473], [-64.9068, 9.7321], [-64.9749, 9.7381], [-65.0583, 9.563], [-65.0603, 9.3614], [-65.0637, 9.3572], [-64.9399, 9.2386], [-64.919, 9.1792], [-64.9084, 9.1777], [-64.8936, 9.2013], [-64.8734, 9.1519], [-64.8543, 9.1445], [-64.8505, 9.1651], [-64.8399, 9.1658], [-64.8032, 9.1406], [-64.8, 9.1167], [-64.8112, 9.0274], [-64.7746, 8.9523], [-64.7535, 8.8885], [-64.7541, 8.8718], [-64.7278, 8.8288], [-64.5978, 8.8448], [-64.3328, 8.7634], [-64.4153, 8.9512], [-64.5265, 8.9962], [-64.5808, 9.0028], [-64.6176, 9.032], [-64.662, 9.0541], [-64.6944, 9.1087], [-64.7069, 9.1415], [-64.6992, 9.1947], [-64.7172, 9.21], [-64.6925, 9.2582], [-64.6966, 9.313], [-64.704, 9.3213], [-64.6774, 9.369], [-64.6224, 9.3684], [-64.5674, 9.3976], [-64.5607, 9.4864]]]}}, {"type": "Feature", "properties": {"municipio": "Bolívar", "estado": "Anzoátegui", "gid": "VEN.2.3_1"}, "geometry": {"type": "Polygon", "coordinates": [[[-64.9068, 9.7321], [-64.8705, 9.7641], [-64.8322, 9.8944], [-64.7541, 9.8585], [-64.6601, 9.8692], [-64.5234, 9.8644], [-64.466, 9.8779], [-64.3922, 9.9346], [-64.2713, 9.9396], [-64.2541, 9.9549], [-64.2328, 10.0051], [-64.2459, 10.009], [-64.2625, 10.0209], [-64.2929, 10.0326], [-64.3425, 10.0305], [-64.3613, 10.0332], [-64.3733, 10.0436], [-64.4026, 10.1224], [-64.4129, 10.1469], [-64.4399, 10.1944], [-64.4385, 10.1874], [-64.4455, 10.1317], [-64.4614, 10.0967], [-64.5133, 10.0881], [-64.5622, 10.0995], [-64.5893, 10.1145], [-64.6278, 10.1782], [-64.6441, 10.1916], [-64.6609, 10.1988], [-64.6965, 10.1949], [-64.7001, 10.1765], [-64.711, 10.1701], [-64.7076, 10.1576], [-64.7176, 10.1282], [-64.7521, 10.1037], [-64.8446, 10.0835], [-64.8568, 10.084], [-64.8557, 10.1024], [-64.8576, 10.084], [-64.8807, 10.086], [-64.8774, 10.1043], [-64.8842, 10.0863], [-64.8723, 10.0149], [-64.9456, 9.9745], [-64.9104, 9.8686], [-64.9749, 9.7381], [-64.9068, 9.7321]]]}}, {"type": "Feature", "properties": {"municipio": "Bruzual", "estado": "Anzoátegui", "gid": "VEN.2.4_1"}, "geometry": {"type": "Polygon", "coordinates": [[[-65.3543, 10.036], [-65.3751, 10.0218], [-65.4124, 10.0202], [-65.4742, 10.0601], [-65.5071, 10.0324], [-65.565, 10.0083], [-65.5995, 9.99], [-65.6162, 9.9835], [-65.6071, 9.9454], [-65.5721, 9.9351], [-65.6146, 9.8912], [-65.6345, 9.8561], [-65.6487, 9.7898], [-65.4701, 9.7912], [-65.4365, 9.7625], [-65.3885, 9.7613], [-65.3646, 9.7498], [-65.3604, 9.7198], [-65.3714, 9.6927], [-65.3644, 9.6911], [-65.2959, 9.6915], [-65.2911, 9.7172], [-65.2615, 9.7417], [-65.2126, 9.7491], [-65.1875, 9.7621], [-65.1304, 9.7754], [-65.1193, 9.7899], [-65.1174, 9.8274], [-65.1069, 9.8371], [-65.115, 9.9203], [-65.1103, 10.0123], [-65.2104, 10.0063], [-65.2441, 10.0361], [-65.2694, 10.0461], [-65.3192, 10.0314], [-65.3543, 10.036]]]}}, {"type": "Feature", "properties": {"municipio": "Cajigal", "estado": "Anzoátegui", "gid": "VEN.2.5_1"}, "geometry": {"type": "Polygon", "coordinates": [[[-64.9749, 9.7381], [-64.949, 9.7906], [-65.1022, 9.792], [-65.1069, 9.8371], [-65.1174, 9.8274], [-65.1193, 9.7899], [-65.1304, 9.7754], [-65.1875, 9.7621], [-65.2126, 9.7491], [-65.2615, 9.7417], [-65.2911, 9.7172], [-65.2959, 9.6915], [-65.3644, 9.6911], [-65.3714, 9.6927], [-65.3604, 9.7198], [-65.3646, 9.7498], [-65.3885, 9.7613], [-65.4365, 9.7625], [-65.4701, 9.7912], [-65.6885, 9.7894], [-65.6978, 9.7605], [-65.7021, 9.7352], [-65.7014, 9.7229], [-65.6974, 9.711], [-65.6663, 9.6674], [-65.5764, 9.604], [-65.5232, 9.5683], [-65.5046, 9.5764], [-65.4721, 9.6137], [-65.4314, 9.639], [-65.41, 9.6402], [-65.3827, 9.6117], [-65.318, 9.554], [-65.1995, 9.4995], [-65.1858, 9.4747], [-65.181, 9.4392], [-65.1866, 9.433], [-65.1515, 9.4268], [-65.1101, 9.4073], [-65.0658, 9.3565], [-65.0603, 9.3614], [-65.0583, 9.563], [-64.9749, 9.7381]]]}}, {"type": "Feature", "properties": {"municipio": "Carvajal", "estado": "Anzoátegui", "gid": "VEN.2.6_1"}, "geometry": {"type": "Polygon", "coordinates": [[[-65.6162, 9.9835], [-65.6637, 9.9722], [-65.7266, 9.9679], [-65.7207, 9.9272], [-65.6815, 9.8334], [-65.6885, 9.7894], [-65.6487, 9.7898], [-65.6345, 9.8561], [-65.6146, 9.8912], [-65.5721, 9.9351], [-65.6071, 9.9454], [-65.6162, 9.9835]]]}}, {"type": "Feature", "properties": {"municipio": "Fernandode Peñalver", "estado": "Anzoátegui", "gid": "VEN.2.7_1"}, "geometry": {"type": "MultiPolygon", "coordinates": [[[[-64.8723, 10.0149], [-64.8841, 10.086], [-64.8946, 10.0882], [-64.8913, 10.1065], [-64.8957, 10.0876], [-64.9496, 10.0979], [-65.0001, 10.0754], [-65.0471, 10.0665], [-65.0626, 10.0529], [-65.1885, 10.0388], [-65.2079, 10.0429], [-65.2001, 10.0499], [-65.1896, 10.0465], [-65.1871, 10.0543], [-65.1829, 10.0493], [-65.1843, 10.0746], [-65.1749, 10.0599], [-65.1582, 10.0524], [-65.1568, 10.0596], [-65.1637, 10.0693], [-65.1732, 10.0682], [-65.1729, 10.0768], [-65.156, 10.0668], [-65.1551, 10.0571], [-65.1415, 10.0596], [-65.1679, 10.0779], [-65.1665, 10.0835], [-65.1043, 10.0651], [-65.0587, 10.0599], [-65.119, 10.071], [-65.2085, 10.1001], [-65.3296, 10.1185], [-65.3307, 10.0712], [-65.3543, 10.036], [-65.3192, 10.0314], [-65.2694, 10.0461], [-65.2441, 10.0361], [-65.2104, 10.0063], [-65.1103, 10.0123], [-65.115, 9.9203], [-65.1053, 9.8219], [-65.1013, 9.8174], [-65.0848, 9.8263], [-65.0724, 9.8616], [-65.0625, 9.902], [-65.0687, 9.9985], [-65.0561, 10.0246], [-65.0008, 10.0653], [-64.9934, 10.0588], [-64.9891, 10.0286], [-64.9607, 10.0146], [-64.9698, 9.9623], [-64.9932, 9.9281], [-65.0301, 9.9064], [-65.0333, 9.8971], [-65.0277, 9.8819], [-65.0028, 9.863], [-64.9801, 9.8314], [-64.9982, 9.7911], [-64.949, 9.7906], [-64.9104, 9.8686], [-64.9456, 9.9745], [-64.8723, 10.0149]]], [[[-64.9332, 10.1549], [-64.9432, 10.1515], [-64.9285, 10.1424], [-64.9121, 10.1438], [-64.9332, 10.1549]]], [[[-64.9526, 10.1674], [-64.9768, 10.1638], [-64.9671, 10.1576], [-64.9415, 10.1624], [-64.9526, 10.1674]]]]}}, {"type": "Feature", "properties": {"municipio": "Freites", "estado": "Anzoátegui", "gid": "VEN.2.8_1"}, "geometry": {"type": "Polygon", "coordinates": [[[-64.4153, 8.9512], [-64.3328, 8.7634], [-64.2996, 8.8453], [-64.2662, 8.8598], [-64.2227, 8.8614], [-64.1867, 8.87], [-64.146, 8.8698], [-64.1256, 8.8595], [-64.1065, 8.8827], [-64.0737, 8.8706], [-63.9701, 8.8553], [-63.9193, 8.8652], [-63.8177, 8.8471], [-63.7638, 8.8523], [-63.7327, 8.8381], [-63.684, 8.8349], [-63.605, 8.8147], [-63.5413, 8.7867], [-63.3705, 8.9264], [-63.4011, 8.9985], [-63.4229, 9.0181], [-63.4696, 9.0419], [-63.5348, 9.0959], [-63.5949, 9.1267], [-63.6045, 9.1621], [-63.6139, 9.1723], [-63.6516, 9.1777], [-63.6964, 9.2009], [-63.7214, 9.2075], [-63.8056, 9.2093], [-63.889, 9.1909], [-63.9145, 9.1919], [-63.9284, 9.2053], [-63.94, 9.2411], [-63.9757, 9.2759], [-63.9861, 9.3029], [-63.9773, 9.3721], [-63.9768, 9.3989], [-63.9724, 9.4127], [-63.9589, 9.4305], [-63.9393, 9.4493], [-63.8339, 9.5435], [-63.9518, 9.6986], [-63.9544, 9.7517], [-63.946, 9.8064], [-63.9266, 9.8463], [-63.9554, 9.877], [-63.975, 9.8863], [-63.9814, 9.8999], [-64.0103, 9.8961], [-64.029, 9.8995], [-64.0437, 9.9153], [-64.0564, 9.9426], [-64.0565, 9.9901], [-64.0437, 10.0064], [-63.9839, 10.017], [-63.963, 10.0354], [-63.9434, 10.0724], [-64.0413, 10.0583], [-64.0805, 10.0383], [-64.1344, 10.0244], [-64.1369, 10.0123], [-64.1529, 9.9706], [-64.1748, 9.9435], [-64.1523, 9.9049], [-64.2002, 9.8231], [-64.3267, 9.6793], [-64.4007, 9.6075], [-64.4594, 9.5119], [-64.4836, 9.4887], [-64.457, 9.4932], [-64.4193, 9.4815], [-64.3895, 9.4828], [-64.366, 9.4734], [-64.3507, 9.4623], [-64.3504, 9.3777], [-64.3893, 9.3269], [-64.3963, 9.2714], [-64.3778, 9.1803], [-64.3834, 9.0905], [-64.3578, 9.025], [-64.4153, 8.9512]]]}}, {"type": "Feature", "properties": {"municipio": "General Sir Arthur Mc Gregor", "estado": "Anzoátegui", "gid": "VEN.2.9_1"}, "geometry": {"type": "Polygon", "coordinates": [[[-65.0637, 9.3572], [-65.0658, 9.3565], [-65.1101, 9.4073], [-65.1515, 9.4268], [-65.1866, 9.433], [-65.2193, 9.4071], [-65.2573, 9.3818], [-65.2626, 9.3601], [-65.2391, 9.3128], [-65.2036, 9.2053], [-65.1762, 9.0814], [-65.1361, 9.0655], [-65.0815, 9.0646], [-64.9794, 9.0055], [-64.9634, 8.9649], [-64.9194, 8.9316], [-64.8819, 8.8817], [-64.8444, 8.8571], [-64.7978, 8.8208], [-64.7278, 8.8288], [-64.7541, 8.8718], [-64.7535, 8.8885], [-64.7746, 8.9523], [-64.8112, 9.0274], [-64.8, 9.1167], [-64.8032, 9.1406], [-64.8399, 9.1658], [-64.8505, 9.1651], [-64.8543, 9.1445], [-64.8734, 9.1519], [-64.8936, 9.2013], [-64.9084, 9.1777], [-64.919, 9.1792], [-64.9399, 9.2386], [-65.0637, 9.3572]]]}}, {"type": "Feature", "properties": {"municipio": "Guanipa", "estado": "Anzoátegui", "gid": "VEN.2.10_1"}, "geometry": {"type": "Polygon", "coordinates": [[[-64.2143, 8.8637], [-64.0354, 8.7181], [-63.9979, 8.7046], [-63.9657, 8.6496], [-63.963, 8.6035], [-63.952, 8.5645], [-63.8683, 8.6018], [-63.8097, 8.6673], [-63.7607, 8.6883], [-63.7132, 8.6948], [-63.6541, 8.7162], [-63.6057, 8.7393], [-63.5413, 8.7867], [-63.605, 8.8147], [-63.684, 8.8349], [-63.7327, 8.8381], [-63.7638, 8.8523], [-63.8177, 8.8471], [-63.9193, 8.8652], [-63.9701, 8.8553], [-64.0737, 8.8706], [-64.1065, 8.8827], [-64.1256, 8.8595], [-64.146, 8.8698], [-64.1867, 8.87], [-64.2143, 8.8637]]]}}, {"type": "Feature", "properties": {"municipio": "Guanta", "estado": "Anzoátegui", "gid": "VEN.2.11_1"}, "geometry": {"type": "Polygon", "coordinates": [[[-64.488, 10.2426], [-64.5285, 10.2529], [-64.5276, 10.2446], [-64.5421, 10.2374], [-64.5468, 10.2529], [-64.5779, 10.2379], [-64.5832, 10.2449], [-64.5793, 10.2565], [-64.5899, 10.254], [-64.5896, 10.2432], [-64.6012, 10.2468], [-64.5974, 10.2571], [-64.6254, 10.2535], [-64.6085, 10.2504], [-64.6168, 10.246], [-64.6115, 10.2317], [-64.5961, 10.1895], [-64.5577, 10.172], [-64.495, 10.1891], [-64.488, 10.2426]]]}}, {"type": "Feature", "properties": {"municipio": "Independencia", "estado": "Anzoátegui", "gid": "VEN.2.12_1"}, "geometry": {"type": "Polygon", "coordinates": [[[-63.5413, 8.7867], [-63.6057, 8.7393], [-63.6541, 8.7162], [-63.7132, 8.6948], [-63.7607, 8.6883], [-63.8097, 8.6673], [-63.8683, 8.6018], [-63.952, 8.5645], [-63.9509, 8.5553], [-63.9535, 8.5152], [-63.9649, 8.4265], [-63.9647, 8.3925], [-63.9425, 8.3638], [-63.93, 8.3281], [-63.9022, 8.3042], [-63.8723, 8.2461], [-63.831, 8.1985], [-63.7707, 8.0826], [-63.693, 8.1093], [-63.5364, 8.1074], [-63.4856, 8.1233], [-63.4443, 8.1175], [-63.4021, 8.1238], [-63.3843, 8.1321], [-63.3514, 8.1647], [-63.3079, 8.1603], [-63.2654, 8.1717], [-63.1944, 8.2404], [-63.1618, 8.2511], [-63.1412, 8.2608], [-63.1239, 8.2629], [-63.0939, 8.2611], [-63.0566, 8.2645], [-63.0264, 8.2547], [-62.9675, 8.2588], [-62.9675, 8.2897], [-62.9407, 8.28], [-62.9055, 8.2761], [-62.8959, 8.2698], [-62.848, 8.2291], [-62.8253, 8.2255], [-62.7909, 8.2473], [-62.7488, 8.3093], [-62.7172, 8.3286], [-62.6688, 8.3245], [-62.6494, 8.3225], [-62.6574, 8.3345], [-62.666, 8.3416], [-62.674, 8.3528], [-62.6814, 8.3837], [-62.6911, 8.4021], [-62.699, 8.4089], [-62.7406, 8.4225], [-62.8586, 8.4601], [-62.9225, 8.4773], [-62.9693, 8.4919], [-62.9874, 8.4997], [-63.0052, 8.5097], [-63.0318, 8.5435], [-63.0582, 8.6247], [-63.065, 8.6499], [-63.0325, 8.6855], [-63.0077, 8.6949], [-62.9768, 8.6929], [-62.9624, 8.6988], [-62.9482, 8.7175], [-62.946, 8.7287], [-63.2924, 8.7411], [-63.2947, 8.7521], [-63.3705, 8.9264], [-63.5413, 8.7867]]]}}, {"type": "Feature", "properties": {"municipio": "Isla", "estado": "Anzoátegui", "gid": "VEN.2.13_1"}, "geometry": {"type": "MultiPolygon", "coordinates": [[[[-64.5443, 10.2729], [-64.5543, 10.2621], [-64.5404, 10.2551], [-64.5443, 10.2729]]], [[[-64.6146, 10.2757], [-64.6399, 10.2696], [-64.6343, 10.2643], [-64.6429, 10.2565], [-64.6146, 10.2757]]], [[[-64.5982, 10.2949], [-64.6079, 10.2907], [-64.586, 10.2918], [-64.5982, 10.2949]]], [[[-64.7421, 10.2726], [-64.7485, 10.2668], [-64.741, 10.2668], [-64.7421, 10.2726]]], [[[-64.7337, 10.3149], [-64.7568, 10.2957], [-64.7404, 10.2765], [-64.7251, 10.3099], [-64.7337, 10.3149]]], [[[-64.634, 10.3054], [-64.6657, 10.3043], [-64.6646, 10.2924], [-64.6749, 10.2885], [-64.6643, 10.2854], [-64.6571, 10.2929], [-64.6554, 10.2857], [-64.6376, 10.2899], [-64.6265, 10.2854], [-64.629, 10.2793], [-64.6118, 10.2793], [-64.6099, 10.2857], [-64.6288, 10.2893], [-64.6229, 10.2968], [-64.634, 10.3054]]], [[[-64.6776, 10.3043], [-64.6832, 10.301], [-64.6804, 10.2915], [-64.6776, 10.3043]]]]}}, {"type": "Feature", "properties": {"municipio": "Libertad", "estado": "Anzoátegui", "gid": "VEN.2.14_1"}, "geometry": {"type": "Polygon", "coordinates": [[[-64.4836, 9.4887], [-64.4594, 9.5119], [-64.4007, 9.6075], [-64.3267, 9.6793], [-64.2002, 9.8231], [-64.1523, 9.9049], [-64.1748, 9.9435], [-64.1529, 9.9706], [-64.1369, 10.0123], [-64.1344, 10.0244], [-64.179, 10.0066], [-64.1908, 10.0035], [-64.2328, 10.0051], [-64.2541, 9.9549], [-64.2713, 9.9396], [-64.3922, 9.9346], [-64.466, 9.8779], [-64.5234, 9.8644], [-64.6601, 9.8692], [-64.7541, 9.8585], [-64.8322, 9.8944], [-64.8705, 9.7641], [-64.8896, 9.7473], [-64.888, 9.7453], [-64.8792, 9.7354], [-64.7857, 9.6885], [-64.7577, 9.6672], [-64.7408, 9.6009], [-64.7278, 9.5822], [-64.6777, 9.5663], [-64.5723, 9.4889], [-64.5518, 9.4862], [-64.5226, 9.4958], [-64.4836, 9.4887]]]}}, {"type": "Feature", "properties": {"municipio": "Lic.Diego Bautista Urban", "estado": "Anzoátegui", "gid": "VEN.2.15_1"}, "geometry": {"type": "MultiPolygon", "coordinates": [[[[-64.6965, 10.1949], [-64.6609, 10.1988], [-64.6687, 10.2054], [-64.7024, 10.2043], [-64.6965, 10.1949]]], [[[-64.7029, 10.2043], [-64.7071, 10.2249], [-64.7138, 10.209], [-64.7029, 10.2043]]]]}}, {"type": "Feature", "properties": {"municipio": "Miranda", "estado": "Anzoátegui", "gid": "VEN.2.16_1"}, "geometry": {"type": "Polygon", "coordinates": [[[-64.7278, 8.8288], [-64.7978, 8.8208], [-64.7862, 8.8074], [-64.7673, 8.779], [-64.7607, 8.7558], [-64.7621, 8.741], [-64.7701, 8.7189], [-64.7861, 8.6895], [-64.8186, 8.6401], [-64.841, 8.6136], [-64.8028, 8.583], [-64.7023, 8.5928], [-64.6505, 8.5898], [-64.5617, 8.5644], [-64.5492, 8.5395], [-64.5318, 8.4483], [-64.5211, 8.4251], [-64.3776, 8.3466], [-64.3163, 8.2962], [-64.3084, 8.2707], [-64.2732, 8.2134], [-64.2423, 8.0759], [-64.2482, 8.0438], [-64.2231, 7.9927], [-64.2094, 8.0071], [-64.2019, 8.0305], [-64.1601, 7.986], [-64.1107, 7.9431], [-64.0501, 7.9148], [-63.9687, 7.9042], [-63.8995, 7.9235], [-63.878, 7.9382], [-63.8549, 7.9583], [-63.85, 7.9639], [-63.8293, 7.9993], [-63.8022, 8.0283], [-63.7845, 8.0741], [-63.7707, 8.0826], [-63.831, 8.1985], [-63.8723, 8.2461], [-63.9022, 8.3042], [-63.93, 8.3281], [-63.9425, 8.3638], [-63.9647, 8.3925], [-63.9649, 8.4265], [-63.9535, 8.5152], [-63.9509, 8.5553], [-63.952, 8.5645], [-63.9515, 8.5592], [-63.9961, 8.5856], [-64.0299, 8.5867], [-64.0683, 8.6011], [-64.094, 8.6025], [-64.1293, 8.6359], [-64.1344, 8.6739], [-64.1447, 8.6694], [-64.1745, 8.6976], [-64.2066, 8.7126], [-64.2432, 8.7179], [-64.2796, 8.7416], [-64.3328, 8.7634], [-64.5978, 8.8448], [-64.7278, 8.8288]]]}}, {"type": "Feature", "properties": {"municipio": "Monagas", "estado": "Anzoátegui", "gid": "VEN.2.17_1"}, "geometry": {"type": "Polygon", "coordinates": [[[-64.841, 8.6136], [-64.8502, 8.6088], [-64.9836, 8.6262], [-65.0651, 8.6719], [-65.093, 8.6669], [-65.1219, 8.65], [-65.1448, 8.6178], [-65.15, 8.5769], [-65.1495, 8.5495], [-65.1315, 8.5067], [-65.1307, 8.472], [-65.1614, 8.4209], [-65.2079, 8.2927], [-65.2811, 8.1979], [-65.3017, 8.1606], [-65.3486, 8.1185], [-65.3683, 8.0824], [-65.3691, 8.0569], [-65.4028, 8.0341], [-65.4221, 7.9986], [-65.474, 7.9435], [-65.4868, 7.8856], [-65.4761, 7.8487], [-65.3936, 7.8389], [-65.3519, 7.816], [-65.3318, 7.796], [-65.3298, 7.7451], [-65.3221, 7.7424], [-65.2288, 7.7507], [-65.1661, 7.7305], [-65.0968, 7.7343], [-65.0654, 7.7102], [-65.0206, 7.6989], [-64.9872, 7.6772], [-64.8796, 7.5796], [-64.8411, 7.5767], [-64.8356, 7.5697], [-64.78, 7.5982], [-64.7204, 7.6113], [-64.6593, 7.6446], [-64.641, 7.6683], [-64.5858, 7.6999], [-64.5347, 7.7044], [-64.5123, 7.6969], [-64.4902, 7.6972], [-64.4673, 7.7051], [-64.4516, 7.715], [-64.4466, 7.7495], [-64.4655, 7.7618], [-64.5009, 7.768], [-64.534, 7.7898], [-64.5434, 7.8126], [-64.5459, 7.8769], [-64.5115, 7.9193], [-64.4524, 7.9551], [-64.4006, 7.9606], [-64.3679, 7.9363], [-64.3533, 7.9273], [-64.3454, 7.9258], [-64.336, 7.9294], [-64.3298, 7.9365], [-64.3145, 7.9909], [-64.2811, 8.0343], [-64.2685, 8.0402], [-64.2482, 8.0438], [-64.2423, 8.0759], [-64.2732, 8.2134], [-64.3084, 8.2707], [-64.3163, 8.2962], [-64.3776, 8.3466], [-64.5211, 8.4251], [-64.5318, 8.4483], [-64.5492, 8.5395], [-64.5617, 8.5644], [-64.6505, 8.5898], [-64.7023, 8.5928], [-64.8028, 8.583], [-64.841, 8.6136]]]}}, {"type": "Feature", "properties": {"municipio": "Píritu", "estado": "Anzoátegui", "gid": "VEN.2.18_1"}, "geometry": {"type": "Polygon", "coordinates": [[[-64.9982, 9.7911], [-64.9801, 9.8314], [-65.0028, 9.863], [-65.0277, 9.8819], [-65.0333, 9.8971], [-65.0301, 9.9064], [-64.9932, 9.9281], [-64.9698, 9.9623], [-64.9607, 10.0146], [-64.9891, 10.0286], [-64.9934, 10.0588], [-65.0008, 10.0653], [-65.0561, 10.0246], [-65.0687, 9.9985], [-65.0625, 9.902], [-65.0724, 9.8616], [-65.0848, 9.8263], [-65.1013, 9.8174], [-65.1053, 9.8219], [-65.1022, 9.792], [-64.9982, 9.7911]]]}}, {"type": "Feature", "properties": {"municipio": "San Juande Capistrano", "estado": "Anzoátegui", "gid": "VEN.2.19_1"}, "geometry": {"type": "Polygon", "coordinates": [[[-65.3543, 10.036], [-65.3307, 10.0712], [-65.3296, 10.1185], [-65.3885, 10.1299], [-65.401, 10.1127], [-65.4742, 10.0601], [-65.4124, 10.0202], [-65.3751, 10.0218], [-65.3543, 10.036]]]}}, {"type": "Feature", "properties": {"municipio": "Santa Ana", "estado": "Anzoátegui", "gid": "VEN.2.20_1"}, "geometry": {"type": "Polygon", "coordinates": [[[-64.5672, 9.3978], [-64.6224, 9.3684], [-64.6774, 9.369], [-64.704, 9.3213], [-64.6966, 9.313], [-64.6925, 9.2582], [-64.7172, 9.21], [-64.6992, 9.1947], [-64.7069, 9.1415], [-64.6944, 9.1087], [-64.662, 9.0541], [-64.6176, 9.032], [-64.5808, 9.0028], [-64.5265, 8.9962], [-64.4153, 8.9512], [-64.4688, 9.0723], [-64.5808, 9.2282], [-64.5672, 9.3978]]]}}, {"type": "Feature", "properties": {"municipio": "Simón Rodríguez", "estado": "Anzoátegui", "gid": "VEN.2.21_1"}, "geometry": {"type": "Polygon", "coordinates": [[[-64.3328, 8.7634], [-64.2796, 8.7416], [-64.2432, 8.7179], [-64.2066, 8.7126], [-64.1745, 8.6976], [-64.1447, 8.6694], [-64.1344, 8.6739], [-64.1293, 8.6359], [-64.094, 8.6025], [-64.0683, 8.6011], [-64.0299, 8.5867], [-63.9961, 8.5856], [-63.9515, 8.5592], [-63.963, 8.6035], [-63.9657, 8.6496], [-63.9979, 8.7046], [-64.0354, 8.7181], [-64.2143, 8.8637], [-64.2227, 8.8614], [-64.2662, 8.8598], [-64.2996, 8.8453], [-64.3328, 8.7634]]]}}, {"type": "Feature", "properties": {"municipio": "Sotillo", "estado": "Anzoátegui", "gid": "VEN.2.22_1"}, "geometry": {"type": "Polygon", "coordinates": [[[-64.4385, 10.1874], [-64.4801, 10.244], [-64.488, 10.2426], [-64.495, 10.1891], [-64.5577, 10.172], [-64.5961, 10.1895], [-64.6115, 10.2317], [-64.6212, 10.2446], [-64.6365, 10.2415], [-64.6332, 10.2296], [-64.6443, 10.2154], [-64.6687, 10.2054], [-64.6441, 10.1916], [-64.6278, 10.1782], [-64.5893, 10.1145], [-64.5622, 10.0995], [-64.5133, 10.0881], [-64.4614, 10.0967], [-64.4455, 10.1317], [-64.4385, 10.1874]]]}}]}