{"type": "FeatureCollection", "features": [{"type": "Feature", "properties": {"municipio": "Achaguas", "estado": "Apure", "gid": "VEN.3.1_1"}, "geometry": {"type": "Polygon", "coordinates": [[[-68.6392, 7.9491], [-68.6635, 7.9209], [-68.7004, 7.9041], [-68.7127, 7.88], [-68.7371, 7.8584], [-68.7954, 7.8492], [-68.8007, 7.8501], [-68.8049, 7.8277], [-68.9358, 7.2796], [-68.8353, 6.783], [-68.5837, 6.5484], [-68.5355, 6.5575], [-68.5226, 6.556], [-68.5115, 6.52], [-68.49, 6.504], [-68.4288, 6.5147], [-68.4041, 6.5038], [-68.374, 6.478], [-68.2889, 6.4782], [-68.2357, 6.4707], [-68.1674, 6.4964], [-68.1099, 6.4947], [-68.0705, 6.5015], [-68.0562, 6.5072], [-68.0405, 6.5461], [-68.0288, 6.5527], [-67.9366, 6.5452], [-67.9623, 6.6172], [-68.1107, 6.9227], [-68.0128, 7.2974], [-68.0156, 7.3285], [-68.0585, 7.4452], [-68.058, 7.4586], [-68.0502, 7.4684], [-67.9539, 7.5177], [-67.9106, 7.5185], [-67.8626, 7.5092], [-67.8506, 7.5439], [-67.8451, 7.7047], [-67.8464, 7.7831], [-67.8763, 7.7718], [-67.9075, 7.7724], [-67.959, 7.7911], [-68.067, 7.8729], [-68.128, 7.9076], [-68.1676, 7.9124], [-68.1864, 7.9237], [-68.2347, 7.9414], [-68.2789, 7.9486], [-68.334, 7.9289], [-68.3574, 7.9326], [-68.4154, 7.9647], [-68.4341, 7.9664], [-68.4569, 7.9594], [-68.4801, 7.9376], [-68.516, 7.9352], [-68.5454, 7.9542], [-68.5948, 7.95], [-68.6211, 7.9574], [-68.6392, 7.9491]]]}}, {"type": "Feature", "properties": {"municipio": "Biruaca", "estado": "Apure", "gid": "VEN.3.2_1"}, "geometry": {"type": "Polygon", "coordinates": [[[-67.8492, 7.594], [-67.8118, 7.5795], [-67.7862, 7.5752], [-67.7031, 7.5795], [-67.5207, 7.7287], [-67.518, 7.8394], [-67.5301, 7.8403], [-67.5376, 7.8367], [-67.5385, 7.8255], [-67.5692, 7.8116], [-67.6028, 7.8131], [-67.6151, 7.8347], [-67.6364, 7.8068], [-67.7042, 7.8185], [-67.7716, 7.8044], [-67.846, 7.7614], [-67.8451, 7.7047], [-67.8492, 7.594]]]}}, {"type": "Feature", "properties": {"municipio": "Muñoz", "estado": "Apure", "gid": "VEN.3.3_1"}, "geometry": {"type": "Polygon", "coordinates": [[[-68.8007, 7.8501], [-68.8276, 7.8564], [-68.8625, 7.8547], [-68.9386, 7.8962], [-68.9552, 7.9168], [-68.9652, 7.9655], [-69.0316, 7.979], [-69.0437, 7.9631], [-69.0562, 7.9632], [-69.0955, 7.9797], [-69.1258, 7.9836], [-69.1348, 7.9932], [-69.125, 8.0181], [-69.1314, 8.0524], [-69.1882, 8.0787], [-69.3239, 8.0855], [-69.3594, 8.0595], [-69.4337, 8.0992], [-69.4515, 8.1001], [-69.4637, 8.0931], [-69.4784, 8.0664], [-69.4908, 8.0497], [-69.5487, 8.0351], [-69.5658, 8.0243], [-69.5887, 7.9668], [-69.6007, 7.9548], [-69.6389, 7.9398], [-69.7079, 7.8807], [-69.7374, 7.8684], [-69.7723, 7.8176], [-69.7882, 7.8073], [-69.851, 7.7924], [-69.9271, 7.7395], [-69.9359, 7.7181], [-69.9221, 7.7297], [-69.8889, 7.6994], [-69.6854, 7.4827], [-69.631, 7.3185], [-69.6124, 7.3019], [-69.5633, 7.2458], [-69.482, 7.1407], [-69.4748, 7.1396], [-69.4497, 7.1605], [-69.4248, 7.1603], [-69.1622, 7.0983], [-69.1006, 7.1546], [-69.0288, 7.191], [-68.9786, 7.2576], [-68.96, 7.2754], [-68.9342, 7.2866], [-68.8049, 7.8277], [-68.8007, 7.8501]]]}}, {"type": "Feature", "properties": {"municipio": "Páez", "estado": "Apure", "gid": "VEN.3.4_1"}, "geometry": {"type": "Polygon", "coordinates": [[[-70.1247, 6.9793], [-70.0893, 7.0025], [-70.0934, 7.0102], [-70.3895, 7.2116], [-70.3405, 7.2183], [-70.2899, 7.1946], [-70.2515, 7.1891], [-70.2239, 7.1939], [-70.1497, 7.2275], [-70.1025, 7.2329], [-69.9519, 7.2104], [-69.8698, 7.2097], [-69.8011, 7.2375], [-69.6852, 7.2419], [-69.6404, 7.2718], [-69.6107, 7.3], [-69.631, 7.3185], [-69.6854, 7.4827], [-69.8889, 7.6994], [-69.9221, 7.7297], [-69.9359, 7.7181], [-69.9444, 7.7082], [-70.0077, 7.7101], [-70.0954, 7.6849], [-70.1593, 7.6339], [-70.1544, 7.605], [-70.16, 7.5962], [-70.2052, 7.5679], [-70.2245, 7.5634], [-70.2927, 7.5725], [-70.3208, 7.5631], [-70.3936, 7.4446], [-70.4404, 7.4194], [-70.5076, 7.4128], [-70.5135, 7.3851], [-70.5223, 7.3887], [-70.5227, 7.3804], [-70.5352, 7.3749], [-70.5614, 7.3786], [-70.5802, 7.3607], [-70.62, 7.3451], [-70.6331, 7.3456], [-70.639, 7.3576], [-70.665, 7.3639], [-70.7041, 7.3364], [-70.7714, 7.3038], [-70.8745, 7.353], [-70.9296, 7.3285], [-70.9701, 7.3268], [-71.0996, 7.3846], [-71.1717, 7.3993], [-71.2006, 7.3886], [-71.2499, 7.4185], [-71.2937, 7.4277], [-71.3901, 7.4187], [-71.4636, 7.4259], [-71.5719, 7.4154], [-71.6656, 7.3835], [-71.704, 7.3894], [-71.7264, 7.3767], [-71.7494, 7.3994], [-71.7474, 7.4249], [-71.7779, 7.4385], [-71.7943, 7.4362], [-71.8231, 7.4293], [-71.8877, 7.3529], [-71.947, 7.3253], [-71.9752, 7.3206], [-72.0651, 7.3493], [-72.1123, 7.3785], [-72.1649, 7.4178], [-72.2481, 7.4618], [-72.3384, 7.4712], [-72.3861, 7.4629], [-72.4414, 7.4367], [-72.4407, 7.4194], [-72.4279, 7.4008], [-72.3496, 7.3921], [-72.3251, 7.3747], [-72.2911, 7.3918], [-72.2513, 7.381], [-72.2418, 7.3913], [-72.2211, 7.3955], [-72.1954, 7.3852], [-72.1804, 7.3556], [-72.1536, 7.3284], [-72.1699, 7.2923], [-72.1674, 7.2724], [-72.174, 7.2575], [-72.085, 7.1275], [-72.0276, 7.0273], [-72.0068, 7.0079], [-71.8433, 7.0172], [-71.8248, 7.0309], [-71.8248, 7.056], [-71.783, 7.0678], [-71.7583, 7.0657], [-71.7454, 7.0811], [-71.739, 7.0638], [-71.7219, 7.0567], [-71.7088, 7.0326], [-71.6883, 7.0378], [-71.6613, 7.0335], [-71.643, 7.0546], [-71.6142, 7.0429], [-71.5868, 7.0529], [-71.5891, 7.0182], [-71.5444, 7.0329], [-71.5295, 7.0344], [-71.5142, 7.0246], [-71.4976, 7.0339], [-71.4787, 7.0153], [-71.4669, 7.0415], [-71.4599, 7.0389], [-71.4547, 7.0097], [-71.45, 7.0277], [-71.4372, 7.0247], [-71.4265, 7.0386], [-71.3924, 7.0353], [-71.3719, 7.0158], [-71.3265, 7.0183], [-71.2983, 7.0289], [-71.2833, 7.0247], [-71.2669, 7.0327], [-71.2593, 7.0201], [-71.2414, 7.0117], [-71.2289, 7.0274], [-71.1915, 7.0195], [-71.1305, 7.0336], [-71.1225, 7.0128], [-71.1031, 7.0083], [-71.1088, 7.0024], [-71.1157, 7.0074], [-71.1121, 6.9907], [-71.022, 6.9743], [-70.9954, 6.9836], [-70.9706, 7.0164], [-70.94, 7.0139], [-70.9224, 7.0238], [-70.9273, 7.0467], [-70.9178, 7.0534], [-70.9068, 7.0424], [-70.8883, 7.0641], [-70.8502, 7.0572], [-70.8464, 7.0703], [-70.8576, 7.071], [-70.8536, 7.078], [-70.8375, 7.079], [-70.8229, 7.0703], [-70.8185, 7.0794], [-70.7974, 7.0836], [-70.7776, 7.077], [-70.7624, 7.0975], [-70.7382, 7.089], [-70.6988, 7.0938], [-70.686, 7.1042], [-70.6731, 7.0856], [-70.6467, 7.0786], [-70.642, 7.0693], [-70.607, 7.0643], [-70.5859, 7.0691], [-70.585, 7.076], [-70.5709, 7.0812], [-70.5565, 7.0797], [-70.5351, 7.0552], [-70.5413, 7.0509], [-70.532, 7.0473], [-70.5386, 7.0404], [-70.5283, 7.0421], [-70.5108, 7.0276], [-70.5147, 7.0213], [-70.5026, 7.006], [-70.4905, 7.0094], [-70.4671, 7.0009], [-70.4547, 7.0126], [-70.4549, 7.0041], [-70.4392, 7.0085], [-70.437, 7.0016], [-70.4306, 7.0079], [-70.4172, 6.9819], [-70.4044, 6.9885], [-70.3976, 6.9821], [-70.3723, 6.9817], [-70.3599, 6.9562], [-70.3518, 6.9569], [-70.3541, 6.952], [-70.3238, 6.9354], [-70.265, 6.942], [-70.224, 6.9751], [-70.1731, 6.9766], [-70.1492, 6.9847], [-70.1335, 6.9755], [-70.1247, 6.9793]]]}}, {"type": "Feature", "properties": {"municipio": "Pedro Camejo", "estado": "Apure", "gid": "VEN.3.5_1"}, "geometry": {"type": "Polygon", "coordinates": [[[-69.529, 6.2322], [-69.4269, 6.1022], [-69.3624, 6.1374], [-69.346, 6.1392], [-69.3255, 6.124], [-69.3138, 6.0928], [-69.2806, 6.0614], [-69.257, 6.0634], [-69.2149, 6.0868], [-69.2008, 6.1287], [-69.149, 6.1502], [-69.1279, 6.2039], [-69.1103, 6.2142], [-69.0689, 6.2084], [-69.0363, 6.2124], [-69.0073, 6.1978], [-68.9886, 6.2057], [-68.9295, 6.1658], [-68.9166, 6.1758], [-68.8903, 6.1727], [-68.8362, 6.1819], [-68.8133, 6.1748], [-68.7917, 6.1547], [-68.7422, 6.1664], [-68.6978, 6.1521], [-68.6887, 6.1366], [-68.6438, 6.1282], [-68.6024, 6.1617], [-68.5769, 6.1653], [-68.5446, 6.1457], [-68.4502, 6.1858], [-68.4099, 6.1841], [-68.3202, 6.1629], [-68.3002, 6.1722], [-68.2757, 6.1688], [-68.2626, 6.1755], [-68.2461, 6.2], [-68.2033, 6.2119], [-68.1683, 6.2117], [-68.125, 6.237], [-68.0601, 6.2099], [-68.0111, 6.2096], [-67.9827, 6.193], [-67.902, 6.2318], [-67.884, 6.2649], [-67.8449, 6.2799], [-67.8235, 6.3066], [-67.7813, 6.32], [-67.7612, 6.2911], [-67.7451, 6.2946], [-67.7165, 6.288], [-67.6654, 6.302], [-67.6231, 6.2907], [-67.6099, 6.2799], [-67.5938, 6.2853], [-67.5802, 6.2739], [-67.5475, 6.2791], [-67.5353, 6.2535], [-67.4843, 6.219], [-67.4629, 6.1917], [-67.4909, 6.1493], [-67.3987, 6.2189], [-67.3314, 6.2508], [-67.288, 6.3077], [-67.2466, 6.3213], [-67.2069, 6.3699], [-67.1342, 6.4283], [-67.1273, 6.4406], [-67.1163, 6.5587], [-67.0871, 6.6498], [-67.0463, 6.7381], [-67.0256, 6.8578], [-67.0347, 6.8824], [-67.0668, 6.9162], [-67.0795, 6.9445], [-67.0859, 6.9917], [-67.0779, 7.0443], [-67.0519, 7.0758], [-67.0378, 7.0815], [-67.0096, 7.0834], [-67.0654, 7.132], [-67.113, 7.1561], [-67.1249, 7.1691], [-67.1332, 7.1999], [-67.1288, 7.2506], [-67.1809, 7.2889], [-67.2094, 7.3431], [-67.2847, 7.3665], [-67.3233, 7.3977], [-67.3796, 7.4194], [-67.4306, 7.456], [-67.4693, 7.474], [-67.3198, 7.6078], [-67.3898, 7.6221], [-67.4308, 7.6228], [-67.4974, 7.5809], [-67.5731, 7.5965], [-67.6377, 7.5829], [-67.7862, 7.5752], [-67.8118, 7.5795], [-67.8492, 7.594], [-67.8506, 7.5439], [-67.8626, 7.5092], [-67.9106, 7.5185], [-67.9539, 7.5177], [-68.0502, 7.4684], [-68.058, 7.4586], [-68.0585, 7.4452], [-68.0156, 7.3285], [-68.0128, 7.2974], [-68.1107, 6.9227], [-67.9623, 6.6172], [-67.9366, 6.5452], [-68.0288, 6.5527], [-68.0405, 6.5461], [-68.0562, 6.5072], [-68.0705, 6.5015], [-68.1099, 6.4947], [-68.1674, 6.4964], [-68.2357, 6.4707], [-68.2889, 6.4782], [-68.374, 6.478], [-68.4041, 6.5038], [-68.4288, 6.5147], [-68.49, 6.504], [-68.5115, 6.52], [-68.5226, 6.556], [-68.5355, 6.5575], [-68.6705, 6.5219], [-68.7134, 6.4896], [-68.7636, 6.4685], [-68.8219, 6.4564], [-68.8768, 6.4569], [-68.9595, 6.4123], [-69.0828, 6.4013], [-69.1617, 6.3839], [-69.2598, 6.3154], [-69.3582, 6.314], [-69.4848, 6.2858], [-69.5093, 6.2736], [-69.529, 6.2322]]]}}, {"type": "Feature", "properties": {"municipio": "Rómulo Gallegos", "estado": "Apure", "gid": "VEN.3.6_1"}, "geometry": {"type": "Polygon", "coordinates": [[[-70.1247, 6.9793], [-70.0103, 6.8442], [-69.529, 6.2322], [-69.5093, 6.2736], [-69.4848, 6.2858], [-69.3582, 6.314], [-69.2598, 6.3154], [-69.1617, 6.3839], [-69.0828, 6.4013], [-68.9595, 6.4123], [-68.8768, 6.4569], [-68.8219, 6.4564], [-68.7636, 6.4685], [-68.7134, 6.4896], [-68.6705, 6.5219], [-68.5837, 6.5484], [-68.8353, 6.783], [-68.9358, 7.2796], [-68.9342, 7.2866], [-68.96, 7.2754], [-68.9786, 7.2576], [-69.0288, 7.191], [-69.1006, 7.1546], [-69.1622, 7.0983], [-69.4248, 7.1603], [-69.4497, 7.1605], [-69.4748, 7.1396], [-69.482, 7.1407], [-69.5633, 7.2458], [-69.6107, 7.3], [-69.6404, 7.2718], [-69.6852, 7.2419], [-69.8011, 7.2375], [-69.8698, 7.2097], [-69.9519, 7.2104], [-70.1025, 7.2329], [-70.1497, 7.2275], [-70.2239, 7.1939], [-70.2515, 7.1891], [-70.2899, 7.1946], [-70.3405, 7.2183], [-70.3895, 7.2116], [-70.0934, 7.0102], [-70.0893, 7.0025], [-70.1247, 6.9793]]]}}, {"type": "Feature", "properties": {"municipio": "San Fernando", "estado": "Apure", "gid": "VEN.3.7_1"}, "geometry": {"type": "Polygon", "coordinates": [[[-67.7031, 7.5795], [-67.6377, 7.5829], [-67.5731, 7.5965], [-67.4974, 7.5809], [-67.4308, 7.6228], [-67.3898, 7.6221], [-67.3198, 7.6078], [-67.4693, 7.474], [-67.4306, 7.456], [-67.3796, 7.4194], [-67.3233, 7.3977], [-67.2847, 7.3665], [-67.2094, 7.3431], [-67.1809, 7.2889], [-67.1288, 7.2506], [-67.1332, 7.1999], [-67.1249, 7.1691], [-67.113, 7.1561], [-67.0654, 7.132], [-67.0096, 7.0834], [-66.9878, 7.0872], [-66.9258, 7.0928], [-66.8674, 7.1436], [-66.763, 7.1766], [-66.602, 7.2425], [-66.475, 7.3899], [-66.4586, 7.4219], [-66.3893, 7.5033], [-66.3153, 7.5543], [-66.3033, 7.555], [-66.3192, 7.5963], [-66.3145, 7.5977], [-66.3326, 7.6087], [-66.3633, 7.6614], [-66.3836, 7.6726], [-66.4411, 7.6787], [-66.472, 7.7035], [-66.5093, 7.7693], [-66.5353, 7.7926], [-66.5699, 7.8024], [-66.6053, 7.7794], [-66.7014, 7.7568], [-66.7056, 7.7444], [-66.6951, 7.7154], [-66.6967, 7.6947], [-66.7358, 7.6865], [-66.792, 7.6906], [-66.8134, 7.679], [-66.8382, 7.6913], [-66.8717, 7.7344], [-66.9557, 7.7664], [-67.0445, 7.7902], [-67.1565, 7.7943], [-67.1929, 7.8168], [-67.3156, 7.8342], [-67.4094, 7.8787], [-67.4377, 7.8803], [-67.4568, 7.8536], [-67.5004, 7.8483], [-67.5185, 7.8488], [-67.5207, 7.7287], [-67.7031, 7.5795]]]}}]}