{"type": "FeatureCollection", "features": [{"type": "Feature", "properties": {"municipio": "Bolívar", "estado": "Aragua", "gid": "VEN.4.1_1"}, "geometry": {"type": "Polygon", "coordinates": [[[-67.347, 10.304], [-67.3588, 10.2956], [-67.3704, 10.2583], [-67.3967, 10.2353], [-67.3988, 10.225], [-67.3955, 10.2099], [-67.3881, 10.2036], [-67.3743, 10.1987], [-67.3408, 10.211], [-67.3275, 10.2362], [-67.3307, 10.2648], [-67.347, 10.304]]]}}, {"type": "Feature", "properties": {"municipio": "Camatagua", "estado": "Aragua", "gid": "VEN.4.2_1"}, "geometry": {"type": "Polygon", "coordinates": [[[-67.0695, 9.9119], [-67.0811, 9.8684], [-67.0895, 9.8577], [-67.1087, 9.8531], [-67.0842, 9.8288], [-67.0582, 9.8247], [-67.0122, 9.7873], [-66.9839, 9.7805], [-66.9631, 9.7397], [-66.9108, 9.7172], [-66.871, 9.6907], [-66.8681, 9.6804], [-66.8445, 9.6919], [-66.8037, 9.7522], [-66.732, 9.7583], [-66.7016, 9.8005], [-66.6914, 9.9991], [-66.7048, 10.012], [-66.7385, 9.9819], [-66.8066, 9.9469], [-66.8219, 9.9259], [-66.8416, 9.9199], [-67.0419, 9.9312], [-67.0457, 9.9141], [-67.0695, 9.9119]]]}}, {"type": "Feature", "properties": {"municipio": "Francisco Linares", "estado": "Aragua", "gid": "VEN.4.3_1"}, "geometry": {"type": "Polygon", "coordinates": [[[-67.5587, 10.2118], [-67.5551, 10.198], [-67.5588, 10.1947], [-67.5352, 10.1948], [-67.5141, 10.1925], [-67.475, 10.2016], [-67.4641, 10.1938], [-67.4559, 10.191], [-67.4448, 10.1905], [-67.4453, 10.2131], [-67.4918, 10.2201], [-67.5587, 10.2118]]]}}, {"type": "Feature", "properties": {"municipio": "Girardot", "estado": "Aragua", "gid": "VEN.4.4_1"}, "geometry": {"type": "Polygon", "coordinates": [[[-67.4918, 10.2201], [-67.4801, 10.2313], [-67.466, 10.3], [-67.474, 10.3399], [-67.5048, 10.3834], [-67.5014, 10.4685], [-67.5019, 10.4961], [-67.5148, 10.5195], [-67.5357, 10.5274], [-67.5451, 10.5196], [-67.5715, 10.5182], [-67.5785, 10.5096], [-67.594, 10.5082], [-67.5956, 10.4969], [-67.6124, 10.4677], [-67.6042, 10.4426], [-67.5707, 10.4144], [-67.5649, 10.3934], [-67.5645, 10.3598], [-67.5634, 10.2885], [-67.5863, 10.2654], [-67.608, 10.2792], [-67.6301, 10.2571], [-67.6231, 10.2524], [-67.611, 10.2386], [-67.5587, 10.2118], [-67.4918, 10.2201]]]}}, {"type": "Feature", "properties": {"municipio": "José Angel Lamas", "estado": "Aragua", "gid": "VEN.4.5_1"}, "geometry": {"type": "Polygon", "coordinates": [[[-67.4696, 10.198], [-67.4731, 10.1903], [-67.4747, 10.1817], [-67.47, 10.1511], [-67.4765, 10.1401], [-67.4574, 10.1415], [-67.4443, 10.1419], [-67.4443, 10.1904], [-67.4559, 10.191], [-67.4641, 10.1938], [-67.4696, 10.198]]]}}, {"type": "Feature", "properties": {"municipio": "José Félix Ribas", "estado": "Aragua", "gid": "VEN.4.6_1"}, "geometry": {"type": "Polygon", "coordinates": [[[-67.3743, 10.1987], [-67.3587, 10.168], [-67.3203, 10.1454], [-67.2951, 10.1394], [-67.2849, 10.1307], [-67.284, 10.1079], [-67.2784, 10.1018], [-67.2561, 10.1043], [-67.2389, 10.0991], [-67.1745, 10.0915], [-67.1673, 10.0914], [-67.1639, 10.0976], [-67.1614, 10.1102], [-67.1611, 10.2025], [-67.1966, 10.2098], [-67.2194, 10.2184], [-67.2308, 10.262], [-67.2223, 10.3455], [-67.2371, 10.3579], [-67.347, 10.304], [-67.3307, 10.2648], [-67.3275, 10.2362], [-67.3408, 10.211], [-67.3743, 10.1987]]]}}, {"type": "Feature", "properties": {"municipio": "José RRevenga", "estado": "Aragua", "gid": "VEN.4.7_1"}, "geometry": {"type": "Polygon", "coordinates": [[[-67.1611, 10.2025], [-67.1568, 10.2168], [-67.1436, 10.2463], [-67.1616, 10.2932], [-67.1626, 10.3094], [-67.1341, 10.3297], [-67.1392, 10.3625], [-67.157, 10.4006], [-67.1674, 10.4137], [-67.2176, 10.3403], [-67.2223, 10.3455], [-67.2308, 10.262], [-67.2194, 10.2184], [-67.1966, 10.2098], [-67.1611, 10.2025]]]}}, {"type": "Feature", "properties": {"municipio": "Libertador", "estado": "Aragua", "gid": "VEN.4.8_1"}, "geometry": {"type": "Polygon", "coordinates": [[[-67.5588, 10.1947], [-67.5654, 10.1871], [-67.562, 10.1542], [-67.5396, 10.1553], [-67.4765, 10.1401], [-67.47, 10.1511], [-67.4747, 10.1817], [-67.4731, 10.1903], [-67.4696, 10.198], [-67.475, 10.2016], [-67.5141, 10.1925], [-67.5352, 10.1948], [-67.5588, 10.1947]]]}}, {"type": "Feature", "properties": {"municipio": "Mario Briceño Iragorry", "estado": "Aragua", "gid": "VEN.4.9_1"}, "geometry": {"type": "Polygon", "coordinates": [[[-67.5644, 10.3712], [-67.5842, 10.3769], [-67.5991, 10.3757], [-67.6191, 10.3705], [-67.6477, 10.356], [-67.6131, 10.3312], [-67.608, 10.2792], [-67.5863, 10.2654], [-67.5634, 10.2885], [-67.5645, 10.3598], [-67.5644, 10.3712]]]}}, {"type": "Feature", "properties": {"municipio": "Ocumaredela Costade Oro", "estado": "Aragua", "gid": "VEN.4.10_1"}, "geometry": {"type": "Polygon", "coordinates": [[[-67.5956, 10.4969], [-67.5947, 10.5074], [-67.604, 10.5124], [-67.6176, 10.5024], [-67.6624, 10.4968], [-67.711, 10.504], [-67.7165, 10.4985], [-67.7351, 10.501], [-67.7365, 10.4929], [-67.7518, 10.4996], [-67.7679, 10.4879], [-67.8021, 10.4893], [-67.8104, 10.4671], [-67.8093, 10.4801], [-67.8235, 10.486], [-67.8315, 10.4687], [-67.8308, 10.4094], [-67.8172, 10.3799], [-67.7878, 10.362], [-67.7725, 10.3559], [-67.7341, 10.3718], [-67.7134, 10.378], [-67.6549, 10.3616], [-67.6477, 10.356], [-67.6191, 10.3705], [-67.5991, 10.3757], [-67.5842, 10.3769], [-67.5644, 10.3712], [-67.5649, 10.3934], [-67.5707, 10.4144], [-67.6042, 10.4426], [-67.6124, 10.4677], [-67.5956, 10.4969]]]}}, {"type": "Feature", "properties": {"municipio": "San Casimiro", "estado": "Aragua", "gid": "VEN.4.11_1"}, "geometry": {"type": "Polygon", "coordinates": [[[-66.7048, 10.012], [-66.7168, 10.0162], [-66.7651, 10.0396], [-66.8125, 10.0429], [-66.877, 10.0321], [-66.9118, 10.043], [-66.9573, 10.0893], [-66.9714, 10.0948], [-67.0324, 10.101], [-67.0273, 10.0788], [-67.0275, 10.0653], [-67.0334, 10.0391], [-67.0636, 9.9863], [-67.0759, 9.9462], [-67.0695, 9.9119], [-67.0457, 9.9141], [-67.0419, 9.9312], [-66.8416, 9.9199], [-66.8219, 9.9259], [-66.8066, 9.9469], [-66.7385, 9.9819], [-66.7048, 10.012]]]}}, {"type": "Feature", "properties": {"municipio": "San Sebastián", "estado": "Aragua", "gid": "VEN.4.12_1"}, "geometry": {"type": "Polygon", "coordinates": [[[-67.0695, 9.9119], [-67.0759, 9.9462], [-67.0636, 9.9863], [-67.0334, 10.0391], [-67.0275, 10.0653], [-67.0273, 10.0788], [-67.0324, 10.101], [-67.0508, 10.1019], [-67.0626, 10.1074], [-67.0666, 10.1119], [-67.1057, 10.108], [-67.1245, 10.0959], [-67.1485, 10.0921], [-67.1745, 10.0915], [-67.2389, 10.0991], [-67.2561, 10.1043], [-67.2784, 10.1018], [-67.2674, 10.0944], [-67.2609, 10.081], [-67.2749, 10.0643], [-67.2481, 10.0524], [-67.225, 10.0228], [-67.2246, 10.0106], [-67.2449, 9.9766], [-67.2233, 9.9408], [-67.1924, 9.9393], [-67.1664, 9.9233], [-67.1386, 9.879], [-67.1087, 9.8531], [-67.0895, 9.8577], [-67.0811, 9.8684], [-67.0695, 9.9119]]]}}, {"type": "Feature", "properties": {"municipio": "Santiago Mariño", "estado": "Aragua", "gid": "VEN.4.13_1"}, "geometry": {"type": "Polygon", "coordinates": [[[-67.347, 10.304], [-67.3468, 10.3448], [-67.3741, 10.3784], [-67.3557, 10.388], [-67.3545, 10.3968], [-67.3951, 10.478], [-67.4119, 10.5351], [-67.4587, 10.5312], [-67.4701, 10.5374], [-67.5104, 10.5271], [-67.5148, 10.5195], [-67.5019, 10.4961], [-67.5014, 10.4685], [-67.5048, 10.3834], [-67.474, 10.3399], [-67.466, 10.3], [-67.4801, 10.2313], [-67.4918, 10.2201], [-67.4453, 10.2131], [-67.4448, 10.1905], [-67.4054, 10.1976], [-67.3936, 10.208], [-67.3955, 10.2099], [-67.3988, 10.225], [-67.3967, 10.2353], [-67.3704, 10.2583], [-67.3588, 10.2956], [-67.347, 10.304]]]}}, {"type": "Feature", "properties": {"municipio": "Santos Michelena", "estado": "Aragua", "gid": "VEN.4.14_1"}, "geometry": {"type": "Polygon", "coordinates": [[[-67.1673, 10.0914], [-67.1485, 10.0921], [-67.1245, 10.0959], [-67.1057, 10.108], [-67.0666, 10.1119], [-67.0821, 10.1539], [-67.0942, 10.1808], [-67.0732, 10.2635], [-67.0797, 10.2765], [-67.1269, 10.3125], [-67.1341, 10.3297], [-67.1626, 10.3094], [-67.1616, 10.2932], [-67.1436, 10.2463], [-67.1568, 10.2168], [-67.1614, 10.1102], [-67.1639, 10.0976], [-67.1673, 10.0914]]]}}, {"type": "Feature", "properties": {"municipio": "Sucre", "estado": "Aragua", "gid": "VEN.4.15_1"}, "geometry": {"type": "Polygon", "coordinates": [[[-67.3936, 10.208], [-67.4054, 10.1976], [-67.4443, 10.1904], [-67.4443, 10.1419], [-67.4375, 10.1407], [-67.3697, 10.1175], [-67.3549, 10.1185], [-67.3172, 10.1426], [-67.3203, 10.1454], [-67.3587, 10.168], [-67.3743, 10.1987], [-67.3881, 10.2036], [-67.3936, 10.208]]]}}, {"type": "Feature", "properties": {"municipio": "Tovar", "estado": "Aragua", "gid": "VEN.4.16_1"}, "geometry": {"type": "Polygon", "coordinates": [[[-67.2223, 10.3455], [-67.2176, 10.3403], [-67.1674, 10.4137], [-67.1756, 10.4225], [-67.204, 10.4388], [-67.2407, 10.443], [-67.2767, 10.4258], [-67.2933, 10.4022], [-67.314, 10.4063], [-67.3272, 10.4709], [-67.3539, 10.5023], [-67.3646, 10.5385], [-67.3988, 10.5301], [-67.4119, 10.5351], [-67.3951, 10.478], [-67.3545, 10.3968], [-67.3557, 10.388], [-67.3741, 10.3784], [-67.3468, 10.3448], [-67.347, 10.304], [-67.2371, 10.3579], [-67.2223, 10.3455]]]}}, {"type": "Feature", "properties": {"municipio": "Urdaneta", "estado": "Aragua", "gid": "VEN.4.17_1"}, "geometry": {"type": "Polygon", "coordinates": [[[-66.8681, 9.6804], [-66.867, 9.6399], [-66.8757, 9.6069], [-66.8898, 9.5918], [-66.9644, 9.5635], [-66.982, 9.5482], [-67.0095, 9.4985], [-67.0096, 9.4769], [-66.9912, 9.4594], [-66.9378, 9.437], [-66.8372, 9.319], [-66.7965, 9.2824], [-66.7553, 9.2481], [-66.7292, 9.2354], [-66.7124, 9.2377], [-66.661, 9.2979], [-66.6175, 9.3471], [-66.6071, 9.3685], [-66.5777, 9.4864], [-66.5996, 9.5384], [-66.5885, 9.5881], [-66.5863, 9.6558], [-66.6388, 9.7286], [-66.6358, 9.7591], [-66.6193, 9.786], [-66.6099, 9.8206], [-66.6068, 9.8822], [-66.6228, 9.9271], [-66.6183, 9.9627], [-66.6291, 9.9847], [-66.6356, 9.9905], [-66.6761, 9.9874], [-66.6914, 9.9991], [-66.7016, 9.8005], [-66.732, 9.7583], [-66.8037, 9.7522], [-66.8445, 9.6919], [-66.8681, 9.6804]]]}}, {"type": "Feature", "properties": {"municipio": "Zamora", "estado": "Aragua", "gid": "VEN.4.18_1"}, "geometry": {"type": "Polygon", "coordinates": [[[-67.4765, 10.1401], [-67.5396, 10.1553], [-67.5613, 10.1543], [-67.5649, 10.1338], [-67.5715, 10.1282], [-67.586, 10.1375], [-67.5904, 10.1235], [-67.6005, 10.1254], [-67.6066, 10.1615], [-67.637, 10.1492], [-67.6365, 10.1167], [-67.6525, 10.0635], [-67.6102, 10.0394], [-67.5324, 10.0326], [-67.5117, 10.0056], [-67.5078, 9.9879], [-67.5083, 9.983], [-67.5008, 9.981], [-67.4821, 9.9812], [-67.4081, 10.0014], [-67.3453, 9.9721], [-67.2786, 9.9591], [-67.2475, 9.9409], [-67.2233, 9.9408], [-67.2449, 9.9766], [-67.2246, 10.0106], [-67.225, 10.0228], [-67.2481, 10.0524], [-67.2749, 10.0643], [-67.2609, 10.081], [-67.2674, 10.0944], [-67.2805, 10.1031], [-67.284, 10.1079], [-67.2849, 10.1307], [-67.2951, 10.1394], [-67.3172, 10.1426], [-67.3549, 10.1185], [-67.3697, 10.1175], [-67.4375, 10.1407], [-67.4574, 10.1415], [-67.4765, 10.1401]]]}}]}