{"type": "FeatureCollection", "features": [{"type": "Feature", "properties": {"municipio": "Alberto Arvelo Torrealba", "estado": "Barinas", "gid": "VEN.5.1_1"}, "geometry": {"type": "Polygon", "coordinates": [[[-70.0237, 8.7775], [-69.958, 8.6885], [-69.9465, 8.6685], [-69.9324, 8.6592], [-69.7291, 8.7534], [-69.8871, 8.7968], [-69.9036, 8.807], [-70.0453, 8.9009], [-70.0666, 8.9182], [-70.0907, 8.9686], [-70.1128, 8.9939], [-70.1695, 9.0203], [-70.194, 9.0411], [-70.2121, 9.0676], [-70.236, 9.0855], [-70.2455, 9.0886], [-70.2435, 8.9922], [-70.2383, 8.9843], [-70.1727, 8.9676], [-70.1397, 8.9316], [-70.1027, 8.9045], [-70.0599, 8.8597], [-70.0237, 8.7775]]]}}, {"type": "Feature", "properties": {"municipio": "Andres Eloy Blanco", "estado": "Barinas", "gid": "VEN.5.2_1"}, "geometry": {"type": "Polygon", "coordinates": [[[-70.5223, 7.3887], [-70.5404, 7.395], [-70.6234, 7.4174], [-70.7217, 7.4039], [-70.7155, 7.6339], [-70.7462, 7.5955], [-70.8136, 7.5746], [-70.8677, 7.5708], [-70.9721, 7.5386], [-71.0708, 7.4493], [-71.1059, 7.4465], [-71.3516, 7.4644], [-71.3995, 7.4502], [-71.4234, 7.4633], [-71.4963, 7.4605], [-71.5911, 7.4725], [-71.6952, 7.4963], [-71.7374, 7.4897], [-71.7893, 7.5009], [-71.8262, 7.5013], [-71.8615, 7.4886], [-71.8677, 7.4776], [-71.8267, 7.4611], [-71.8049, 7.4365], [-71.7943, 7.4362], [-71.7779, 7.4385], [-71.7474, 7.4249], [-71.7494, 7.3994], [-71.7264, 7.3767], [-71.704, 7.3894], [-71.6656, 7.3835], [-71.5719, 7.4154], [-71.4636, 7.4259], [-71.3901, 7.4187], [-71.2937, 7.4277], [-71.2499, 7.4185], [-71.2006, 7.3886], [-71.1717, 7.3993], [-71.0996, 7.3846], [-70.9701, 7.3268], [-70.9296, 7.3285], [-70.8745, 7.353], [-70.7714, 7.3038], [-70.7041, 7.3364], [-70.665, 7.3639], [-70.639, 7.3576], [-70.6331, 7.3456], [-70.62, 7.3451], [-70.5802, 7.3607], [-70.5614, 7.3786], [-70.5352, 7.3749], [-70.5227, 7.3804], [-70.5223, 7.3887]]]}}, {"type": "Feature", "properties": {"municipio": "Antonio Joséde Sucre", "estado": "Barinas", "gid": "VEN.5.3_1"}, "geometry": {"type": "Polygon", "coordinates": [[[-71.0123, 8.1528], [-70.992, 8.1512], [-70.9681, 8.1433], [-70.9337, 8.1673], [-70.9124, 8.1627], [-70.8834, 8.1116], [-70.8862, 8.054], [-70.8774, 8.0278], [-70.835, 7.9907], [-70.7858, 7.9744], [-70.7299, 7.9246], [-70.7063, 7.8638], [-70.7075, 7.8525], [-70.6137, 7.8428], [-70.5831, 7.8363], [-70.5612, 7.8141], [-70.519, 7.8086], [-70.4975, 7.79], [-70.423, 7.79], [-70.3699, 7.7518], [-70.3458, 7.757], [-70.3141, 7.7781], [-70.2721, 7.7741], [-70.2444, 7.7865], [-70.2807, 7.8619], [-70.312, 7.8875], [-70.3282, 7.9338], [-70.3736, 7.9724], [-70.3985, 7.9816], [-70.4098, 7.9965], [-70.4176, 8.0225], [-70.4083, 8.0639], [-70.413, 8.0864], [-70.779, 8.3757], [-70.7849, 8.3843], [-70.7856, 8.4848], [-70.8089, 8.5405], [-70.8417, 8.5746], [-70.8505, 8.5666], [-70.8561, 8.557], [-70.8572, 8.5467], [-70.8517, 8.4918], [-70.8543, 8.4168], [-70.8574, 8.3904], [-70.8699, 8.3611], [-70.8924, 8.283], [-70.902, 8.2685], [-70.9206, 8.2507], [-70.9424, 8.2438], [-70.9758, 8.2605], [-70.9949, 8.2526], [-71.0057, 8.2316], [-70.9958, 8.1942], [-71.0011, 8.1755], [-71.0123, 8.1528]]]}}, {"type": "Feature", "properties": {"municipio": "Arismendi", "estado": "Barinas", "gid": "VEN.5.4_1"}, "geometry": {"type": "Polygon", "coordinates": [[[-67.846, 7.7614], [-67.7716, 7.8044], [-67.7042, 7.8185], [-67.6364, 7.8068], [-67.6151, 7.8347], [-67.6028, 7.8131], [-67.5692, 7.8116], [-67.5385, 7.8255], [-67.5376, 7.8367], [-67.5301, 7.8403], [-67.5185, 7.8395], [-67.5185, 7.8483], [-67.5305, 7.8479], [-67.5501, 7.8591], [-67.5588, 7.9063], [-67.5908, 7.9416], [-67.6079, 7.9896], [-67.5916, 8.0155], [-67.6194, 8.0628], [-67.6266, 8.0978], [-67.6605, 8.1225], [-67.6951, 8.1655], [-67.7671, 8.2074], [-67.7921, 8.2322], [-67.7902, 8.2524], [-67.7985, 8.264], [-67.8316, 8.2681], [-67.8382, 8.276], [-67.8367, 8.3043], [-67.8751, 8.3448], [-67.8808, 8.37], [-67.8925, 8.3776], [-67.9236, 8.3757], [-67.9707, 8.3939], [-68.0123, 8.4275], [-68.0342, 8.4628], [-68.101, 8.5087], [-68.1396, 8.5271], [-68.1839, 8.5293], [-68.2052, 8.5415], [-68.2609, 8.5591], [-68.3351, 8.5573], [-68.3827, 8.5448], [-68.4862, 8.468], [-68.6565, 8.2839], [-68.7296, 8.2596], [-68.7429, 8.2491], [-68.8062, 8.1238], [-68.7985, 8.084], [-68.7991, 8.0714], [-68.7768, 8.0674], [-68.6987, 8.1127], [-68.6392, 7.9491], [-68.6211, 7.9574], [-68.5948, 7.95], [-68.5454, 7.9542], [-68.516, 7.9352], [-68.4801, 7.9376], [-68.4569, 7.9594], [-68.4341, 7.9664], [-68.4154, 7.9647], [-68.3574, 7.9326], [-68.334, 7.9289], [-68.2789, 7.9486], [-68.2347, 7.9414], [-68.1864, 7.9237], [-68.1676, 7.9124], [-68.128, 7.9076], [-68.067, 7.8729], [-67.959, 7.7911], [-67.9075, 7.7724], [-67.8763, 7.7718], [-67.8464, 7.7831], [-67.846, 7.7614]]]}}, {"type": "Feature", "properties": {"municipio": "Barinas", "estado": "Barinas", "gid": "VEN.5.5_1"}, "geometry": {"type": "Polygon", "coordinates": [[[-69.4768, 8.0695], [-69.4938, 8.1031], [-69.509, 8.1163], [-69.5629, 8.1328], [-69.6054, 8.1679], [-69.6702, 8.1828], [-69.6907, 8.212], [-69.7863, 8.272], [-69.8174, 8.277], [-69.8501, 8.3165], [-69.8832, 8.3282], [-69.8999, 8.3421], [-69.9531, 8.4042], [-69.9664, 8.4368], [-69.9659, 8.4753], [-69.9754, 8.4893], [-70.017, 8.5119], [-70.1317, 8.6419], [-70.1769, 8.6807], [-70.2219, 8.7031], [-70.2575, 8.7361], [-70.3001, 8.7842], [-70.3332, 8.8001], [-70.3699, 8.7755], [-70.4273, 8.7785], [-70.4418, 8.7489], [-70.459, 8.7325], [-70.4605, 8.71], [-70.4428, 8.6968], [-70.4438, 8.6051], [-70.4383, 8.5835], [-70.423, 8.5242], [-70.378, 8.4819], [-70.3101, 8.4349], [-70.2912, 8.4532], [-70.284, 8.4522], [-70.2091, 8.3862], [-70.1868, 8.3787], [-70.1395, 8.1594], [-70.1173, 8.1379], [-70.0806, 8.1139], [-69.9949, 8.0786], [-69.9341, 7.9988], [-69.9052, 7.9813], [-69.822, 7.9853], [-69.6711, 7.9737], [-69.6323, 7.9618], [-69.6171, 7.9493], [-69.6007, 7.9548], [-69.5887, 7.9668], [-69.5658, 8.0243], [-69.5487, 8.0351], [-69.4908, 8.0497], [-69.4768, 8.0695]]]}}, {"type": "Feature", "properties": {"municipio": "Bolívar", "estado": "Barinas", "gid": "VEN.5.6_1"}, "geometry": {"type": "Polygon", "coordinates": [[[-70.3332, 8.8001], [-70.3482, 8.8411], [-70.3766, 8.8448], [-70.4173, 8.8669], [-70.422, 9.0656], [-70.4459, 9.0654], [-70.4632, 9.0579], [-70.5498, 8.9915], [-70.5772, 8.9021], [-70.6128, 8.8571], [-70.6416, 8.7792], [-70.6607, 8.7476], [-70.6689, 8.7417], [-70.6454, 8.7238], [-70.6122, 8.6753], [-70.5739, 8.637], [-70.5392, 8.6224], [-70.4979, 8.638], [-70.4447, 8.6077], [-70.4438, 8.6051], [-70.4428, 8.6968], [-70.4605, 8.71], [-70.459, 8.7325], [-70.4418, 8.7489], [-70.4273, 8.7785], [-70.3699, 8.7755], [-70.3332, 8.8001]]]}}, {"type": "Feature", "properties": {"municipio": "Cruz Paredes", "estado": "Barinas", "gid": "VEN.5.7_1"}, "geometry": {"type": "Polygon", "coordinates": [[[-70.2455, 9.0886], [-70.2514, 9.0905], [-70.2732, 9.0814], [-70.3632, 9.0801], [-70.4125, 9.0649], [-70.422, 9.0656], [-70.4173, 8.8669], [-70.3766, 8.8448], [-70.3482, 8.8411], [-70.3332, 8.8001], [-70.3001, 8.7842], [-70.2696, 8.7501], [-70.2143, 8.8054], [-70.1582, 8.7711], [-70.1109, 8.7878], [-70.0237, 8.7775], [-70.0599, 8.8597], [-70.1027, 8.9045], [-70.1397, 8.9316], [-70.1727, 8.9676], [-70.2383, 8.9843], [-70.2435, 8.9922], [-70.2455, 9.0886]]]}}, {"type": "Feature", "properties": {"municipio": "Ezequiel Zamora", "estado": "Barinas", "gid": "VEN.5.8_1"}, "geometry": {"type": "Polygon", "coordinates": [[[-70.7155, 7.6339], [-70.7086, 7.8431], [-70.7063, 7.8638], [-70.7299, 7.9246], [-70.7858, 7.9744], [-70.835, 7.9907], [-70.8774, 8.0278], [-70.8862, 8.054], [-70.8834, 8.1116], [-70.9124, 8.1627], [-70.9337, 8.1673], [-70.9681, 8.1433], [-70.992, 8.1512], [-71.0123, 8.1528], [-71.0363, 8.0807], [-71.1056, 8.0109], [-71.1397, 8.0013], [-71.1897, 7.9661], [-71.3335, 7.9001], [-71.3274, 7.8918], [-71.3327, 7.8739], [-71.3754, 7.8376], [-71.4034, 7.7972], [-71.4538, 7.7487], [-71.4619, 7.7163], [-71.4648, 7.6388], [-71.4739, 7.6267], [-71.5003, 7.6213], [-71.5096, 7.5982], [-71.507, 7.5871], [-71.4497, 7.563], [-71.4345, 7.5296], [-71.4138, 7.5404], [-71.4025, 7.4982], [-71.3546, 7.4888], [-71.3516, 7.4644], [-71.1059, 7.4465], [-71.0708, 7.4493], [-70.9721, 7.5386], [-70.8677, 7.5708], [-70.8136, 7.5746], [-70.7462, 7.5955], [-70.7155, 7.6339]]]}}, {"type": "Feature", "properties": {"municipio": "Obispos", "estado": "Barinas", "gid": "VEN.5.9_1"}, "geometry": {"type": "Polygon", "coordinates": [[[-69.441, 8.0995], [-69.4508, 8.1164], [-69.4767, 8.153], [-69.4975, 8.1938], [-69.5025, 8.2413], [-69.5468, 8.2549], [-69.6552, 8.3996], [-69.6963, 8.425], [-69.7722, 8.4557], [-69.7924, 8.4907], [-69.8078, 8.5441], [-69.887, 8.6464], [-69.9343, 8.6597], [-69.9465, 8.6685], [-69.958, 8.6885], [-70.0237, 8.7775], [-70.1109, 8.7878], [-70.1582, 8.7711], [-70.2143, 8.8054], [-70.2696, 8.7501], [-70.2575, 8.7361], [-70.2219, 8.7031], [-70.1769, 8.6807], [-70.1317, 8.6419], [-70.017, 8.5119], [-69.9754, 8.4893], [-69.9659, 8.4753], [-69.9664, 8.4368], [-69.9531, 8.4042], [-69.8999, 8.3421], [-69.8832, 8.3282], [-69.8501, 8.3165], [-69.8174, 8.277], [-69.7863, 8.272], [-69.6907, 8.212], [-69.6702, 8.1828], [-69.6054, 8.1679], [-69.5629, 8.1328], [-69.509, 8.1163], [-69.4938, 8.1031], [-69.4768, 8.0695], [-69.4637, 8.0931], [-69.4515, 8.1001], [-69.441, 8.0995]]]}}, {"type": "Feature", "properties": {"municipio": "Pedraza", "estado": "Barinas", "gid": "VEN.5.10_1"}, "geometry": {"type": "Polygon", "coordinates": [[[-69.6171, 7.9493], [-69.6323, 7.9618], [-69.6711, 7.9737], [-69.822, 7.9853], [-69.9052, 7.9813], [-69.9341, 7.9988], [-69.9949, 8.0786], [-70.0806, 8.1139], [-70.1173, 8.1379], [-70.1395, 8.1594], [-70.1868, 8.3787], [-70.2091, 8.3862], [-70.284, 8.4522], [-70.2912, 8.4532], [-70.3101, 8.4349], [-70.378, 8.4819], [-70.423, 8.5242], [-70.4383, 8.5835], [-70.4447, 8.6077], [-70.4979, 8.638], [-70.5392, 8.6224], [-70.5739, 8.637], [-70.6122, 8.6753], [-70.6454, 8.7238], [-70.6689, 8.7417], [-70.6866, 8.7301], [-70.7117, 8.7199], [-70.7255, 8.7041], [-70.7234, 8.6754], [-70.704, 8.6457], [-70.7048, 8.6142], [-70.7441, 8.5924], [-70.8417, 8.5746], [-70.8089, 8.5405], [-70.7856, 8.4848], [-70.7849, 8.3843], [-70.779, 8.3757], [-70.413, 8.0864], [-70.4083, 8.0639], [-70.4176, 8.0225], [-70.4098, 7.9965], [-70.3985, 7.9816], [-70.3736, 7.9724], [-70.3282, 7.9338], [-70.312, 7.8875], [-70.2807, 7.8619], [-70.2444, 7.7865], [-70.2721, 7.7741], [-70.3141, 7.7781], [-70.3458, 7.757], [-70.3699, 7.7518], [-70.423, 7.79], [-70.4975, 7.79], [-70.519, 7.8086], [-70.5612, 7.8141], [-70.5831, 7.8363], [-70.6137, 7.8428], [-70.7075, 7.8525], [-70.7217, 7.4039], [-70.6234, 7.4174], [-70.5404, 7.395], [-70.5135, 7.3851], [-70.5076, 7.4128], [-70.4404, 7.4194], [-70.3936, 7.4446], [-70.3208, 7.5631], [-70.2927, 7.5725], [-70.2245, 7.5634], [-70.2052, 7.5679], [-70.16, 7.5962], [-70.1544, 7.605], [-70.1593, 7.6339], [-70.0954, 7.6849], [-70.0077, 7.7101], [-69.9444, 7.7082], [-69.9271, 7.7395], [-69.851, 7.7924], [-69.7882, 7.8073], [-69.7723, 7.8176], [-69.7374, 7.8684], [-69.7079, 7.8807], [-69.6389, 7.9398], [-69.6171, 7.9493]]]}}, {"type": "Feature", "properties": {"municipio": "Rojas", "estado": "Barinas", "gid": "VEN.5.11_1"}, "geometry": {"type": "Polygon", "coordinates": [[[-69.9324, 8.6592], [-69.887, 8.6464], [-69.8078, 8.5441], [-69.7924, 8.4907], [-69.7722, 8.4557], [-69.6963, 8.425], [-69.6552, 8.3996], [-69.5468, 8.2549], [-69.5025, 8.2413], [-69.5041, 8.257], [-69.4913, 8.3338], [-69.4831, 8.6392], [-69.5195, 8.679], [-69.5341, 8.6994], [-69.561, 8.7569], [-69.6187, 8.7702], [-69.6854, 8.75], [-69.7291, 8.7534], [-69.9324, 8.6592]]]}}, {"type": "Feature", "properties": {"municipio": "Sosa", "estado": "Barinas", "gid": "VEN.5.12_1"}, "geometry": {"type": "Polygon", "coordinates": [[[-68.6392, 7.9491], [-68.6987, 8.1127], [-68.7768, 8.0674], [-68.7991, 8.0714], [-68.8059, 8.0669], [-68.8437, 8.0797], [-68.9603, 8.1652], [-68.9684, 8.1759], [-68.9718, 8.2122], [-69.0807, 8.2799], [-69.0896, 8.3264], [-69.1089, 8.354], [-69.1242, 8.4382], [-69.1521, 8.4792], [-69.2298, 8.5441], [-69.3098, 8.5602], [-69.4492, 8.6143], [-69.4767, 8.6321], [-69.4831, 8.6392], [-69.4913, 8.3338], [-69.5041, 8.257], [-69.4975, 8.1938], [-69.4767, 8.153], [-69.4508, 8.1164], [-69.441, 8.0995], [-69.4337, 8.0992], [-69.3594, 8.0595], [-69.3239, 8.0855], [-69.1882, 8.0787], [-69.1314, 8.0524], [-69.125, 8.0181], [-69.1348, 7.9932], [-69.1258, 7.9836], [-69.0955, 7.9797], [-69.0562, 7.9632], [-69.0437, 7.9631], [-69.0316, 7.979], [-68.9652, 7.9655], [-68.9552, 7.9168], [-68.9386, 7.8962], [-68.8625, 7.8547], [-68.8276, 7.8564], [-68.7954, 7.8492], [-68.7371, 7.8584], [-68.7127, 7.88], [-68.7004, 7.9041], [-68.6635, 7.9209], [-68.6392, 7.9491]]]}}]}