{"type": "FeatureCollection", "features": [{"type": "Feature", "properties": {"municipio": "Angostura", "estado": "Bolívar", "gid": "VEN.6.1_1"}, "geometry": {"type": "Polygon", "coordinates": [[[-62.1664, 4.0951], [-62.1556, 4.1068], [-62.1576, 4.13], [-62.2006, 4.1974], [-62.2107, 4.2383], [-62.2314, 4.2797], [-62.2316, 4.3185], [-62.258, 4.3605], [-62.2398, 4.421], [-62.264, 4.4777], [-62.256, 4.5568], [-62.3055, 4.6503], [-62.3037, 4.679], [-62.3106, 4.7022], [-62.3267, 4.7203], [-62.3713, 4.7442], [-62.3982, 4.7691], [-62.4063, 4.7984], [-62.4222, 4.8208], [-62.4368, 4.8878], [-62.4398, 4.9517], [-62.3876, 5.0819], [-62.3875, 5.1164], [-62.4187, 5.1404], [-62.4501, 5.2014], [-62.5349, 5.2482], [-62.5835, 5.2476], [-62.6424, 5.3227], [-62.6625, 5.3848], [-62.6207, 5.6004], [-62.5415, 5.8155], [-62.5472, 5.9274], [-62.5525, 5.9509], [-62.579, 6.0007], [-62.594, 6.0338], [-62.6493, 6.115], [-62.6595, 6.1419], [-62.6562, 6.1892], [-62.6299, 6.2112], [-62.5921, 6.2587], [-62.5708, 6.3172], [-62.5619, 6.3931], [-62.5493, 6.4336], [-62.5873, 6.5071], [-62.61, 6.5691], [-62.6265, 6.6881], [-62.6505, 6.7298], [-62.6911, 6.7425], [-62.724, 6.7627], [-62.7392, 6.8033], [-62.7581, 6.9109], [-62.7354, 6.9665], [-62.6974, 7.0045], [-62.6404, 7.0881], [-62.6316, 7.1665], [-62.6581, 7.2902], [-62.6594, 7.3421], [-62.6936, 7.4471], [-62.8316, 7.5864], [-62.929, 7.7978], [-62.9391, 7.8762], [-62.9189, 7.9395], [-62.8172, 8.0366], [-62.8345, 8.0366], [-62.9185, 7.9699], [-62.9431, 8.1051], [-63.7447, 7.5681], [-63.7574, 7.5539], [-63.7581, 7.5409], [-63.7515, 7.4916], [-63.7333, 7.4483], [-63.7391, 7.4296], [-63.812, 7.436], [-63.8428, 7.4269], [-63.9014, 7.4544], [-63.92, 7.4555], [-63.9082, 7.4283], [-63.8922, 7.3823], [-63.8124, 7.2639], [-63.7943, 7.2201], [-63.7745, 7.2054], [-63.7533, 7.1825], [-63.7188, 7.1163], [-63.696, 7.0334], [-63.697, 6.9793], [-63.6812, 6.9518], [-63.6778, 6.9083], [-63.6827, 6.8198], [-63.6667, 6.776], [-63.6408, 6.6552], [-63.613, 6.5956], [-63.6148, 6.5802], [-63.6838, 6.5374], [-63.7182, 6.536], [-63.7499, 6.524], [-63.8079, 6.5359], [-63.8286, 6.5328], [-63.8523, 6.4766], [-63.9131, 6.4629], [-63.9444, 6.445], [-63.9605, 6.4125], [-63.9553, 6.3452], [-63.9344, 6.3103], [-63.9268, 6.2818], [-63.8751, 6.2621], [-63.871, 6.2403], [-63.877, 6.2188], [-63.9357, 6.1929], [-63.963, 6.1945], [-64.0225, 6.2188], [-64.0487, 6.2211], [-64.0683, 6.2122], [-64.0739, 6.1988], [-64.0723, 6.1841], [-64.0591, 6.1733], [-63.9788, 6.1467], [-63.9279, 6.1205], [-63.9074, 6.0887], [-63.8972, 5.9731], [-63.8582, 5.8849], [-63.7939, 5.6975], [-63.6875, 5.5354], [-63.6496, 5.5147], [-63.6339, 5.5174], [-63.5831, 5.4658], [-63.5681, 5.4348], [-63.5679, 5.3623], [-63.5378, 5.2971], [-63.5457, 5.2387], [-63.5621, 5.1893], [-63.5873, 5.1509], [-63.6117, 5.1259], [-63.6487, 5.1141], [-63.6598, 5.096], [-63.6684, 5.0388], [-63.696, 4.9861], [-63.7246, 4.9074], [-63.7333, 4.8292], [-63.7169, 4.7519], [-63.6657, 4.6742], [-63.651, 4.6106], [-63.6502, 4.5703], [-63.6207, 4.481], [-63.6202, 4.4047], [-63.5729, 4.3192], [-63.5161, 4.2889], [-63.4898, 4.2296], [-63.465, 4.2068], [-63.4637, 4.1757], [-63.473, 4.1549], [-63.5181, 4.1493], [-63.4914, 4.1386], [-63.4753, 4.1178], [-63.4351, 4.0936], [-63.419, 4.0757], [-63.367, 3.9671], [-63.3534, 3.9602], [-63.3127, 3.9604], [-63.311, 3.9818], [-63.2866, 3.9726], [-63.2808, 3.9551], [-63.2541, 3.9615], [-63.2475, 3.9545], [-63.2049, 3.9513], [-63.2335, 3.8815], [-63.2266, 3.8354], [-63.2044, 3.8115], [-63.1233, 3.8046], [-63.1033, 3.7932], [-63.0591, 3.7474], [-63.0635, 3.7049], [-63.0813, 3.6932], [-63.0324, 3.6657], [-63.0269, 3.6501], [-63.0155, 3.6451], [-62.9908, 3.6121], [-62.9602, 3.6076], [-62.9291, 3.6393], [-62.9191, 3.6724], [-62.9088, 3.671], [-62.8869, 3.6835], [-62.853, 3.7118], [-62.8358, 3.7385], [-62.8044, 3.7296], [-62.7899, 3.7176], [-62.7849, 3.6996], [-62.7438, 3.6732], [-62.731, 3.7076], [-62.7399, 3.7563], [-62.7357, 3.779], [-62.7435, 3.7871], [-62.7354, 3.8002], [-62.7713, 3.834], [-62.7538, 3.8496], [-62.7888, 3.8932], [-62.7866, 3.9293], [-62.7619, 3.9415], [-62.7432, 3.9743], [-62.7624, 3.984], [-62.7688, 4.0062], [-62.7496, 4.0207], [-62.7535, 4.0313], [-62.7485, 4.0349], [-62.736, 4.0399], [-62.6866, 4.0323], [-62.626, 4.0544], [-62.5782, 4.0348], [-62.544, 4.0303], [-62.5353, 4.0342], [-62.5201, 4.0764], [-62.5098, 4.0872], [-62.4018, 4.1223], [-62.3555, 4.1503], [-62.3321, 4.141], [-62.2489, 4.1386], [-62.1664, 4.0951]]]}}, {"type": "Feature", "properties": {"municipio": "Caroní", "estado": "Bolívar", "gid": "VEN.6.2_1"}, "geometry": {"type": "Polygon", "coordinates": [[[-62.9708, 8.2583], [-62.9185, 7.9699], [-62.8345, 8.0366], [-62.781, 8.0366], [-62.5393, 8.0448], [-62.4763, 8.363], [-62.5285, 8.3903], [-62.5355, 8.391], [-62.5481, 8.3971], [-62.5617, 8.388], [-62.581, 8.3574], [-62.6339, 8.3222], [-62.6446, 8.3222], [-62.6688, 8.3245], [-62.7172, 8.3286], [-62.7488, 8.3093], [-62.7909, 8.2473], [-62.8253, 8.2255], [-62.848, 8.2291], [-62.8959, 8.2698], [-62.9055, 8.2761], [-62.9407, 8.28], [-62.9675, 8.2897], [-62.9675, 8.2588], [-62.9708, 8.2583]]]}}, {"type": "Feature", "properties": {"municipio": "Cedeño", "estado": "Bolívar", "gid": "VEN.6.3_1"}, "geometry": {"type": "Polygon", "coordinates": [[[-66.9409, 5.645], [-66.9131, 5.643], [-66.8659, 5.6659], [-66.844, 5.6932], [-66.8123, 5.7127], [-66.7803, 5.7519], [-66.7484, 5.7735], [-66.6778, 5.7819], [-66.5902, 5.7708], [-66.5031, 5.7973], [-66.4323, 5.7838], [-66.3667, 5.7953], [-66.3014, 5.7863], [-66.2739, 5.7772], [-66.2219, 5.7536], [-66.1044, 5.7282], [-66.0619, 5.7265], [-66.0452, 5.7357], [-65.8779, 5.9056], [-65.8334, 5.9881], [-65.802, 6.01], [-65.7148, 6.0443], [-65.6714, 6.0817], [-65.5308, 6.1268], [-65.4957, 6.1157], [-65.4444, 6.1248], [-65.402, 6.1148], [-65.3866, 6.0871], [-65.3825, 6.0537], [-65.4189, 5.9311], [-65.4, 5.7821], [-65.3681, 5.704], [-65.3469, 5.6797], [-65.3125, 5.6695], [-65.2947, 5.676], [-65.2812, 5.6985], [-65.2381, 5.746], [-65.2077, 5.7517], [-65.171, 5.7422], [-65.0141, 5.7442], [-64.9951, 5.7388], [-64.9721, 5.7945], [-64.9628, 5.8091], [-64.9514, 5.8191], [-64.8552, 5.8803], [-64.8327, 5.9256], [-64.787, 5.9576], [-64.7229, 6.0539], [-64.7141, 6.1081], [-64.7287, 6.1545], [-64.737, 6.2411], [-64.7723, 6.4308], [-64.7519, 6.4671], [-64.6975, 6.4908], [-64.6501, 6.4946], [-64.6368, 6.5024], [-64.6357, 6.5552], [-64.5988, 6.6203], [-64.6274, 6.6793], [-64.6242, 6.7289], [-64.6374, 6.7817], [-64.6503, 6.7931], [-64.6909, 6.8063], [-64.7088, 6.8402], [-64.7548, 6.8792], [-64.7789, 6.921], [-64.811, 6.948], [-64.8179, 6.9635], [-64.8195, 7.0188], [-64.8339, 7.0405], [-64.8909, 7.0561], [-64.9657, 7.1075], [-64.9992, 7.1092], [-65.02, 7.1239], [-65.0512, 7.172], [-65.0436, 7.191], [-65.0177, 7.1975], [-65.0135, 7.2053], [-65.035, 7.245], [-65.069, 7.2706], [-65.0835, 7.2828], [-65.0885, 7.2999], [-65.084, 7.3256], [-65.0952, 7.3264], [-65.0925, 7.3409], [-65.1127, 7.3676], [-65.1132, 7.3894], [-65.1291, 7.4184], [-65.1308, 7.4678], [-65.1233, 7.5006], [-65.0866, 7.5326], [-65.0562, 7.5305], [-65.0259, 7.535], [-65.0137, 7.5283], [-64.9947, 7.4958], [-64.984, 7.486], [-64.9465, 7.4913], [-64.9363, 7.5021], [-64.9001, 7.4898], [-64.8804, 7.4958], [-64.8699, 7.5143], [-64.8476, 7.5271], [-64.8347, 7.5608], [-64.8411, 7.5767], [-64.8796, 7.5796], [-64.9872, 7.6772], [-65.0206, 7.6989], [-65.0654, 7.7102], [-65.0968, 7.7343], [-65.1661, 7.7305], [-65.2288, 7.7507], [-65.3221, 7.7424], [-65.3597, 7.7559], [-65.4212, 7.7693], [-65.5004, 7.7845], [-65.552, 7.7879], [-65.5826, 7.7939], [-65.651, 7.7961], [-65.6684, 7.7848], [-65.7031, 7.7621], [-65.8118, 7.6297], [-65.926, 7.5804], [-66.0443, 7.5885], [-66.1038, 7.5732], [-66.1143, 7.5735], [-66.1351, 7.581], [-66.1721, 7.5741], [-66.2166, 7.5407], [-66.2591, 7.548], [-66.3153, 7.5543], [-66.3893, 7.5033], [-66.4586, 7.4219], [-66.475, 7.3899], [-66.602, 7.2425], [-66.763, 7.1766], [-66.8674, 7.1436], [-66.9258, 7.0928], [-66.9878, 7.0872], [-67.0066, 7.0836], [-67.0378, 7.0815], [-67.0519, 7.0758], [-67.0779, 7.0443], [-67.0859, 6.9917], [-67.0795, 6.9445], [-67.0668, 6.9162], [-67.0347, 6.8824], [-67.0256, 6.8578], [-67.0463, 6.7381], [-67.0871, 6.6498], [-67.1163, 6.5587], [-67.1273, 6.4406], [-67.1342, 6.4283], [-67.2069, 6.3699], [-67.2466, 6.3213], [-67.288, 6.3077], [-67.3314, 6.2508], [-67.3987, 6.2189], [-67.4909, 6.1493], [-67.4697, 6.1566], [-67.4228, 6.152], [-67.3909, 6.1244], [-67.374, 6.1191], [-67.2865, 6.1312], [-67.2606, 6.1085], [-67.1795, 6.1093], [-67.1524, 6.0923], [-67.1322, 6.0567], [-67.1212, 5.9535], [-67.149, 5.7714], [-67.1482, 5.7399], [-67.1315, 5.7249], [-67.1116, 5.7246], [-67.0398, 5.744], [-67.0054, 5.7412], [-66.9758, 5.713], [-66.9521, 5.6536], [-66.9409, 5.645]]]}}, {"type": "Feature", "properties": {"municipio": "El Callao", "estado": "Bolívar", "gid": "VEN.6.4_1"}, "geometry": {"type": "Polygon", "coordinates": [[[-61.5979, 6.6367], [-61.5877, 6.6359], [-61.5829, 6.6336], [-61.5814, 6.6017], [-61.5472, 6.5908], [-61.5323, 6.5424], [-61.4969, 6.5708], [-61.4671, 6.6069], [-61.466, 6.6374], [-61.4824, 6.6604], [-61.4728, 6.6908], [-61.4799, 6.7238], [-61.438, 6.8114], [-61.4411, 6.8945], [-61.434, 6.9283], [-61.4401, 7.0061], [-61.4688, 7.0532], [-61.4918, 7.1351], [-61.4474, 7.207], [-61.4426, 7.2276], [-61.4454, 7.3134], [-61.4596, 7.4023], [-61.455, 7.4613], [-61.4483, 7.4841], [-61.4599, 7.485], [-61.4894, 7.4721], [-61.5204, 7.4083], [-61.5499, 7.2599], [-61.5663, 7.2468], [-61.6048, 7.2341], [-61.6504, 7.1975], [-61.6981, 7.1395], [-61.7085, 7.1053], [-61.6684, 7.0179], [-61.6791, 6.9652], [-61.6633, 6.9245], [-61.6732, 6.8646], [-61.6714, 6.7913], [-61.5979, 6.6367]]]}}, {"type": "Feature", "properties": {"municipio": "Gran Sabana", "estado": "Bolívar", "gid": "VEN.6.5_1"}, "geometry": {"type": "Polygon", "coordinates": [[[-62.1664, 4.0951], [-62.1346, 4.0913], [-62.0758, 4.1347], [-62.0607, 4.1567], [-62.004, 4.164], [-61.9859, 4.158], [-61.9832, 4.1207], [-61.9656, 4.1149], [-61.9344, 4.1181], [-61.9031, 4.165], [-61.8352, 4.1941], [-61.7717, 4.2342], [-61.7517, 4.2581], [-61.6703, 4.2594], [-61.6096, 4.2482], [-61.5905, 4.2504], [-61.5285, 4.2793], [-61.5205, 4.2903], [-61.5442, 4.3599], [-61.5379, 4.3838], [-61.4821, 4.4364], [-61.3909, 4.4302], [-61.3528, 4.4414], [-61.321, 4.4809], [-61.3276, 4.4943], [-61.3563, 4.5153], [-61.3447, 4.5318], [-61.3303, 4.5376], [-61.3099, 4.5428], [-61.2225, 4.5271], [-61.1442, 4.4836], [-61.0682, 4.5189], [-60.9913, 4.5161], [-60.9633, 4.5372], [-60.932, 4.5942], [-60.929, 4.6073], [-60.9405, 4.6479], [-60.9141, 4.68], [-60.9061, 4.7029], [-60.8895, 4.7121], [-60.8448, 4.708], [-60.8048, 4.7371], [-60.7315, 4.7654], [-60.7162, 4.7963], [-60.6778, 4.828], [-60.6363, 4.8916], [-60.5895, 4.9428], [-60.5879, 4.9658], [-60.6414, 5.0682], [-60.6427, 5.0985], [-60.6742, 5.17], [-60.7016, 5.1899], [-60.7363, 5.1975], [-60.7732, 5.2542], [-60.8284, 5.3189], [-61.3869, 5.9485], [-61.3928, 5.9497], [-61.4199, 5.8916], [-61.4144, 5.8915], [-61.4264, 5.8565], [-61.429, 5.8707], [-61.4409, 5.8806], [-61.4593, 5.8821], [-61.5398, 5.8584], [-61.6049, 5.8068], [-61.6268, 5.8015], [-61.6783, 5.8209], [-61.7098, 5.8247], [-61.7404, 5.8436], [-61.7999, 5.8456], [-61.8266, 5.8651], [-61.8764, 5.8598], [-61.9085, 5.8679], [-62.0266, 5.8528], [-62.0378, 5.8502], [-62.073, 5.8326], [-62.1052, 5.8415], [-62.1433, 5.8855], [-62.2204, 5.9305], [-62.2667, 5.9313], [-62.2793, 5.9232], [-62.2865, 5.8927], [-62.2952, 5.8838], [-62.3357, 5.8826], [-62.3575, 5.9065], [-62.3676, 5.9172], [-62.3882, 5.9317], [-62.4151, 5.9775], [-62.4742, 6.0213], [-62.5063, 6.057], [-62.5288, 6.0963], [-62.5901, 6.1217], [-62.6449, 6.1743], [-62.6299, 6.2112], [-62.6562, 6.1892], [-62.6595, 6.1419], [-62.6493, 6.115], [-62.594, 6.0338], [-62.5551, 5.9571], [-62.5504, 5.9439], [-62.5472, 5.9274], [-62.5415, 5.8155], [-62.6207, 5.6004], [-62.6625, 5.3848], [-62.6424, 5.3227], [-62.5835, 5.2476], [-62.5349, 5.2482], [-62.4501, 5.2014], [-62.4187, 5.1404], [-62.3875, 5.1164], [-62.3876, 5.0819], [-62.4398, 4.9517], [-62.4368, 4.8878], [-62.4222, 4.8208], [-62.4063, 4.7984], [-62.3982, 4.7691], [-62.3713, 4.7442], [-62.3267, 4.7203], [-62.3106, 4.7022], [-62.3037, 4.679], [-62.3055, 4.6503], [-62.256, 4.5568], [-62.264, 4.4777], [-62.2398, 4.421], [-62.258, 4.3605], [-62.2316, 4.3185], [-62.2314, 4.2797], [-62.2107, 4.2383], [-62.2006, 4.1974], [-62.1576, 4.13], [-62.1556, 4.1068], [-62.1664, 4.0951]]]}}, {"type": "Feature", "properties": {"municipio": "Heres", "estado": "Bolívar", "gid": "VEN.6.6_1"}, "geometry": {"type": "Polygon", "coordinates": [[[-63.7707, 8.0826], [-63.7845, 8.0741], [-63.8022, 8.0283], [-63.8293, 7.9993], [-63.8517, 7.9617], [-63.878, 7.9382], [-63.8995, 7.9235], [-63.9687, 7.9042], [-64.0501, 7.9148], [-64.0998, 7.9363], [-64.1232, 7.9264], [-64.2057, 7.9261], [-64.21, 7.9191], [-64.2077, 7.8787], [-64.2112, 7.8144], [-64.1935, 7.787], [-64.1838, 7.7501], [-64.1068, 7.6914], [-64.0958, 7.6528], [-64.0505, 7.6097], [-64.0394, 7.5699], [-64.0242, 7.5483], [-63.9769, 7.5302], [-63.9317, 7.4814], [-63.92, 7.4555], [-63.9014, 7.4544], [-63.8428, 7.4269], [-63.812, 7.436], [-63.7391, 7.4296], [-63.7333, 7.4483], [-63.7515, 7.4916], [-63.7581, 7.5409], [-63.7574, 7.5539], [-63.7447, 7.5681], [-62.9431, 8.1051], [-62.9708, 8.2583], [-63.0264, 8.2547], [-63.0566, 8.2645], [-63.0939, 8.2611], [-63.1351, 8.2624], [-63.1433, 8.2601], [-63.1618, 8.2511], [-63.1944, 8.2404], [-63.2654, 8.1717], [-63.3079, 8.1603], [-63.3514, 8.1647], [-63.3843, 8.1321], [-63.4021, 8.1238], [-63.4443, 8.1175], [-63.4856, 8.1233], [-63.5364, 8.1074], [-63.693, 8.1093], [-63.7707, 8.0826]]]}}, {"type": "Feature", "properties": {"municipio": "Padre Pedro Chien", "estado": "Bolívar", "gid": "VEN.6.7_1"}, "geometry": {"type": "Polygon", "coordinates": [[[-62.1568, 8.182], [-62.0848, 8.0702], [-61.9785, 7.9449], [-61.9025, 7.9335], [-61.8873, 7.8765], [-61.9481, 7.7816], [-61.9861, 7.7018], [-61.9595, 7.6183], [-61.9367, 7.6069], [-61.9212, 7.5684], [-61.9105, 7.5701], [-61.8632, 7.5641], [-61.8009, 7.5316], [-61.7779, 7.5174], [-61.7669, 7.5034], [-61.7428, 7.4867], [-61.738, 7.4797], [-61.7333, 7.4591], [-61.7296, 7.4252], [-61.6956, 7.3875], [-61.6643, 7.3726], [-61.6022, 7.3678], [-61.651, 7.4611], [-61.6765, 7.6137], [-61.6375, 7.6913], [-61.6139, 7.7223], [-61.5953, 7.7273], [-61.5797, 7.7437], [-61.5414, 7.7539], [-61.4938, 7.7523], [-61.5034, 7.7755], [-61.5189, 7.8561], [-61.5395, 7.8988], [-61.6268, 8.0231], [-61.6465, 8.0799], [-61.6445, 8.1066], [-61.5889, 8.1494], [-61.5722, 8.1888], [-61.5731, 8.2187], [-61.5824, 8.2386], [-61.6021, 8.2524], [-61.6307, 8.2563], [-61.667, 8.2538], [-61.6835, 8.247], [-62.1568, 8.182]]]}}, {"type": "Feature", "properties": {"municipio": "Piar", "estado": "Bolívar", "gid": "VEN.6.8_1"}, "geometry": {"type": "Polygon", "coordinates": [[[-62.6299, 6.2112], [-62.6449, 6.1743], [-62.5901, 6.1217], [-62.5288, 6.0963], [-62.5063, 6.057], [-62.4742, 6.0213], [-62.4151, 5.9775], [-62.3882, 5.9317], [-62.3676, 5.9172], [-62.3575, 5.9065], [-62.3357, 5.8826], [-62.2952, 5.8838], [-62.2865, 5.8927], [-62.2793, 5.9232], [-62.2667, 5.9313], [-62.2204, 5.9305], [-62.1433, 5.8855], [-62.1052, 5.8415], [-62.073, 5.8326], [-62.0378, 5.8502], [-62.0318, 5.8516], [-62.0104, 5.8733], [-61.9994, 5.9205], [-61.961, 5.9781], [-61.9641, 5.9898], [-62.0015, 6.0216], [-62.0223, 6.0365], [-62.0392, 6.0441], [-62.0854, 6.0449], [-62.1187, 6.0599], [-62.1534, 6.0667], [-62.1985, 6.0945], [-62.2123, 6.1075], [-62.232, 6.1366], [-62.2161, 6.1958], [-62.2212, 6.2411], [-62.2428, 6.2677], [-62.2874, 6.2834], [-62.3095, 6.3257], [-62.3211, 6.3717], [-62.3175, 6.3975], [-62.3242, 6.432], [-62.3219, 6.449], [-62.302, 6.457], [-62.2741, 6.4538], [-62.2552, 6.4441], [-62.228, 6.4139], [-62.1856, 6.4076], [-62.1206, 6.4563], [-61.9024, 6.5781], [-61.8853, 6.6006], [-61.9033, 6.7117], [-61.9445, 6.7506], [-62.0017, 6.7647], [-62.0344, 6.806], [-62.0351, 6.8481], [-62.062, 6.9938], [-62.0852, 7.2041], [-62.1358, 7.4433], [-62.1249, 7.4662], [-62.1052, 7.476], [-62.0938, 7.4927], [-62.0657, 7.5009], [-62.0199, 7.4828], [-61.9756, 7.4902], [-61.9651, 7.5169], [-61.9389, 7.5419], [-61.9267, 7.5646], [-61.9212, 7.5684], [-61.9367, 7.6069], [-61.9595, 7.6183], [-61.9861, 7.7018], [-61.9481, 7.7816], [-61.8873, 7.8765], [-61.9025, 7.9335], [-61.9785, 7.9449], [-62.0848, 8.0702], [-62.1568, 8.182], [-62.4763, 8.363], [-62.5393, 8.0448], [-62.781, 8.0366], [-62.8172, 8.0366], [-62.9189, 7.9395], [-62.9391, 7.8762], [-62.929, 7.7978], [-62.8316, 7.5864], [-62.6936, 7.4471], [-62.6594, 7.3421], [-62.6581, 7.2902], [-62.6316, 7.1665], [-62.6404, 7.0881], [-62.6974, 7.0045], [-62.7354, 6.9665], [-62.7581, 6.9109], [-62.7392, 6.8033], [-62.724, 6.7627], [-62.6911, 6.7425], [-62.6505, 6.7298], [-62.6265, 6.6881], [-62.61, 6.5691], [-62.5873, 6.5071], [-62.5493, 6.4336], [-62.5619, 6.3931], [-62.5708, 6.3172], [-62.5921, 6.2587], [-62.6299, 6.2112]]]}}, {"type": "Feature", "properties": {"municipio": "Roscio", "estado": "Bolívar", "gid": "VEN.6.9_1"}, "geometry": {"type": "Polygon", "coordinates": [[[-61.4483, 7.4841], [-61.4301, 7.5144], [-61.3424, 7.615], [-61.4038, 7.6539], [-61.4912, 7.7476], [-61.4938, 7.7523], [-61.5414, 7.7539], [-61.5797, 7.7437], [-61.5953, 7.7273], [-61.6139, 7.7223], [-61.6375, 7.6913], [-61.6765, 7.6137], [-61.651, 7.4611], [-61.6022, 7.3678], [-61.6643, 7.3726], [-61.6956, 7.3875], [-61.7296, 7.4252], [-61.7333, 7.4591], [-61.738, 7.4797], [-61.7428, 7.4867], [-61.7669, 7.5034], [-61.7779, 7.5174], [-61.8009, 7.5316], [-61.8632, 7.5641], [-61.9105, 7.5701], [-61.9267, 7.5646], [-61.9389, 7.5419], [-61.9651, 7.5169], [-61.9756, 7.4902], [-62.0199, 7.4828], [-62.0657, 7.5009], [-62.0938, 7.4927], [-62.1052, 7.476], [-62.1249, 7.4662], [-62.1358, 7.4433], [-62.0852, 7.2041], [-62.062, 6.9938], [-62.0351, 6.8481], [-62.0344, 6.806], [-62.0017, 6.7647], [-61.9445, 6.7506], [-61.9033, 6.7117], [-61.8853, 6.6006], [-61.9024, 6.5781], [-62.1206, 6.4563], [-62.1856, 6.4076], [-62.228, 6.4139], [-62.2552, 6.4441], [-62.2741, 6.4538], [-62.302, 6.457], [-62.3219, 6.449], [-62.3242, 6.432], [-62.3175, 6.3975], [-62.3211, 6.3717], [-62.3095, 6.3257], [-62.2874, 6.2834], [-62.2428, 6.2677], [-62.2212, 6.2411], [-62.2161, 6.1958], [-62.232, 6.1366], [-62.2076, 6.1023], [-62.184, 6.085], [-62.1534, 6.0667], [-62.1388, 6.086], [-62.0565, 6.141], [-62.035, 6.1627], [-62.0264, 6.2165], [-61.9967, 6.2486], [-61.973, 6.2924], [-61.9473, 6.3128], [-61.8962, 6.3772], [-61.8779, 6.3914], [-61.8333, 6.4055], [-61.7783, 6.4623], [-61.7325, 6.4942], [-61.7057, 6.5146], [-61.6689, 6.5474], [-61.6418, 6.5751], [-61.6256, 6.5971], [-61.6188, 6.6116], [-61.6147, 6.6248], [-61.611, 6.6304], [-61.5979, 6.6367], [-61.6714, 6.7913], [-61.6732, 6.8646], [-61.6633, 6.9245], [-61.6791, 6.9652], [-61.6684, 7.0179], [-61.7085, 7.1053], [-61.6981, 7.1395], [-61.6504, 7.1975], [-61.6048, 7.2341], [-61.5663, 7.2468], [-61.5499, 7.2599], [-61.5204, 7.4083], [-61.4894, 7.4721], [-61.4599, 7.485], [-61.4483, 7.4841]]]}}, {"type": "Feature", "properties": {"municipio": "Sifontes", "estado": "Bolívar", "gid": "VEN.6.10_1"}, "geometry": {"type": "Polygon", "coordinates": [[[-60.1462, 7.989], [-60.1891, 7.988], [-60.25, 7.9591], [-60.3647, 7.9465], [-60.4373, 7.9149], [-60.5356, 7.924], [-60.6092, 7.8543], [-60.6528, 7.8256], [-60.6834, 7.7838], [-60.703, 7.7357], [-60.7355, 7.703], [-60.7654, 7.6665], [-60.7827, 7.6626], [-60.7966, 7.6721], [-60.8431, 7.6515], [-60.9049, 7.6858], [-60.9707, 7.7405], [-61.0336, 7.7833], [-61.0552, 7.7952], [-61.0784, 7.8007], [-61.1561, 7.7911], [-61.2413, 7.7516], [-61.2829, 7.7161], [-61.3157, 7.6613], [-61.3242, 7.6213], [-61.3418, 7.6083], [-61.3424, 7.615], [-61.4301, 7.5144], [-61.455, 7.4613], [-61.4596, 7.4023], [-61.4454, 7.3134], [-61.4426, 7.2276], [-61.4474, 7.207], [-61.4918, 7.1351], [-61.4688, 7.0532], [-61.4401, 7.0061], [-61.434, 6.9283], [-61.4411, 6.8945], [-61.438, 6.8114], [-61.4799, 6.7238], [-61.4728, 6.6908], [-61.4824, 6.6604], [-61.466, 6.6374], [-61.4671, 6.6069], [-61.4969, 6.5708], [-61.5323, 6.5424], [-61.5472, 6.5908], [-61.5814, 6.6017], [-61.5829, 6.6336], [-61.5928, 6.6371], [-61.5992, 6.6365], [-61.611, 6.6304], [-61.6147, 6.6248], [-61.6216, 6.6054], [-61.6309, 6.5887], [-61.6497, 6.5663], [-61.6797, 6.5373], [-61.7177, 6.5046], [-61.7325, 6.4942], [-61.7783, 6.4623], [-61.8333, 6.4055], [-61.8779, 6.3914], [-61.8962, 6.3772], [-61.9473, 6.3128], [-61.973, 6.2924], [-61.9967, 6.2486], [-62.0264, 6.2165], [-62.035, 6.1627], [-62.0565, 6.141], [-62.1388, 6.086], [-62.1529, 6.0666], [-62.1187, 6.0599], [-62.0854, 6.0449], [-62.0392, 6.0441], [-62.0223, 6.0365], [-62.0015, 6.0216], [-61.9641, 5.9898], [-61.961, 5.9781], [-61.9994, 5.9205], [-62.0104, 5.8733], [-62.0318, 5.8516], [-62.0266, 5.8528], [-61.9085, 5.8679], [-61.8764, 5.8598], [-61.8266, 5.8651], [-61.7999, 5.8456], [-61.7404, 5.8436], [-61.7098, 5.8247], [-61.6783, 5.8209], [-61.6268, 5.8015], [-61.6049, 5.8068], [-61.5398, 5.8584], [-61.4593, 5.8821], [-61.4409, 5.8806], [-61.429, 5.8707], [-61.4264, 5.8565], [-61.4144, 5.8915], [-61.4199, 5.8916], [-61.3928, 5.9497], [-61.3869, 5.9485], [-61.3781, 5.97], [-61.3507, 5.9755], [-61.3439, 5.9884], [-61.3247, 5.999], [-61.3274, 6.0147], [-61.3125, 6.0285], [-61.3048, 6.0526], [-61.2958, 6.0536], [-61.2869, 6.0734], [-61.2721, 6.0833], [-61.262, 6.1096], [-61.2375, 6.1063], [-61.2273, 6.125], [-61.2037, 6.1115], [-61.1986, 6.1322], [-61.1846, 6.132], [-61.1881, 6.1392], [-61.1786, 6.1542], [-61.1856, 6.1705], [-61.1763, 6.1867], [-61.1346, 6.1772], [-61.1306, 6.1899], [-61.122, 6.1935], [-61.1295, 6.2016], [-61.1243, 6.2083], [-61.1313, 6.2056], [-61.1402, 6.2168], [-61.131, 6.2322], [-61.1308, 6.2584], [-61.1124, 6.2743], [-61.1356, 6.2747], [-61.1391, 6.2908], [-61.1549, 6.2917], [-61.1666, 6.3202], [-61.1828, 6.3334], [-61.1745, 6.3365], [-61.1765, 6.3443], [-61.1709, 6.3387], [-61.1575, 6.3699], [-61.167, 6.3828], [-61.1597, 6.3805], [-61.1565, 6.3888], [-61.1669, 6.3953], [-61.1567, 6.3936], [-61.1574, 6.4181], [-61.1489, 6.4149], [-61.1452, 6.421], [-61.1491, 6.4268], [-61.1424, 6.4326], [-61.1547, 6.4408], [-61.1472, 6.4512], [-61.1563, 6.4556], [-61.1521, 6.4679], [-61.1643, 6.4605], [-61.182, 6.4754], [-61.1749, 6.4841], [-61.1851, 6.4861], [-61.1681, 6.5049], [-61.1692, 6.5212], [-61.1792, 6.5253], [-61.1787, 6.5333], [-61.1942, 6.53], [-61.1931, 6.5401], [-61.204, 6.536], [-61.2018, 6.5244], [-61.2085, 6.5331], [-61.2188, 6.5293], [-61.217, 6.5413], [-61.2055, 6.5403], [-61.2057, 6.5508], [-61.22, 6.5563], [-61.2157, 6.5691], [-61.228, 6.5731], [-61.2162, 6.5775], [-61.219, 6.5941], [-61.2083, 6.5904], [-61.2025, 6.5961], [-61.196, 6.6275], [-61.177, 6.633], [-61.1849, 6.6553], [-61.1775, 6.6734], [-61.1569, 6.6811], [-61.1596, 6.6936], [-61.146, 6.6907], [-61.1389, 6.7174], [-61.1293, 6.7246], [-61.0992, 6.7182], [-61.0841, 6.704], [-61.0702, 6.73], [-61.035, 6.7164], [-61.0164, 6.7181], [-61.0005, 6.7299], [-60.9795, 6.7172], [-60.9337, 6.7215], [-60.9197, 6.7482], [-60.8915, 6.761], [-60.9164, 6.7965], [-60.914, 6.8107], [-60.9018, 6.822], [-60.8725, 6.816], [-60.8482, 6.7963], [-60.8476, 6.7832], [-60.8116, 6.7973], [-60.7206, 6.7479], [-60.7111, 6.7491], [-60.6816, 6.767], [-60.6729, 6.7972], [-60.6518, 6.818], [-60.6092, 6.8441], [-60.5458, 6.8566], [-60.5338, 6.8786], [-60.4997, 6.8822], [-60.4435, 6.9369], [-60.3979, 6.9476], [-60.3846, 6.9334], [-60.3743, 6.9337], [-60.3638, 6.9709], [-60.3637, 7.0023], [-60.3502, 7.0127], [-60.3428, 7.0356], [-60.3507, 7.059], [-60.3423, 7.0834], [-60.3596, 7.0972], [-60.3542, 7.1384], [-60.3652, 7.1712], [-60.3827, 7.1833], [-60.4193, 7.1833], [-60.4337, 7.2043], [-60.4766, 7.1992], [-60.5166, 7.1793], [-60.5345, 7.1405], [-60.548, 7.1407], [-60.5713, 7.1679], [-60.5762, 7.1874], [-60.5965, 7.1946], [-60.6286, 7.2292], [-60.637, 7.2524], [-60.6327, 7.27], [-60.6143, 7.2822], [-60.6125, 7.3046], [-60.5886, 7.3234], [-60.6087, 7.3848], [-60.6227, 7.3963], [-60.6239, 7.4091], [-60.6421, 7.422], [-60.6361, 7.4366], [-60.6438, 7.493], [-60.6265, 7.5227], [-60.626, 7.5446], [-60.6381, 7.6014], [-60.6248, 7.6099], [-60.62, 7.6208], [-60.6246, 7.6345], [-60.6173, 7.6457], [-60.5885, 7.6375], [-60.5918, 7.6778], [-60.5687, 7.7063], [-60.5756, 7.7441], [-60.5663, 7.7469], [-60.5647, 7.7662], [-60.5324, 7.7975], [-60.5285, 7.825], [-60.5026, 7.8411], [-60.4852, 7.8332], [-60.4721, 7.842], [-60.4566, 7.8387], [-60.4451, 7.8444], [-60.4328, 7.8323], [-60.4032, 7.8269], [-60.3725, 7.8434], [-60.3577, 7.8289], [-60.3323, 7.8453], [-60.3104, 7.874], [-60.2769, 7.8886], [-60.2518, 7.9189], [-60.2447, 7.916], [-60.24, 7.934], [-60.2272, 7.9392], [-60.233, 7.9465], [-60.2169, 7.9605], [-60.1871, 7.9653], [-60.1462, 7.989]]]}}, {"type": "Feature", "properties": {"municipio": "Sucre", "estado": "Bolívar", "gid": "VEN.6.11_1"}, "geometry": {"type": "Polygon", "coordinates": [[[-63.367, 3.9671], [-63.419, 4.0757], [-63.4351, 4.0936], [-63.4753, 4.1178], [-63.4914, 4.1386], [-63.5181, 4.1493], [-63.473, 4.1549], [-63.4637, 4.1757], [-63.465, 4.2068], [-63.4898, 4.2296], [-63.5161, 4.2889], [-63.5729, 4.3192], [-63.6202, 4.4047], [-63.6207, 4.481], [-63.6502, 4.5703], [-63.651, 4.6106], [-63.6657, 4.6742], [-63.7169, 4.7519], [-63.7333, 4.8292], [-63.7246, 4.9074], [-63.696, 4.9861], [-63.6684, 5.0388], [-63.6598, 5.096], [-63.6487, 5.1141], [-63.6117, 5.1259], [-63.5873, 5.1509], [-63.5621, 5.1893], [-63.5457, 5.2387], [-63.5378, 5.2971], [-63.5679, 5.3623], [-63.5681, 5.4348], [-63.5831, 5.4658], [-63.6339, 5.5174], [-63.6496, 5.5147], [-63.6875, 5.5354], [-63.7939, 5.6975], [-63.8582, 5.8849], [-63.8972, 5.9731], [-63.9074, 6.0887], [-63.9279, 6.1205], [-63.9788, 6.1467], [-64.0591, 6.1733], [-64.0723, 6.1841], [-64.0739, 6.1988], [-64.0683, 6.2122], [-64.0487, 6.2211], [-64.0225, 6.2188], [-63.963, 6.1945], [-63.9357, 6.1929], [-63.877, 6.2188], [-63.871, 6.2403], [-63.8751, 6.2621], [-63.9268, 6.2818], [-63.9344, 6.3103], [-63.9553, 6.3452], [-63.9605, 6.4125], [-63.9444, 6.445], [-63.9131, 6.4629], [-63.8523, 6.4766], [-63.8286, 6.5328], [-63.8079, 6.5359], [-63.7499, 6.524], [-63.7182, 6.536], [-63.6838, 6.5374], [-63.6148, 6.5802], [-63.613, 6.5956], [-63.6408, 6.6552], [-63.6667, 6.776], [-63.6827, 6.8198], [-63.6778, 6.9083], [-63.6812, 6.9518], [-63.697, 6.9793], [-63.696, 7.0334], [-63.7188, 7.1163], [-63.7533, 7.1825], [-63.7745, 7.2054], [-63.7943, 7.2201], [-63.8124, 7.2639], [-63.8922, 7.3823], [-63.9082, 7.4283], [-63.9317, 7.4814], [-63.9769, 7.5302], [-64.0242, 7.5483], [-64.0394, 7.5699], [-64.0505, 7.6097], [-64.0958, 7.6528], [-64.1068, 7.6914], [-64.1838, 7.7501], [-64.1935, 7.787], [-64.2112, 7.8144], [-64.2077, 7.8787], [-64.21, 7.9191], [-64.2057, 7.9261], [-64.1232, 7.9264], [-64.0998, 7.9363], [-64.1107, 7.9431], [-64.1601, 7.986], [-64.2019, 8.0305], [-64.2094, 8.0071], [-64.2231, 7.9927], [-64.2479, 8.0439], [-64.267, 8.0405], [-64.2768, 8.0373], [-64.284, 8.0313], [-64.3145, 7.9909], [-64.3298, 7.9365], [-64.3389, 7.9276], [-64.3469, 7.9257], [-64.3582, 7.9298], [-64.3679, 7.9363], [-64.4006, 7.9606], [-64.4524, 7.9551], [-64.5115, 7.9193], [-64.5459, 7.8769], [-64.5434, 7.8126], [-64.534, 7.7898], [-64.5009, 7.768], [-64.4655, 7.7618], [-64.4466, 7.7495], [-64.4516, 7.715], [-64.4579, 7.71], [-64.4809, 7.6996], [-64.4956, 7.6967], [-64.5123, 7.6969], [-64.5347, 7.7044], [-64.5858, 7.6999], [-64.641, 7.6683], [-64.6593, 7.6446], [-64.7204, 7.6113], [-64.78, 7.5982], [-64.8356, 7.5697], [-64.8347, 7.5608], [-64.8476, 7.5271], [-64.8699, 7.5143], [-64.8804, 7.4958], [-64.9001, 7.4898], [-64.9363, 7.5021], [-64.9465, 7.4913], [-64.9676, 7.483], [-64.984, 7.486], [-64.9947, 7.4958], [-65.0137, 7.5283], [-65.0259, 7.535], [-65.0562, 7.5305], [-65.0866, 7.5326], [-65.1233, 7.5006], [-65.1308, 7.4678], [-65.1291, 7.4184], [-65.1132, 7.3894], [-65.1127, 7.3676], [-65.0925, 7.3409], [-65.0952, 7.3264], [-65.084, 7.3256], [-65.0885, 7.2999], [-65.0835, 7.2828], [-65.069, 7.2706], [-65.035, 7.245], [-65.0135, 7.2053], [-65.0177, 7.1975], [-65.0436, 7.191], [-65.0512, 7.172], [-65.02, 7.1239], [-64.9992, 7.1092], [-64.9657, 7.1075], [-64.8909, 7.0561], [-64.8339, 7.0405], [-64.8195, 7.0188], [-64.8179, 6.9635], [-64.811, 6.948], [-64.7789, 6.921], [-64.7548, 6.8792], [-64.7088, 6.8402], [-64.6909, 6.8063], [-64.6503, 6.7931], [-64.6374, 6.7817], [-64.6242, 6.7289], [-64.6274, 6.6793], [-64.5988, 6.6203], [-64.6357, 6.5552], [-64.6368, 6.5024], [-64.6501, 6.4946], [-64.6975, 6.4908], [-64.7519, 6.4671], [-64.7723, 6.4308], [-64.737, 6.2411], [-64.7287, 6.1545], [-64.7141, 6.1081], [-64.7229, 6.0539], [-64.787, 5.9576], [-64.8327, 5.9256], [-64.8552, 5.8803], [-64.9514, 5.8191], [-64.968, 5.8025], [-64.9853, 5.7587], [-64.9951, 5.7388], [-64.9857, 5.7324], [-64.9767, 5.7151], [-64.9793, 5.699], [-65.0162, 5.661], [-65.0242, 5.6368], [-64.993, 5.5668], [-64.9379, 5.4823], [-64.8957, 5.4479], [-64.8942, 5.4342], [-64.9108, 5.3945], [-64.9377, 5.3531], [-64.9594, 5.3394], [-65.0208, 5.3448], [-65.0594, 5.3356], [-65.0688, 5.3159], [-65.0631, 5.2725], [-65.0115, 5.1503], [-64.9846, 5.0222], [-64.9643, 4.967], [-64.9, 4.8225], [-64.788, 4.6414], [-64.7697, 4.62], [-64.7298, 4.5984], [-64.6829, 4.5858], [-64.5944, 4.579], [-64.5672, 4.5673], [-64.5602, 4.5564], [-64.5383, 4.4401], [-64.5257, 4.3245], [-64.5264, 4.2643], [-64.5366, 4.227], [-64.5918, 4.2482], [-64.615, 4.2495], [-64.6402, 4.2216], [-64.6386, 4.1647], [-64.6275, 4.1385], [-64.593, 4.114], [-64.5605, 4.1015], [-64.5444, 4.1137], [-64.5005, 4.1104], [-64.4316, 4.1346], [-64.3863, 4.1371], [-64.3355, 4.129], [-64.3063, 4.1312], [-64.2897, 4.1438], [-64.2744, 4.1426], [-64.2641, 4.1254], [-64.2508, 4.1296], [-64.2188, 4.1154], [-64.1644, 4.1263], [-64.1127, 4.0913], [-64.0963, 4.0535], [-64.0972, 4.0251], [-64.0758, 3.9996], [-64.0508, 3.9501], [-64.0361, 3.944], [-64.0357, 3.9342], [-64.0019, 3.9329], [-63.9972, 3.9035], [-63.9863, 3.8968], [-63.9788, 3.9004], [-63.9641, 3.8679], [-63.9594, 3.8874], [-63.9499, 3.8865], [-63.9261, 3.926], [-63.9013, 3.9338], [-63.891, 3.9304], [-63.8502, 3.9499], [-63.8352, 3.9399], [-63.7966, 3.9326], [-63.7552, 3.9401], [-63.738, 3.9285], [-63.7438, 3.921], [-63.7388, 3.9151], [-63.7233, 3.914], [-63.713, 3.9032], [-63.7102, 3.9132], [-63.6827, 3.9074], [-63.6633, 3.9213], [-63.6933, 3.936], [-63.7008, 3.9494], [-63.686, 3.9921], [-63.6894, 4.0154], [-63.6769, 4.019], [-63.6527, 4.0018], [-63.6435, 3.9785], [-63.5922, 3.9282], [-63.5933, 3.9054], [-63.5847, 3.8957], [-63.5905, 3.8846], [-63.5716, 3.8832], [-63.5546, 3.891], [-63.5519, 3.8649], [-63.5394, 3.8651], [-63.5124, 3.8474], [-63.5035, 3.8496], [-63.4974, 3.8399], [-63.503, 3.8679], [-63.4825, 3.8736], [-63.4527, 3.8582], [-63.4347, 3.8649], [-63.4385, 3.8832], [-63.4119, 3.9118], [-63.4205, 3.9238], [-63.4177, 3.9349], [-63.4397, 3.9371], [-63.4394, 3.9485], [-63.4522, 3.9554], [-63.4288, 3.9771], [-63.3933, 3.9804], [-63.367, 3.9671]]]}}]}