{"type": "FeatureCollection", "features": [{"type": "Feature", "properties": {"municipio": "Bejuma", "estado": "Carabobo", "gid": "VEN.7.1_1"}, "geometry": {"type": "Polygon", "coordinates": [[[-68.3439, 10.4019], [-68.3452, 10.3876], [-68.3122, 10.3114], [-68.3167, 10.2954], [-68.1692, 10.298], [-68.2063, 10.2351], [-68.2112, 10.1979], [-68.2453, 10.1822], [-68.2367, 10.1736], [-68.2502, 10.1136], [-68.2244, 10.1167], [-68.1898, 10.1339], [-68.1689, 10.1353], [-68.1533, 10.1243], [-68.1526, 10.1092], [-68.1382, 10.1105], [-68.1288, 10.1548], [-68.0953, 10.2055], [-68.0852, 10.274], [-68.0746, 10.2936], [-68.0798, 10.3328], [-68.0951, 10.3573], [-68.1215, 10.3492], [-68.1581, 10.3536], [-68.2101, 10.4001], [-68.2504, 10.4549], [-68.2764, 10.4669], [-68.3041, 10.4281], [-68.3439, 10.4019]]]}}, {"type": "Feature", "properties": {"municipio": "Carlos Arevalo", "estado": "Carabobo", "gid": "VEN.7.2_1"}, "geometry": {"type": "Polygon", "coordinates": [[[-67.637, 10.1492], [-67.6572, 10.1527], [-67.6874, 10.1541], [-67.6823, 10.1152], [-67.688, 10.1102], [-67.7124, 10.1244], [-67.7495, 10.1276], [-67.7988, 10.1148], [-67.8242, 10.1201], [-67.8309, 10.1298], [-67.8868, 10.1007], [-67.9068, 10.1077], [-67.9158, 10.1086], [-67.95, 10.1006], [-67.9599, 10.0462], [-67.9624, 10.0198], [-67.9534, 10.0066], [-67.9193, 10.003], [-67.867, 9.9789], [-67.8334, 9.9765], [-67.7885, 9.9268], [-67.7697, 9.9235], [-67.7317, 9.8905], [-67.6996, 9.8454], [-67.6727, 9.8418], [-67.6257, 9.8768], [-67.579, 9.8806], [-67.5562, 9.914], [-67.5439, 9.9206], [-67.5242, 9.9076], [-67.5168, 9.9031], [-67.5006, 9.9081], [-67.5105, 9.9553], [-67.5078, 9.9879], [-67.5117, 10.0056], [-67.5324, 10.0326], [-67.6102, 10.0394], [-67.6525, 10.0635], [-67.6365, 10.1167], [-67.637, 10.1492]]]}}, {"type": "Feature", "properties": {"municipio": "Diego Ibarra", "estado": "Carabobo", "gid": "VEN.7.3_1"}, "geometry": {"type": "Polygon", "coordinates": [[[-67.608, 10.2792], [-67.6131, 10.3312], [-67.6549, 10.3616], [-67.7134, 10.378], [-67.7265, 10.3741], [-67.7231, 10.3607], [-67.7093, 10.3297], [-67.7088, 10.3199], [-67.7161, 10.309], [-67.7202, 10.293], [-67.7263, 10.2814], [-67.7292, 10.267], [-67.7059, 10.2836], [-67.6933, 10.2876], [-67.6664, 10.2835], [-67.6675, 10.263], [-67.6592, 10.2596], [-67.6301, 10.2571], [-67.608, 10.2792]]]}}, {"type": "Feature", "properties": {"municipio": "Guacara", "estado": "Carabobo", "gid": "VEN.7.4_1"}, "geometry": {"type": "Polygon", "coordinates": [[[-67.8268, 10.3921], [-67.91, 10.3729], [-67.8898, 10.355], [-67.8838, 10.3362], [-67.9053, 10.2651], [-67.8883, 10.2364], [-67.8692, 10.2248], [-67.8741, 10.2127], [-67.8654, 10.1893], [-67.8411, 10.1666], [-67.8411, 10.1721], [-67.8123, 10.1972], [-67.8025, 10.2306], [-67.8195, 10.2451], [-67.8262, 10.2646], [-67.8036, 10.3712], [-67.8172, 10.3799], [-67.8268, 10.3921]]]}}, {"type": "Feature", "properties": {"municipio": "Juan José Mora", "estado": "Carabobo", "gid": "VEN.7.5_1"}, "geometry": {"type": "Polygon", "coordinates": [[[-68.0951, 10.3573], [-68.1053, 10.3573], [-68.0884, 10.4387], [-68.0708, 10.477], [-68.0679, 10.4963], [-68.0738, 10.4985], [-68.1062, 10.4807], [-68.1229, 10.4901], [-68.1265, 10.484], [-68.1382, 10.4882], [-68.1546, 10.5037], [-68.1643, 10.5004], [-68.2401, 10.5835], [-68.2536, 10.584], [-68.3159, 10.5759], [-68.3326, 10.545], [-68.329, 10.4794], [-68.3439, 10.4019], [-68.3041, 10.4281], [-68.2764, 10.4669], [-68.2504, 10.4549], [-68.2101, 10.4001], [-68.1581, 10.3536], [-68.1215, 10.3492], [-68.0951, 10.3573]]]}}, {"type": "Feature", "properties": {"municipio": "Lago Valencia", "estado": "Carabobo", "gid": "VEN.7.6_1"}, "geometry": {"type": "Polygon", "coordinates": [[[-67.5587, 10.2118], [-67.611, 10.2386], [-67.6273, 10.2563], [-67.6592, 10.2596], [-67.6675, 10.263], [-67.6664, 10.2835], [-67.6933, 10.2876], [-67.7059, 10.2836], [-67.7315, 10.2654], [-67.7445, 10.2602], [-67.7661, 10.2583], [-67.7977, 10.2407], [-67.8123, 10.1972], [-67.8411, 10.1721], [-67.8242, 10.1201], [-67.7988, 10.1148], [-67.7495, 10.1276], [-67.7124, 10.1244], [-67.688, 10.1102], [-67.6823, 10.1152], [-67.6874, 10.1541], [-67.6572, 10.1527], [-67.6357, 10.1489], [-67.6066, 10.1615], [-67.6005, 10.1254], [-67.5904, 10.1235], [-67.586, 10.1375], [-67.5715, 10.1282], [-67.5649, 10.1338], [-67.5654, 10.1871], [-67.5551, 10.198], [-67.5587, 10.2118]]]}}, {"type": "Feature", "properties": {"municipio": "Libertador", "estado": "Carabobo", "gid": "VEN.7.7_1"}, "geometry": {"type": "Polygon", "coordinates": [[[-68.1526, 10.1092], [-68.1583, 10.0929], [-68.1978, 10.0506], [-68.1947, 10.0251], [-68.178, 10.0082], [-68.1029, 9.9645], [-68.0977, 9.9526], [-68.0704, 9.9681], [-68.0332, 9.9911], [-68.0168, 9.9839], [-68.0134, 9.9881], [-68.0193, 10.0176], [-68.0366, 10.0285], [-68.0417, 10.077], [-68.0539, 10.0981], [-68.0414, 10.1121], [-68.0437, 10.1816], [-68.0635, 10.1941], [-68.0659, 10.24], [-68.0665, 10.275], [-68.0696, 10.2835], [-68.0738, 10.284], [-68.0811, 10.282], [-68.0852, 10.274], [-68.0953, 10.2055], [-68.1288, 10.1548], [-68.1382, 10.1105], [-68.1526, 10.1092]]]}}, {"type": "Feature", "properties": {"municipio": "Los Guayos", "estado": "Carabobo", "gid": "VEN.7.8_1"}, "geometry": {"type": "Polygon", "coordinates": [[[-67.8309, 10.1298], [-67.8411, 10.1666], [-67.8654, 10.1893], [-67.8741, 10.2127], [-67.873, 10.2191], [-67.9177, 10.1986], [-67.9365, 10.1947], [-67.9308, 10.1861], [-67.9268, 10.1731], [-67.9187, 10.1715], [-67.9068, 10.1077], [-67.8868, 10.1007], [-67.8309, 10.1298]]]}}, {"type": "Feature", "properties": {"municipio": "Miranda", "estado": "Carabobo", "gid": "VEN.7.9_1"}, "geometry": {"type": "Polygon", "coordinates": [[[-68.2453, 10.1822], [-68.2567, 10.1988], [-68.277, 10.1882], [-68.2925, 10.1976], [-68.2999, 10.2236], [-68.3298, 10.2727], [-68.3417, 10.2565], [-68.3592, 10.2227], [-68.3587, 10.176], [-68.3228, 10.0517], [-68.3201, 10.0307], [-68.2887, 10.0561], [-68.2705, 10.1088], [-68.2502, 10.1136], [-68.2367, 10.1736], [-68.2453, 10.1822]]]}}, {"type": "Feature", "properties": {"municipio": "Montalbán", "estado": "Carabobo", "gid": "VEN.7.10_1"}, "geometry": {"type": "Polygon", "coordinates": [[[-68.3167, 10.2954], [-68.3298, 10.2727], [-68.2999, 10.2236], [-68.2925, 10.1976], [-68.277, 10.1882], [-68.2567, 10.1988], [-68.2453, 10.1822], [-68.2112, 10.1979], [-68.2063, 10.2351], [-68.1692, 10.298], [-68.3167, 10.2954]]]}}, {"type": "Feature", "properties": {"municipio": "Naguanagua", "estado": "Carabobo", "gid": "VEN.7.11_1"}, "geometry": {"type": "Polygon", "coordinates": [[[-68.0811, 10.282], [-68.0738, 10.284], [-68.0696, 10.2835], [-68.0665, 10.275], [-68.0662, 10.2618], [-67.953, 10.2556], [-67.9517, 10.287], [-67.9484, 10.3263], [-67.9441, 10.3494], [-67.97, 10.3448], [-68.0123, 10.3355], [-68.0487, 10.3538], [-68.0858, 10.3585], [-68.0951, 10.3573], [-68.0798, 10.3328], [-68.0746, 10.2936], [-68.0811, 10.282]]]}}, {"type": "Feature", "properties": {"municipio": "Puerto Cabello", "estado": "Carabobo", "gid": "VEN.7.12_1"}, "geometry": {"type": "MultiPolygon", "coordinates": [[[[-67.8315, 10.4687], [-67.8354, 10.4832], [-67.8449, 10.4532], [-67.8365, 10.4438], [-67.8412, 10.439], [-67.8604, 10.4526], [-67.8546, 10.4674], [-67.8529, 10.4626], [-67.8576, 10.479], [-67.8874, 10.4754], [-67.894, 10.4674], [-67.9001, 10.4718], [-67.8976, 10.4643], [-67.9035, 10.4738], [-67.9207, 10.454], [-67.9315, 10.4596], [-67.9321, 10.4724], [-67.951, 10.4621], [-67.9796, 10.4899], [-67.9837, 10.4854], [-68.0093, 10.4912], [-68.0115, 10.4857], [-67.9932, 10.4874], [-67.9835, 10.4651], [-67.9921, 10.4751], [-68.0029, 10.4696], [-67.9971, 10.4732], [-68.0004, 10.4812], [-68.0232, 10.4743], [-68.0385, 10.4824], [-68.0351, 10.4885], [-68.0415, 10.4846], [-68.0593, 10.4976], [-68.0649, 10.4976], [-68.0665, 10.4957], [-68.0681, 10.4961], [-68.0708, 10.477], [-68.0884, 10.4387], [-68.1053, 10.3573], [-68.0858, 10.3585], [-68.0487, 10.3538], [-68.0123, 10.3355], [-67.97, 10.3448], [-67.9324, 10.3521], [-67.9119, 10.3724], [-67.8268, 10.3921], [-67.8308, 10.4094], [-67.8315, 10.4687]]], [[[-67.9485, 10.4926], [-67.9529, 10.4907], [-67.944, 10.4818], [-67.9418, 10.489], [-67.9485, 10.4926]]]]}}, {"type": "Feature", "properties": {"municipio": "San Diego", "estado": "Carabobo", "gid": "VEN.7.13_1"}, "geometry": {"type": "Polygon", "coordinates": [[[-67.91, 10.3729], [-67.9119, 10.3724], [-67.9324, 10.3521], [-67.9443, 10.3496], [-67.9484, 10.3263], [-67.9517, 10.287], [-67.9531, 10.2556], [-67.9509, 10.2255], [-67.9611, 10.2177], [-67.9608, 10.1985], [-67.957, 10.1923], [-67.936, 10.1939], [-67.9177, 10.1986], [-67.8692, 10.2248], [-67.8883, 10.2364], [-67.9053, 10.2651], [-67.8838, 10.3362], [-67.8898, 10.355], [-67.91, 10.3729]]]}}, {"type": "Feature", "properties": {"municipio": "San Joaquín", "estado": "Carabobo", "gid": "VEN.7.14_1"}, "geometry": {"type": "Polygon", "coordinates": [[[-67.8036, 10.3712], [-67.8262, 10.2646], [-67.8195, 10.2451], [-67.8025, 10.2306], [-67.7977, 10.2407], [-67.7661, 10.2583], [-67.7445, 10.2602], [-67.7292, 10.267], [-67.7263, 10.2814], [-67.7202, 10.293], [-67.7161, 10.309], [-67.7088, 10.3199], [-67.7093, 10.3297], [-67.7231, 10.3607], [-67.7265, 10.3741], [-67.7341, 10.3718], [-67.7725, 10.3559], [-67.7878, 10.362], [-67.8036, 10.3712]]]}}, {"type": "Feature", "properties": {"municipio": "Valencia", "estado": "Carabobo", "gid": "VEN.7.15_1"}, "geometry": {"type": "Polygon", "coordinates": [[[-67.9068, 10.1077], [-67.9187, 10.1715], [-67.9268, 10.1731], [-67.9308, 10.1861], [-67.936, 10.1939], [-67.957, 10.1923], [-67.9608, 10.1985], [-67.9611, 10.2177], [-67.9509, 10.2255], [-67.9531, 10.2556], [-68.0662, 10.2618], [-68.0659, 10.24], [-68.0635, 10.1941], [-68.0437, 10.1816], [-68.0414, 10.1121], [-68.0539, 10.0981], [-68.0417, 10.077], [-68.0366, 10.0285], [-68.0193, 10.0176], [-68.0134, 9.9881], [-68.0168, 9.9839], [-68.0332, 9.9911], [-68.0704, 9.9681], [-68.0979, 9.9524], [-68.0932, 9.9419], [-68.0681, 9.9215], [-68.0563, 9.909], [-68.0519, 9.9016], [-68.0405, 9.8917], [-68.0268, 9.8915], [-67.9701, 9.9238], [-67.9549, 9.9246], [-67.9469, 9.9206], [-67.9514, 9.877], [-67.9313, 9.8626], [-67.8847, 9.8554], [-67.8139, 9.8584], [-67.8025, 9.855], [-67.8074, 9.9143], [-67.7885, 9.9268], [-67.8334, 9.9765], [-67.867, 9.9789], [-67.9193, 10.003], [-67.9534, 10.0066], [-67.9624, 10.0198], [-67.9599, 10.0462], [-67.95, 10.1006], [-67.9158, 10.1086], [-67.9068, 10.1077]]]}}]}