{"type": "FeatureCollection", "features": [{"type": "Feature", "properties": {"municipio": "Anzoátegui", "estado": "Cojedes", "gid": "VEN.8.1_1"}, "geometry": {"type": "Polygon", "coordinates": [[[-68.6852, 9.5883], [-68.6851, 9.5943], [-68.6954, 9.6127], [-68.6986, 9.6348], [-68.7547, 9.6611], [-68.799, 9.7194], [-68.7696, 9.7428], [-68.7376, 9.812], [-68.7181, 9.8849], [-68.7222, 9.9117], [-68.7533, 9.9042], [-68.8289, 9.9022], [-68.872, 9.9124], [-68.9219, 9.8949], [-68.9437, 9.8109], [-68.9749, 9.7913], [-68.9448, 9.7553], [-68.9412, 9.7345], [-68.9072, 9.675], [-68.8912, 9.6223], [-68.8837, 9.5714], [-68.8895, 9.5057], [-68.8859, 9.4825], [-68.6921, 9.4788], [-68.6831, 9.5032], [-68.6976, 9.5354], [-68.7237, 9.5531], [-68.7284, 9.5731], [-68.6893, 9.5849], [-68.6852, 9.5883]]]}}, {"type": "Feature", "properties": {"municipio": "Ezequiel Zomora", "estado": "Cojedes", "gid": "VEN.8.2_1"}, "geometry": {"type": "Polygon", "coordinates": [[[-68.6852, 9.5883], [-68.6715, 9.6057], [-68.6363, 9.6064], [-68.6034, 9.6042], [-68.5923, 9.6134], [-68.579, 9.6542], [-68.5724, 9.6542], [-68.5506, 9.6258], [-68.5012, 9.5935], [-68.4432, 9.6471], [-68.4477, 9.6831], [-68.4585, 9.7017], [-68.4521, 9.724], [-68.4627, 9.7552], [-68.4577, 9.7671], [-68.4332, 9.7844], [-68.4258, 9.7929], [-68.4144, 9.8582], [-68.4413, 9.8804], [-68.4529, 9.9035], [-68.4159, 9.9435], [-68.4051, 9.9662], [-68.4, 9.9888], [-68.4143, 9.976], [-68.4763, 9.9468], [-68.4905, 9.958], [-68.4925, 9.9894], [-68.4993, 9.9976], [-68.5405, 10.0179], [-68.5809, 10.0159], [-68.6183, 9.9912], [-68.6538, 9.9448], [-68.7021, 9.9183], [-68.7222, 9.9117], [-68.7181, 9.8849], [-68.7376, 9.812], [-68.7696, 9.7428], [-68.799, 9.7194], [-68.7547, 9.6611], [-68.6986, 9.6348], [-68.6954, 9.6127], [-68.6851, 9.5943], [-68.6852, 9.5883]]]}}, {"type": "Feature", "properties": {"municipio": "Falcón", "estado": "Cojedes", "gid": "VEN.8.3_1"}, "geometry": {"type": "Polygon", "coordinates": [[[-68.2502, 10.1136], [-68.2705, 10.1088], [-68.2887, 10.0561], [-68.3201, 10.0307], [-68.3217, 10.026], [-68.3823, 10.0045], [-68.4, 9.9888], [-68.3912, 9.9805], [-68.3833, 9.9487], [-68.2972, 9.911], [-68.2965, 9.901], [-68.313, 9.8791], [-68.3105, 9.8685], [-68.3011, 9.8642], [-68.2522, 9.8707], [-68.2248, 9.8593], [-68.2062, 9.8689], [-68.1245, 9.8774], [-68.1047, 9.8853], [-68.0775, 9.9044], [-68.0609, 9.914], [-68.0681, 9.9215], [-68.0932, 9.9419], [-68.1029, 9.9645], [-68.178, 10.0082], [-68.1947, 10.0251], [-68.1978, 10.0506], [-68.1583, 10.0929], [-68.1533, 10.1243], [-68.1689, 10.1353], [-68.1898, 10.1339], [-68.2244, 10.1167], [-68.2502, 10.1136]]]}}, {"type": "Feature", "properties": {"municipio": "Girardot", "estado": "Cojedes", "gid": "VEN.8.4_1"}, "geometry": {"type": "Polygon", "coordinates": [[[-68.0248, 8.4476], [-68.0147, 8.4601], [-67.9996, 8.4868], [-67.9949, 8.5123], [-68.0228, 8.5906], [-68.0212, 8.5953], [-68.0705, 8.6506], [-68.0798, 8.6903], [-68.0658, 8.7633], [-68.0873, 8.8629], [-68.0807, 8.9132], [-68.1474, 8.9563], [-68.1978, 8.9697], [-68.2489, 9.0635], [-68.3124, 9.0781], [-68.329, 9.0894], [-68.332, 9.087], [-68.3624, 9.0786], [-68.3964, 9.0841], [-68.4307, 9.0938], [-68.474, 9.1213], [-68.4961, 9.1529], [-68.5853, 9.238], [-68.6047, 9.2353], [-68.6005, 9.1993], [-68.6346, 9.0034], [-68.631, 8.9542], [-68.6172, 8.9136], [-68.5979, 8.8879], [-68.5697, 8.8697], [-68.523, 8.8548], [-68.5164, 8.8457], [-68.5199, 8.8246], [-68.5289, 8.8174], [-68.6028, 8.8055], [-68.682, 8.7956], [-68.6919, 8.7886], [-68.6889, 8.7636], [-68.6181, 8.7104], [-68.5785, 8.6562], [-68.495, 8.5954], [-68.4529, 8.5468], [-68.4284, 8.5106], [-68.3827, 8.5448], [-68.3351, 8.5573], [-68.2609, 8.5591], [-68.2052, 8.5415], [-68.1839, 8.5293], [-68.1396, 8.5271], [-68.101, 8.5087], [-68.0342, 8.4628], [-68.0248, 8.4476]]]}}, {"type": "Feature", "properties": {"municipio": "Lima Blanco", "estado": "Cojedes", "gid": "VEN.8.5_1"}, "geometry": {"type": "Polygon", "coordinates": [[[-68.4287, 9.7896], [-68.4205, 9.7881], [-68.4044, 9.7933], [-68.3806, 9.7914], [-68.3569, 9.8161], [-68.317, 9.8061], [-68.3037, 9.7833], [-68.2549, 9.7862], [-68.2392, 9.7966], [-68.2148, 9.8003], [-68.2085, 9.8677], [-68.2248, 9.8593], [-68.2522, 9.8707], [-68.3011, 9.8642], [-68.3105, 9.8685], [-68.313, 9.8791], [-68.2965, 9.901], [-68.2972, 9.911], [-68.3833, 9.9487], [-68.3912, 9.9805], [-68.4, 9.9888], [-68.4051, 9.9662], [-68.4159, 9.9435], [-68.4529, 9.9035], [-68.4413, 9.8804], [-68.4144, 9.8582], [-68.4258, 9.7929], [-68.4287, 9.7896]]]}}, {"type": "Feature", "properties": {"municipio": "Paode San Juan Bautista", "estado": "Cojedes", "gid": "VEN.8.6_1"}, "geometry": {"type": "Polygon", "coordinates": [[[-68.0609, 9.914], [-68.0775, 9.9044], [-68.1047, 9.8853], [-68.1147, 9.8803], [-68.1376, 9.8754], [-68.2085, 9.8677], [-68.2253, 9.6879], [-68.0992, 9.6768], [-68.1865, 9.5268], [-68.2356, 9.5043], [-68.2576, 9.4681], [-68.2686, 9.4227], [-68.264, 9.3708], [-68.2767, 9.3324], [-68.2849, 9.3252], [-68.3009, 9.338], [-68.3098, 9.3333], [-68.3113, 9.3056], [-68.2918, 9.252], [-68.2925, 9.2215], [-68.3166, 9.1327], [-68.3315, 9.117], [-68.3419, 9.116], [-68.3457, 9.1187], [-68.3445, 9.1052], [-68.3124, 9.0781], [-68.2489, 9.0635], [-68.1978, 8.9697], [-68.1474, 8.9563], [-68.0807, 8.9132], [-68.0873, 8.8629], [-68.0658, 8.7633], [-68.0798, 8.6903], [-68.0705, 8.6506], [-68.0212, 8.5953], [-68.0076, 8.6204], [-68.0081, 8.6754], [-68.0245, 8.7077], [-68.0206, 8.7618], [-67.9931, 8.7913], [-67.9878, 8.8414], [-67.9686, 8.8819], [-67.8655, 9.0106], [-67.8401, 9.0862], [-67.8668, 9.1411], [-67.8644, 9.1952], [-67.8623, 9.2421], [-67.9179, 9.3224], [-67.8949, 9.4007], [-67.9052, 9.4284], [-67.9098, 9.4871], [-67.9396, 9.547], [-67.931, 9.5739], [-67.9058, 9.5892], [-67.896, 9.618], [-67.8834, 9.629], [-67.8363, 9.6318], [-67.8051, 9.6444], [-67.7596, 9.6875], [-67.7332, 9.7012], [-67.7283, 9.7165], [-67.7332, 9.7359], [-67.7963, 9.8531], [-67.8139, 9.8584], [-67.8847, 9.8554], [-67.9313, 9.8626], [-67.9514, 9.877], [-67.9469, 9.9206], [-67.9549, 9.9246], [-67.9701, 9.9238], [-68.0268, 9.8915], [-68.0405, 9.8917], [-68.0519, 9.9016], [-68.0609, 9.914]]]}}, {"type": "Feature", "properties": {"municipio": "Ricaurte", "estado": "Cojedes", "gid": "VEN.8.7_1"}, "geometry": {"type": "Polygon", "coordinates": [[[-68.8859, 9.4825], [-68.876, 9.4526], [-68.8566, 9.4309], [-68.8006, 9.4035], [-68.7079, 9.3187], [-68.6319, 9.2692], [-68.6047, 9.2353], [-68.5853, 9.238], [-68.4961, 9.1529], [-68.474, 9.1213], [-68.4307, 9.0938], [-68.3964, 9.0841], [-68.3629, 9.0787], [-68.3927, 9.1254], [-68.4003, 9.2022], [-68.4257, 9.251], [-68.4639, 9.2926], [-68.4648, 9.3434], [-68.4881, 9.3508], [-68.5258, 9.3856], [-68.5812, 9.5006], [-68.6011, 9.5504], [-68.6017, 9.604], [-68.6363, 9.6064], [-68.6715, 9.6057], [-68.6818, 9.5912], [-68.6893, 9.5849], [-68.7284, 9.5731], [-68.7237, 9.5531], [-68.6976, 9.5354], [-68.6831, 9.5032], [-68.6921, 9.4788], [-68.8859, 9.4825]]]}}, {"type": "Feature", "properties": {"municipio": "Romulo Gallegos", "estado": "Cojedes", "gid": "VEN.8.8_1"}, "geometry": {"type": "Polygon", "coordinates": [[[-68.6034, 9.6042], [-68.6017, 9.604], [-68.6011, 9.5504], [-68.5812, 9.5006], [-68.5258, 9.3856], [-68.4881, 9.3508], [-68.4648, 9.3434], [-68.4639, 9.2926], [-68.4257, 9.251], [-68.4003, 9.2022], [-68.3927, 9.1254], [-68.3629, 9.0787], [-68.332, 9.087], [-68.329, 9.0894], [-68.3445, 9.1052], [-68.3457, 9.1187], [-68.3479, 9.1252], [-68.3336, 9.1846], [-68.377, 9.2832], [-68.3784, 9.324], [-68.3576, 9.3483], [-68.3489, 9.4085], [-68.3508, 9.471], [-68.3334, 9.4935], [-68.3193, 9.5927], [-68.3374, 9.6053], [-68.4432, 9.6471], [-68.5012, 9.5935], [-68.5506, 9.6258], [-68.5724, 9.6542], [-68.579, 9.6542], [-68.5923, 9.6134], [-68.6034, 9.6042]]]}}, {"type": "Feature", "properties": {"municipio": "Tinaco", "estado": "Cojedes", "gid": "VEN.8.9_1"}, "geometry": {"type": "Polygon", "coordinates": [[[-68.4432, 9.6471], [-68.3374, 9.6053], [-68.3193, 9.5927], [-68.3334, 9.4935], [-68.3508, 9.471], [-68.3489, 9.4085], [-68.3576, 9.3483], [-68.3784, 9.324], [-68.377, 9.2832], [-68.3336, 9.1846], [-68.3479, 9.1252], [-68.3419, 9.116], [-68.3315, 9.117], [-68.3166, 9.1327], [-68.2925, 9.2215], [-68.2918, 9.252], [-68.3113, 9.3056], [-68.3098, 9.3333], [-68.3009, 9.338], [-68.2849, 9.3252], [-68.2767, 9.3324], [-68.264, 9.3708], [-68.2686, 9.4227], [-68.2576, 9.4681], [-68.2356, 9.5043], [-68.1865, 9.5268], [-68.0992, 9.6768], [-68.2253, 9.6879], [-68.2148, 9.8003], [-68.2392, 9.7966], [-68.2549, 9.7862], [-68.3037, 9.7833], [-68.317, 9.8061], [-68.3569, 9.8161], [-68.3806, 9.7914], [-68.4044, 9.7933], [-68.4205, 9.7881], [-68.4287, 9.7896], [-68.4332, 9.7844], [-68.4577, 9.7671], [-68.4627, 9.7552], [-68.4521, 9.724], [-68.4585, 9.7017], [-68.4477, 9.6831], [-68.4432, 9.6471]]]}}]}