{"type": "FeatureCollection", "features": [{"type": "Feature", "properties": {"municipio": "Antonio Diaz", "estado": "Delta Amacuro", "gid": "VEN.9.1_1"}, "geometry": {"type": "MultiPolygon", "coordinates": [[[[-60.1462, 7.989], [-60.1334, 8.0001], [-60.121, 8.0319], [-60.0876, 8.0391], [-60.0578, 8.0269], [-60.041, 8.0393], [-60.0321, 8.037], [-60.01, 8.0583], [-59.9989, 8.0799], [-59.9932, 8.1231], [-59.9798, 8.1368], [-59.9933, 8.1602], [-59.9763, 8.1908], [-59.9459, 8.1999], [-59.9465, 8.2229], [-59.8306, 8.2423], [-59.8072, 8.272], [-59.82, 8.31], [-59.9995, 8.5297], [-59.9876, 8.5305], [-60.0013, 8.5385], [-59.999, 8.5485], [-60.0199, 8.5521], [-60.0276, 8.5593], [-60.0071, 8.5515], [-60.0524, 8.5824], [-60.1115, 8.5962], [-60.1599, 8.6218], [-60.179, 8.621], [-60.1985, 8.6299], [-60.206, 8.6246], [-60.3999, 8.6307], [-60.411, 8.6265], [-60.4113, 8.6115], [-60.4243, 8.594], [-60.4071, 8.5815], [-60.4299, 8.5688], [-60.459, 8.5268], [-60.4721, 8.5224], [-60.4832, 8.5304], [-60.4968, 8.5246], [-60.5299, 8.5365], [-60.5979, 8.5399], [-60.6221, 8.5474], [-60.6721, 8.5846], [-60.7185, 8.6079], [-60.7193, 8.6379], [-60.6721, 8.6443], [-60.6646, 8.6804], [-60.6924, 8.6979], [-60.6963, 8.7082], [-60.6604, 8.7807], [-60.6776, 8.7735], [-60.6882, 8.7832], [-60.6846, 8.7918], [-60.6976, 8.794], [-60.6929, 8.8032], [-60.7287, 8.8521], [-60.7524, 8.8479], [-60.7785, 8.8232], [-60.7854, 8.8282], [-60.7837, 8.8518], [-60.7346, 8.879], [-60.7332, 8.8893], [-60.766, 8.8824], [-60.7788, 8.869], [-60.8126, 8.8676], [-60.8221, 8.8482], [-60.8235, 8.8646], [-60.8326, 8.8735], [-60.8307, 8.8874], [-60.8493, 8.899], [-60.8482, 8.9168], [-60.824, 8.9263], [-60.8237, 8.9435], [-60.8082, 8.9754], [-60.8162, 8.9804], [-60.8121, 8.9979], [-60.7915, 9.0126], [-60.7571, 9.0593], [-60.7893, 9.0613], [-60.7849, 9.0715], [-60.794, 9.0754], [-60.814, 9.0643], [-60.811, 9.0718], [-60.8196, 9.0718], [-60.8099, 9.081], [-60.8165, 9.0857], [-60.8118, 9.1215], [-60.8454, 9.1001], [-60.8674, 9.0999], [-60.8688, 9.1124], [-60.856, 9.136], [-60.8524, 9.1949], [-60.8735, 9.1968], [-60.9443, 9.1729], [-60.9418, 9.1832], [-60.9496, 9.176], [-60.9474, 9.1851], [-60.956, 9.1871], [-60.9593, 9.2024], [-60.8504, 9.2671], [-60.8232, 9.2707], [-60.8168, 9.3018], [-60.8099, 9.2901], [-60.8015, 9.2957], [-60.7843, 9.3193], [-60.7837, 9.3388], [-60.8146, 9.4007], [-60.8557, 9.4457], [-60.9049, 9.4846], [-60.9368, 9.4951], [-60.9651, 9.4946], [-60.9724, 9.5115], [-60.9792, 9.4877], [-60.9757, 9.4765], [-60.9669, 9.4777], [-60.9932, 9.3905], [-60.985, 9.3214], [-61.0085, 9.2858], [-61.0651, 9.2823], [-61.0706, 9.2765], [-61.0246, 9.2635], [-61.0426, 9.2276], [-61.0564, 9.1647], [-61.0672, 9.1458], [-61.2735, 9.1431], [-61.3395, 9.0831], [-61.3705, 8.9361], [-61.4153, 8.8468], [-61.4298, 8.8016], [-61.4521, 8.779], [-61.4517, 8.748], [-61.4667, 8.7221], [-61.6592, 8.6622], [-61.7556, 8.6534], [-61.683, 8.5727], [-61.705, 8.5716], [-61.6989, 8.5428], [-61.6794, 8.5453], [-61.6527, 8.539], [-61.6451, 8.5305], [-61.6587, 8.5252], [-61.6433, 8.5112], [-61.6135, 8.2547], [-61.6021, 8.2524], [-61.5824, 8.2386], [-61.5731, 8.2187], [-61.5722, 8.1888], [-61.5889, 8.1494], [-61.6445, 8.1066], [-61.6465, 8.0799], [-61.6268, 8.0231], [-61.5395, 7.8988], [-61.5189, 7.8561], [-61.5034, 7.7755], [-61.4912, 7.7476], [-61.4038, 7.6539], [-61.3424, 7.615], [-61.3418, 7.6083], [-61.3242, 7.6213], [-61.3157, 7.6613], [-61.2829, 7.7161], [-61.2413, 7.7516], [-61.1561, 7.7911], [-61.0784, 7.8007], [-61.0628, 7.798], [-61.0497, 7.7928], [-60.9707, 7.7405], [-60.9049, 7.6858], [-60.8431, 7.6515], [-60.7966, 7.6721], [-60.7827, 7.6626], [-60.7654, 7.6665], [-60.7355, 7.703], [-60.703, 7.7357], [-60.6834, 7.7838], [-60.6528, 7.8256], [-60.6092, 7.8543], [-60.5356, 7.924], [-60.4373, 7.9149], [-60.3647, 7.9465], [-60.25, 7.9591], [-60.1891, 7.988], [-60.1462, 7.989]]], [[[-60.784, 8.9865], [-60.8174, 8.9546], [-60.8207, 8.9232], [-60.794, 8.9199], [-60.7676, 8.9293], [-60.7663, 8.9354], [-60.781, 8.9449], [-60.7904, 8.9287], [-60.7707, 8.9685], [-60.784, 8.9865]]], [[[-60.8138, 8.8704], [-60.8232, 8.8687], [-60.8218, 8.8599], [-60.8138, 8.8704]]], [[[-60.7713, 9.2343], [-60.8401, 9.201], [-60.8554, 9.1268], [-60.866, 9.1082], [-60.8515, 9.1076], [-60.8237, 9.1224], [-60.7799, 9.1779], [-60.7318, 9.179], [-60.7465, 9.2121], [-60.7713, 9.2343]]], [[[-60.7935, 9.241], [-60.8104, 9.2318], [-60.7949, 9.2326], [-60.7935, 9.241]]], [[[-60.781, 9.2843], [-60.796, 9.2649], [-60.7668, 9.2515], [-60.7601, 9.2638], [-60.781, 9.2843]]], [[[-60.9129, 9.1951], [-60.9354, 9.1901], [-60.9399, 9.1799], [-60.9007, 9.1929], [-60.9129, 9.1951]]], [[[-60.8374, 9.2251], [-60.8615, 9.2193], [-60.8871, 9.2004], [-60.8474, 9.2026], [-60.8251, 9.2174], [-60.8374, 9.2251]]], [[[-60.6387, 8.6829], [-60.6615, 8.6768], [-60.6696, 8.6554], [-60.6629, 8.6407], [-60.6285, 8.6329], [-60.5968, 8.6385], [-60.574, 8.664], [-60.5893, 8.6735], [-60.601, 8.6682], [-60.6035, 8.6768], [-60.6162, 8.6718], [-60.6387, 8.6829]]], [[[-60.6368, 8.809], [-60.6485, 8.7896], [-60.6471, 8.774], [-60.6374, 8.7746], [-60.6304, 8.7904], [-60.6368, 8.809]]], [[[-60.7143, 8.8585], [-60.724, 8.8485], [-60.7121, 8.8468], [-60.7143, 8.8585]]], [[[-60.6654, 8.9451], [-60.6879, 8.9374], [-60.6835, 8.9271], [-60.6671, 8.9363], [-60.6654, 8.9451]]], [[[-60.7132, 9.0235], [-60.7262, 9.0132], [-60.7171, 9.004], [-60.7074, 9.0101], [-60.7132, 9.0235]]], [[[-60.6862, 9.0826], [-60.7007, 9.0737], [-60.7204, 9.0285], [-60.701, 9.0332], [-60.6826, 9.0532], [-60.6774, 9.0713], [-60.6862, 9.0826]]], [[[-60.7943, 8.9901], [-60.8012, 8.9882], [-60.8021, 8.9782], [-60.7943, 8.9901]]], [[[-60.746, 9.1101], [-60.7593, 9.0968], [-60.7529, 9.084], [-60.7465, 9.0868], [-60.746, 9.1101]]], [[[-60.806, 9.1362], [-60.8037, 9.1413], [-60.8154, 9.1274], [-60.806, 9.1362]]], [[[-60.7693, 9.1732], [-60.7879, 9.1657], [-60.8107, 9.1263], [-60.799, 9.1099], [-60.774, 9.1138], [-60.7532, 9.1368], [-60.7693, 9.1732]]], [[[-60.709, 9.1607], [-60.726, 9.151], [-60.7454, 9.1179], [-60.746, 9.0829], [-60.7379, 9.0743], [-60.7046, 9.0876], [-60.6957, 9.1138], [-60.6993, 9.0979], [-60.6849, 9.1057], [-60.6824, 9.1315], [-60.709, 9.1607]]], [[[-60.8751, 9.2399], [-60.9057, 9.2335], [-60.9165, 9.2229], [-60.8868, 9.2279], [-60.8751, 9.2399]]], [[[-60.8476, 9.2615], [-60.8699, 9.2418], [-60.8568, 9.2376], [-60.8476, 9.2615]]]]}}, {"type": "Feature", "properties": {"municipio": "Casacoima", "estado": "Delta Amacuro", "gid": "VEN.9.2_1"}, "geometry": {"type": "Polygon", "coordinates": [[[-62.4763, 8.363], [-62.1584, 8.1818], [-61.6835, 8.247], [-61.667, 8.2538], [-61.6307, 8.2563], [-61.6135, 8.2547], [-61.6433, 8.5112], [-61.6587, 8.5252], [-61.6451, 8.5305], [-61.6527, 8.539], [-61.6794, 8.5453], [-61.6989, 8.5428], [-61.705, 8.5716], [-61.683, 8.5727], [-61.7555, 8.6533], [-61.8038, 8.6549], [-61.9044, 8.6644], [-61.969, 8.6758], [-62.0657, 8.7064], [-62.0949, 8.6777], [-62.0995, 8.652], [-62.1545, 8.6048], [-62.1788, 8.5457], [-62.2169, 8.5068], [-62.277, 8.488], [-62.3088, 8.4608], [-62.3348, 8.4508], [-62.4847, 8.4217], [-62.5289, 8.3901], [-62.4763, 8.363]]]}}, {"type": "Feature", "properties": {"municipio": "Pedernales", "estado": "Delta Amacuro", "gid": "VEN.9.3_1"}, "geometry": {"type": "MultiPolygon", "coordinates": [[[[-62.4275, 9.4408], [-62.4267, 9.4353], [-62.3523, 9.4376], [-62.3211, 9.4422], [-62.3055, 9.4529], [-62.2516, 9.4319], [-62.2238, 9.434], [-62.2245, 9.4272], [-61.8576, 9.5826], [-61.8437, 9.6093], [-61.8327, 9.6903], [-61.8111, 9.7395], [-61.8139, 9.753], [-61.8043, 9.7806], [-61.8075, 9.8143], [-61.8204, 9.8299], [-61.829, 9.8263], [-61.8257, 9.7993], [-61.864, 9.8074], [-61.9171, 9.8732], [-62.0363, 9.9651], [-62.1043, 9.9954], [-62.1943, 10.0207], [-62.2979, 9.9365], [-62.3132, 9.9499], [-62.3332, 9.931], [-62.3326, 9.916], [-62.3493, 9.9257], [-62.3521, 9.8853], [-62.3356, 9.7546], [-62.3637, 9.6997], [-62.3825, 9.6398], [-62.4575, 9.5407], [-62.4619, 9.5179], [-62.4605, 9.4837], [-62.4483, 9.4558], [-62.4275, 9.4408]]], [[[-62.2504, 10.0593], [-62.2829, 10.051], [-62.2965, 10.0174], [-62.3026, 9.959], [-62.2876, 9.9699], [-62.2871, 9.9893], [-62.2701, 9.9796], [-62.2365, 10.0046], [-62.2282, 10.0193], [-62.2382, 10.0546], [-62.2504, 10.0593]]], [[[-62.3307, 9.9451], [-62.3418, 9.9393], [-62.3357, 9.924], [-62.3307, 9.9451]]], [[[-62.3057, 9.9601], [-62.3096, 9.9529], [-62.3026, 9.9504], [-62.2993, 9.9563], [-62.3057, 9.9601]]], [[[-62.3301, 9.9921], [-62.3376, 9.9901], [-62.3443, 9.9693], [-62.3312, 9.9715], [-62.3271, 9.9607], [-62.3112, 9.9693], [-62.3099, 9.9835], [-62.3138, 9.9896], [-62.3207, 9.9765], [-62.319, 9.9846], [-62.3301, 9.9921]]]]}}, {"type": "Feature", "properties": {"municipio": "Tucupita", "estado": "Delta Amacuro", "gid": "VEN.9.4_1"}, "geometry": {"type": "Polygon", "coordinates": [[[-60.9724, 9.5115], [-61.0079, 9.5387], [-61.061, 9.5576], [-61.1015, 9.5615], [-61.1963, 9.601], [-61.2074, 9.6012], [-61.2107, 9.5929], [-61.2415, 9.6354], [-61.3807, 9.7532], [-61.4165, 9.7957], [-61.4362, 9.8076], [-61.4365, 9.8174], [-61.4818, 9.8276], [-61.5093, 9.8468], [-61.484, 9.8196], [-61.4629, 9.8168], [-61.4512, 9.8071], [-61.4554, 9.8026], [-61.4471, 9.7857], [-61.4521, 9.7868], [-61.426, 9.7646], [-61.4176, 9.7476], [-61.5399, 9.8468], [-61.6371, 9.8988], [-61.6724, 9.8988], [-61.6662, 9.8979], [-61.666, 9.8835], [-61.6565, 9.8737], [-61.6235, 9.8657], [-61.6296, 9.8621], [-61.6251, 9.8585], [-61.6387, 9.859], [-61.6071, 9.8343], [-61.6138, 9.8221], [-61.6485, 9.8249], [-61.6124, 9.7946], [-61.6662, 9.7943], [-61.7924, 9.8315], [-61.8165, 9.8301], [-61.8075, 9.8143], [-61.8043, 9.7806], [-61.8139, 9.753], [-61.8111, 9.7395], [-61.8327, 9.6903], [-61.8437, 9.6093], [-61.8576, 9.5826], [-62.2245, 9.4272], [-62.2238, 9.434], [-62.2516, 9.4319], [-62.3055, 9.4529], [-62.3211, 9.4422], [-62.3523, 9.4376], [-62.4267, 9.4353], [-62.4275, 9.4407], [-62.4317, 9.4365], [-62.4416, 9.4139], [-62.4256, 9.3997], [-62.4156, 9.3795], [-62.4039, 9.369], [-62.3932, 9.3533], [-62.3728, 9.3555], [-62.3541, 9.3247], [-62.365, 9.2983], [-62.3474, 9.2761], [-62.3442, 9.2402], [-62.3232, 9.2161], [-62.3395, 9.1988], [-62.3449, 9.1905], [-62.3434, 9.1342], [-62.3326, 9.1138], [-62.3226, 9.1035], [-62.3006, 9.105], [-62.2818, 9.1125], [-62.2762, 9.1067], [-62.2731, 9.0926], [-62.2426, 9.0819], [-62.2201, 9.043], [-62.1798, 9.0306], [-62.1643, 9.0151], [-62.1409, 9.0136], [-62.0842, 9.0487], [-62.0572, 9.0148], [-62.0589, 8.998], [-62.0671, 8.984], [-62.0889, 8.9733], [-62.094, 8.9593], [-62.0733, 8.8823], [-62.0564, 8.8448], [-62.0373, 8.8399], [-62.0182, 8.8494], [-62.0035, 8.8481], [-62.0061, 8.8326], [-62.0387, 8.799], [-62.0479, 8.7682], [-62.0552, 8.7214], [-62.0657, 8.7064], [-61.969, 8.6758], [-61.9044, 8.6644], [-61.8038, 8.6549], [-61.7555, 8.6533], [-61.6592, 8.6622], [-61.4667, 8.7221], [-61.4517, 8.748], [-61.4521, 8.779], [-61.4298, 8.8016], [-61.4153, 8.8468], [-61.3705, 8.9361], [-61.3395, 9.0831], [-61.2735, 9.1431], [-61.0672, 9.1458], [-61.0564, 9.1647], [-61.0426, 9.2276], [-61.0246, 9.2635], [-61.0706, 9.2765], [-61.0651, 9.2823], [-61.0085, 9.2858], [-60.985, 9.3214], [-60.9932, 9.3905], [-60.9669, 9.4777], [-60.9757, 9.4765], [-60.9792, 9.4877], [-60.9724, 9.5115]]]}}]}