{"type": "FeatureCollection", "features": [{"type": "Feature", "properties": {"municipio": "Libertador", "estado": "Distrito Capital", "gid": "VEN.11.1_1"}, "geometry": {"type": "Polygon", "coordinates": [[[-66.8443, 10.5442], [-66.868, 10.554], [-66.9298, 10.5512], [-66.9893, 10.5606], [-67.0268, 10.5218], [-67.027, 10.4948], [-67.0368, 10.477], [-67.1001, 10.4635], [-67.1276, 10.4473], [-67.1166, 10.4429], [-67.0597, 10.4175], [-67.0034, 10.4043], [-66.9863, 10.404], [-66.9703, 10.4068], [-66.9246, 10.4241], [-66.8863, 10.4332], [-66.8578, 10.4688], [-66.8517, 10.529], [-66.8484, 10.5388], [-66.8443, 10.5442]]]}}]}