{"type": "FeatureCollection", "features": [{"type": "Feature", "properties": {"municipio": "Acosta", "estado": "Falcón", "gid": "VEN.12.1_1"}, "geometry": {"type": "Polygon", "coordinates": [[[-68.384, 11.047], [-68.3362, 11.0591], [-68.3885, 11.1457], [-68.3885, 11.1582], [-68.3788, 11.1588], [-68.3796, 11.164], [-68.4043, 11.1907], [-68.4126, 11.1924], [-68.4079, 11.181], [-68.4187, 11.1713], [-68.4515, 11.1774], [-68.4907, 11.2124], [-68.5315, 11.2651], [-68.6029, 11.2821], [-68.6626, 11.3479], [-68.6896, 11.3554], [-68.6924, 11.3426], [-68.7068, 11.341], [-68.7568, 11.369], [-68.7734, 11.2813], [-68.6711, 11.1946], [-68.5983, 11.1612], [-68.5933, 11.1388], [-68.606, 11.1079], [-68.5744, 11.0781], [-68.5602, 11.0423], [-68.5192, 11.0716], [-68.4638, 10.9993], [-68.4431, 10.9875], [-68.4306, 10.9942], [-68.394, 11.0068], [-68.3908, 11.0176], [-68.3992, 11.0392], [-68.3974, 11.0462], [-68.384, 11.047]]]}}, {"type": "Feature", "properties": {"municipio": "Bolívar", "estado": "Falcón", "gid": "VEN.12.2_1"}, "geometry": {"type": "Polygon", "coordinates": [[[-69.8546, 10.9121], [-69.8383, 10.9469], [-69.8255, 10.9586], [-69.806, 10.9624], [-69.7928, 10.9614], [-69.6886, 11.0301], [-69.6744, 11.0263], [-69.6412, 11.069], [-69.6687, 11.0794], [-69.6716, 11.0927], [-69.681, 11.0984], [-69.7304, 11.0956], [-69.8244, 11.1582], [-69.883, 11.1828], [-69.9865, 11.1101], [-69.9965, 11.0753], [-69.989, 11.0438], [-70.0054, 10.9671], [-70.0113, 10.8847], [-69.8546, 10.9121]]]}}, {"type": "Feature", "properties": {"municipio": "Buchivacoa", "estado": "Falcón", "gid": "VEN.12.3_1"}, "geometry": {"type": "Polygon", "coordinates": [[[-70.811, 10.5111], [-70.8144, 10.4532], [-70.7889, 10.4493], [-70.7583, 10.4267], [-70.7425, 10.3922], [-70.739, 10.3447], [-70.7281, 10.327], [-70.7161, 10.3171], [-70.6914, 10.3073], [-70.6577, 10.3051], [-70.6784, 10.7263], [-70.6889, 10.7625], [-70.7203, 10.7966], [-70.7346, 11.0593], [-70.6385, 11.0548], [-70.6181, 11.0052], [-70.5757, 10.9855], [-70.5416, 10.9459], [-70.5363, 10.9116], [-70.5028, 10.8813], [-70.4945, 10.8362], [-70.4978, 10.7696], [-70.5335, 10.7139], [-70.5284, 10.6967], [-70.4985, 10.6663], [-70.4901, 10.6381], [-70.4913, 10.589], [-70.5217, 10.5164], [-70.5204, 10.4993], [-70.4916, 10.4389], [-70.4597, 10.4677], [-70.4055, 10.4754], [-70.3785, 10.4936], [-70.3597, 10.5401], [-70.3825, 10.5513], [-70.4082, 10.582], [-70.4615, 10.7072], [-70.4222, 10.8843], [-70.4111, 10.9457], [-70.3842, 10.9718], [-70.3665, 11.0025], [-70.3563, 11.0671], [-70.3553, 11.1405], [-70.3238, 11.187], [-70.3175, 11.2283], [-70.3058, 11.2479], [-70.3081, 11.2897], [-70.3363, 11.3188], [-70.3901, 11.3049], [-70.4238, 11.2793], [-70.4771, 11.2907], [-70.4946, 11.2863], [-70.5385, 11.2451], [-70.5404, 11.2365], [-70.5121, 11.2624], [-70.5104, 11.2526], [-70.4912, 11.2771], [-70.4985, 11.2643], [-70.486, 11.2738], [-70.5074, 11.244], [-70.5126, 11.2482], [-70.5157, 11.2382], [-70.5287, 11.2318], [-70.5351, 11.2374], [-70.5485, 11.2296], [-70.6065, 11.2257], [-70.7115, 11.2276], [-70.7732, 11.204], [-70.8432, 11.1954], [-70.9885, 11.1126], [-70.9142, 11.043], [-70.8893, 10.9956], [-70.8637, 10.8515], [-70.8453, 10.7585], [-70.815, 10.7017], [-70.8142, 10.6134], [-70.811, 10.5111]]]}}, {"type": "Feature", "properties": {"municipio": "Cacique Manaure", "estado": "Falcón", "gid": "VEN.12.4_1"}, "geometry": {"type": "Polygon", "coordinates": [[[-68.5602, 11.0423], [-68.5611, 11.0355], [-68.6145, 11.0331], [-68.6257, 11.0299], [-68.5918, 10.9278], [-68.5705, 10.9309], [-68.4991, 10.9258], [-68.4592, 10.9712], [-68.4431, 10.9875], [-68.4638, 10.9993], [-68.5192, 11.0716], [-68.5602, 11.0423]]]}}, {"type": "Feature", "properties": {"municipio": "Carirubana", "estado": "Falcón", "gid": "VEN.12.5_1"}, "geometry": {"type": "Polygon", "coordinates": [[[-70.2085, 11.7206], [-70.2224, 11.719], [-70.224, 11.7185], [-70.2099, 11.7101], [-70.2135, 11.6974], [-70.2262, 11.6979], [-70.2132, 11.6726], [-70.2385, 11.6257], [-70.2249, 11.6182], [-70.2199, 11.6062], [-70.2074, 11.604], [-70.141, 11.619], [-70.1254, 11.6165], [-69.9982, 11.6574], [-69.9649, 11.659], [-69.9607, 11.666], [-69.949, 11.6612], [-69.9393, 11.6713], [-69.9326, 11.6635], [-69.9468, 11.6599], [-69.9251, 11.6479], [-69.8976, 11.6721], [-69.8921, 11.6726], [-69.8968, 11.6665], [-69.8699, 11.6637], [-69.8626, 11.6813], [-69.8437, 11.6915], [-69.8215, 11.6768], [-69.8096, 11.6992], [-69.8169, 11.702], [-69.8231, 11.7308], [-69.8605, 11.7946], [-69.8622, 11.8326], [-69.8531, 11.8263], [-69.8669, 11.9043], [-69.9118, 11.8715], [-69.9565, 11.8215], [-70.0112, 11.8048], [-70.0822, 11.7577], [-70.2085, 11.7206]]]}}, {"type": "Feature", "properties": {"municipio": "Colina", "estado": "Falcón", "gid": "VEN.12.6_1"}, "geometry": {"type": "Polygon", "coordinates": [[[-69.437, 11.4916], [-69.4287, 11.4932], [-69.5263, 11.5029], [-69.5663, 11.4743], [-69.5713, 11.4582], [-69.5913, 11.4557], [-69.6026, 11.4332], [-69.6086, 11.3942], [-69.6062, 11.3731], [-69.5286, 11.3786], [-69.4733, 11.3996], [-69.4507, 11.3725], [-69.4488, 11.3656], [-69.5536, 11.2531], [-69.5785, 11.2319], [-69.5773, 11.2239], [-69.5692, 11.213], [-69.542, 11.2153], [-69.5095, 11.2392], [-69.4838, 11.2303], [-69.4475, 11.2046], [-69.4013, 11.1483], [-69.3904, 11.1407], [-69.369, 11.1577], [-69.3652, 11.165], [-69.3623, 11.3001], [-69.386, 11.324], [-69.3911, 11.4609], [-69.4298, 11.4772], [-69.437, 11.4916]]]}}, {"type": "Feature", "properties": {"municipio": "Dabajuro", "estado": "Falcón", "gid": "VEN.12.7_1"}, "geometry": {"type": "Polygon", "coordinates": [[[-70.6577, 10.3051], [-70.657, 10.3018], [-70.6313, 10.3262], [-70.5908, 10.3459], [-70.5395, 10.354], [-70.4916, 10.4389], [-70.5204, 10.4993], [-70.5217, 10.5164], [-70.4913, 10.589], [-70.4901, 10.6381], [-70.4985, 10.6663], [-70.5284, 10.6967], [-70.5335, 10.7139], [-70.4978, 10.7696], [-70.4945, 10.8362], [-70.5028, 10.8813], [-70.5363, 10.9116], [-70.5416, 10.9459], [-70.5757, 10.9855], [-70.6181, 11.0052], [-70.6385, 11.0548], [-70.7346, 11.0593], [-70.7203, 10.7966], [-70.6889, 10.7625], [-70.6784, 10.7263], [-70.6577, 10.3051]]]}}, {"type": "Feature", "properties": {"municipio": "Democracia", "estado": "Falcón", "gid": "VEN.12.8_1"}, "geometry": {"type": "Polygon", "coordinates": [[[-69.883, 11.1828], [-69.8769, 11.1869], [-69.8839, 11.1863], [-69.9063, 11.2198], [-69.9221, 11.2279], [-69.943, 11.2272], [-70.0321, 11.1739], [-70.085, 11.1274], [-70.1077, 11.113], [-70.1215, 11.1153], [-70.1223, 11.1177], [-70.1946, 11.0785], [-70.2212, 11.0728], [-70.2079, 11.0595], [-70.2098, 11.0519], [-70.2402, 11.012], [-70.2592, 10.9551], [-70.2725, 10.938], [-70.2952, 10.9247], [-70.3294, 10.9228], [-70.3446, 10.9304], [-70.3864, 10.9247], [-70.4164, 10.9166], [-70.4222, 10.8843], [-70.4615, 10.7072], [-70.4082, 10.582], [-70.3825, 10.5513], [-70.3597, 10.5401], [-70.3541, 10.5453], [-70.3083, 10.5688], [-70.2118, 10.6031], [-70.1722, 10.6257], [-70.1182, 10.6715], [-70.0412, 10.6632], [-69.9827, 10.6863], [-69.9282, 10.6984], [-69.8528, 10.7386], [-69.8173, 10.7487], [-69.814, 10.7475], [-69.7804, 10.7991], [-69.8462, 10.8868], [-69.8546, 10.9121], [-70.0113, 10.8847], [-70.0054, 10.9671], [-69.989, 11.0438], [-69.9965, 11.0753], [-69.9865, 11.1101], [-69.883, 11.1828]]]}}, {"type": "Feature", "properties": {"municipio": "Falcón", "estado": "Falcón", "gid": "VEN.12.9_1"}, "geometry": {"type": "MultiPolygon", "coordinates": [[[[-69.7968, 11.6896], [-69.8043, 11.6851], [-69.7988, 11.6749], [-69.7871, 11.6751], [-69.7832, 11.6826], [-69.7946, 11.6804], [-69.8015, 11.686], [-69.7968, 11.6896]]], [[[-69.8096, 11.6992], [-69.8115, 11.6879], [-69.7985, 11.6979], [-69.7871, 11.6865], [-69.794, 11.7029], [-69.8024, 11.7049], [-69.8071, 11.7432], [-69.7976, 11.764], [-69.8068, 11.781], [-69.8046, 11.8043], [-69.8268, 11.8332], [-69.8282, 11.8524], [-69.8174, 11.849], [-69.7765, 11.7076], [-69.7999, 11.709], [-69.776, 11.7065], [-69.7196, 11.5732], [-69.6949, 11.5329], [-69.6815, 11.5341], [-69.7243, 11.6068], [-69.7882, 11.7718], [-69.8146, 11.8871], [-69.8135, 11.9293], [-69.8012, 11.9424], [-69.8104, 11.9454], [-69.819, 11.9646], [-69.8235, 12.0046], [-69.8301, 12.006], [-69.8549, 12.0635], [-69.8737, 12.0857], [-69.8929, 12.1338], [-69.9326, 12.1721], [-69.9693, 12.1721], [-69.9996, 12.1965], [-70.0232, 12.1957], [-70.069, 12.1726], [-70.1462, 12.1074], [-70.2093, 12.0996], [-70.2185, 12.0824], [-70.2085, 12.0715], [-70.216, 12.0463], [-70.2579, 11.9812], [-70.2565, 11.964], [-70.264, 11.9513], [-70.2254, 11.931], [-70.1661, 11.88], [-70.1274, 11.7834], [-70.1166, 11.7472], [-70.0822, 11.7577], [-70.0112, 11.8048], [-69.9565, 11.8215], [-69.9118, 11.8715], [-69.8669, 11.9043], [-69.8531, 11.8263], [-69.8622, 11.8326], [-69.8605, 11.7946], [-69.8231, 11.7308], [-69.8169, 11.702], [-69.8096, 11.6992]]]]}}, {"type": "Feature", "properties": {"municipio": "Federación", "estado": "Falcón", "gid": "VEN.12.10_1"}, "geometry": {"type": "Polygon", "coordinates": [[[-69.8546, 10.9121], [-69.8462, 10.8868], [-69.7804, 10.7991], [-69.814, 10.7475], [-69.791, 10.7388], [-69.7535, 10.739], [-69.705, 10.7607], [-69.605, 10.7827], [-69.5386, 10.7754], [-69.5017, 10.7365], [-69.4666, 10.7267], [-69.3718, 10.7423], [-69.2535, 10.7339], [-69.235, 10.7369], [-69.2572, 10.7778], [-69.3235, 10.802], [-69.3305, 10.8631], [-69.3183, 10.9249], [-69.3576, 10.9447], [-69.4088, 10.947], [-69.4385, 10.9218], [-69.46, 10.9118], [-69.4788, 10.9137], [-69.5467, 10.9651], [-69.5732, 10.9641], [-69.5999, 10.9534], [-69.6323, 10.9556], [-69.6864, 10.9715], [-69.7273, 10.9467], [-69.7542, 10.9446], [-69.7877, 10.961], [-69.806, 10.9624], [-69.8255, 10.9586], [-69.8383, 10.9469], [-69.8546, 10.9121]]]}}, {"type": "Feature", "properties": {"municipio": "Jacura", "estado": "Falcón", "gid": "VEN.12.11_1"}, "geometry": {"type": "Polygon", "coordinates": [[[-68.6257, 11.0299], [-68.6277, 11.0278], [-68.6348, 11.0259], [-68.6668, 11.026], [-68.6809, 11.0283], [-68.8235, 11.2591], [-68.9215, 11.2225], [-68.9464, 11.195], [-68.9994, 11.196], [-69.194, 11.1294], [-69.1928, 11.1243], [-69.1954, 11.121], [-69.1857, 11.1059], [-69.1541, 11.0319], [-69.1192, 10.9437], [-69.0915, 10.8751], [-68.9504, 10.8431], [-68.9375, 10.822], [-68.9339, 10.757], [-68.9175, 10.7282], [-68.901, 10.73], [-68.9016, 10.7567], [-68.8797, 10.7889], [-68.8243, 10.8273], [-68.7985, 10.8569], [-68.7555, 10.8844], [-68.7149, 10.8967], [-68.6923, 10.913], [-68.5995, 10.9264], [-68.5918, 10.9278], [-68.6257, 11.0299]]]}}, {"type": "Feature", "properties": {"municipio": "Los Tanques", "estado": "Falcón", "gid": "VEN.12.12_1"}, "geometry": {"type": "Polygon", "coordinates": [[[-70.1166, 11.7472], [-70.1274, 11.7834], [-70.1661, 11.88], [-70.2254, 11.931], [-70.2643, 11.9513], [-70.291, 11.9018], [-70.289, 11.8718], [-70.2946, 11.8618], [-70.2801, 11.8537], [-70.2768, 11.8174], [-70.261, 11.819], [-70.2585, 11.7954], [-70.2521, 11.7949], [-70.2387, 11.7574], [-70.2318, 11.7621], [-70.2385, 11.7757], [-70.2301, 11.7801], [-70.214, 11.7765], [-70.2071, 11.7665], [-70.2054, 11.7537], [-70.2179, 11.7485], [-70.2035, 11.7413], [-70.2015, 11.7285], [-70.2096, 11.7257], [-70.2132, 11.7335], [-70.2215, 11.7276], [-70.2262, 11.744], [-70.2351, 11.7376], [-70.2274, 11.7318], [-70.226, 11.7218], [-70.2235, 11.7224], [-70.222, 11.7183], [-70.2085, 11.7206], [-70.1166, 11.7472]]]}}, {"type": "Feature", "properties": {"municipio": "Mauroa", "estado": "Falcón", "gid": "VEN.12.13_1"}, "geometry": {"type": "Polygon", "coordinates": [[[-70.9142, 11.043], [-70.9901, 11.1121], [-71.0529, 11.0726], [-71.1546, 11.0288], [-71.1596, 11.0224], [-71.1376, 11.034], [-71.161, 11.0171], [-71.2549, 10.9826], [-71.2356, 10.9523], [-71.1709, 10.8604], [-71.1153, 10.8035], [-71.0817, 10.7562], [-71.062, 10.6592], [-71.0267, 10.6005], [-70.9973, 10.5099], [-70.9499, 10.4872], [-70.9257, 10.4642], [-70.9125, 10.4594], [-70.8499, 10.451], [-70.8144, 10.4532], [-70.811, 10.5111], [-70.8142, 10.6134], [-70.815, 10.7017], [-70.8453, 10.7585], [-70.8637, 10.8515], [-70.8893, 10.9956], [-70.9142, 11.043]]]}}, {"type": "Feature", "properties": {"municipio": "Miranda", "estado": "Falcón", "gid": "VEN.12.14_1"}, "geometry": {"type": "MultiPolygon", "coordinates": [[[[-69.6026, 11.4332], [-69.5917, 11.4553], [-69.6382, 11.4796], [-69.6815, 11.5341], [-69.6913, 11.5299], [-69.6857, 11.5176], [-69.6607, 11.4888], [-69.6632, 11.4824], [-69.6565, 11.4843], [-69.659, 11.4762], [-69.654, 11.4815], [-69.6485, 11.476], [-69.6671, 11.4679], [-69.6629, 11.4554], [-69.6718, 11.4524], [-69.6699, 11.4601], [-69.6771, 11.4635], [-69.6926, 11.4501], [-69.6843, 11.4585], [-69.6901, 11.4654], [-69.6904, 11.4582], [-69.7024, 11.4618], [-69.7199, 11.446], [-69.7296, 11.4485], [-69.7237, 11.456], [-69.746, 11.4546], [-69.7496, 11.4474], [-69.7651, 11.4407], [-69.7715, 11.4449], [-69.7851, 11.4299], [-69.8104, 11.4196], [-69.8443, 11.4221], [-69.871, 11.436], [-69.8763, 11.4429], [-69.8676, 11.4524], [-69.8788, 11.4496], [-69.8685, 11.4546], [-69.8765, 11.4554], [-69.8749, 11.4615], [-69.8832, 11.4576], [-69.871, 11.4693], [-69.8907, 11.4665], [-69.8938, 11.4865], [-69.9046, 11.4882], [-69.8962, 11.4957], [-69.909, 11.4876], [-69.8996, 11.5007], [-69.9151, 11.4901], [-69.9274, 11.4993], [-69.9307, 11.5151], [-69.9201, 11.5232], [-69.9421, 11.5154], [-69.9499, 11.5226], [-69.9587, 11.5068], [-69.9762, 11.499], [-69.9924, 11.5143], [-69.9999, 11.5093], [-70.0046, 11.5188], [-70.0335, 11.5079], [-70.049, 11.5118], [-70.0446, 11.5071], [-70.0504, 11.4893], [-70.0393, 11.4907], [-70.0301, 11.4829], [-70.0482, 11.4363], [-70.0635, 11.4515], [-70.0754, 11.4507], [-70.0868, 11.4468], [-70.084, 11.4382], [-70.0987, 11.4243], [-70.1338, 11.4629], [-70.1585, 11.4665], [-70.166, 11.4607], [-70.1413, 11.4638], [-70.1471, 11.4268], [-70.141, 11.4235], [-70.1493, 11.4121], [-70.1588, 11.4137], [-70.1721, 11.3776], [-70.1857, 11.3624], [-70.2365, 11.3426], [-70.1979, 11.2814], [-70.1312, 11.2148], [-70.1286, 11.1991], [-70.1215, 11.1153], [-70.1077, 11.113], [-70.085, 11.1274], [-70.0321, 11.1739], [-69.943, 11.2272], [-69.9221, 11.2279], [-69.9063, 11.2198], [-69.8839, 11.1863], [-69.8039, 11.1934], [-69.7785, 11.192], [-69.7483, 11.2269], [-69.7383, 11.2284], [-69.7274, 11.2053], [-69.7025, 11.1984], [-69.6249, 11.2218], [-69.5798, 11.2309], [-69.5536, 11.2531], [-69.4488, 11.3656], [-69.4507, 11.3725], [-69.4733, 11.3996], [-69.5286, 11.3786], [-69.6062, 11.3731], [-69.6086, 11.3942], [-69.6026, 11.4332]]], [[[-70.1051, 11.5307], [-70.1207, 11.5276], [-70.119, 11.5201], [-70.0965, 11.5296], [-70.1051, 11.5307]]], [[[-70.1363, 11.5649], [-70.1265, 11.5465], [-70.0826, 11.5326], [-70.0987, 11.5274], [-70.0968, 11.5201], [-70.079, 11.521], [-70.0854, 11.5118], [-70.0701, 11.5201], [-70.0746, 11.5143], [-70.0574, 11.5146], [-70.0735, 11.5304], [-70.1363, 11.5649]]]]}}, {"type": "Feature", "properties": {"municipio": "Monseñor Iturriza", "estado": "Falcón", "gid": "VEN.12.15_1"}, "geometry": {"type": "MultiPolygon", "coordinates": [[[[-68.394, 11.0068], [-68.4187, 10.9978], [-68.4413, 10.9891], [-68.4592, 10.9712], [-68.4991, 10.9258], [-68.5705, 10.9309], [-68.5995, 10.9264], [-68.6923, 10.913], [-68.7149, 10.8967], [-68.7555, 10.8844], [-68.7985, 10.8569], [-68.8243, 10.8273], [-68.8797, 10.7889], [-68.9016, 10.7567], [-68.901, 10.73], [-68.8883, 10.7299], [-68.8807, 10.7248], [-68.8674, 10.7078], [-68.8407, 10.7111], [-68.8051, 10.725], [-68.7641, 10.7601], [-68.7502, 10.7638], [-68.7098, 10.7566], [-68.6328, 10.76], [-68.6022, 10.7687], [-68.5993, 10.7633], [-68.6013, 10.781], [-68.5988, 10.8006], [-68.5901, 10.8298], [-68.5342, 10.8834], [-68.5053, 10.8801], [-68.4438, 10.8577], [-68.3911, 10.8633], [-68.3497, 10.8848], [-68.2729, 10.8706], [-68.2476, 10.8593], [-68.2399, 10.8493], [-68.2274, 10.8587], [-68.2268, 10.8524], [-68.2185, 10.8549], [-68.2179, 10.8604], [-68.2229, 10.8571], [-68.219, 10.8707], [-68.2207, 10.866], [-68.2315, 10.8643], [-68.2218, 10.869], [-68.2262, 10.8785], [-68.2226, 10.8776], [-68.2157, 10.8654], [-68.2162, 10.8782], [-68.2207, 10.879], [-68.2221, 10.8779], [-68.2249, 10.8793], [-68.2271, 10.8785], [-68.2246, 10.8865], [-68.2404, 10.8904], [-68.2535, 10.919], [-68.261, 10.9185], [-68.251, 10.9035], [-68.2637, 10.894], [-68.3151, 10.9085], [-68.3204, 10.9157], [-68.3487, 10.9065], [-68.364, 10.919], [-68.3629, 10.9312], [-68.3171, 10.9371], [-68.2874, 10.9249], [-68.296, 10.9163], [-68.2793, 10.9038], [-68.2618, 10.9068], [-68.2749, 10.9207], [-68.2679, 10.9263], [-68.2704, 10.9346], [-68.3174, 11.0015], [-68.3362, 11.0591], [-68.384, 11.047], [-68.3974, 11.0462], [-68.3992, 11.0392], [-68.3908, 11.0176], [-68.394, 11.0068]]], [[[-68.2601, 10.9454], [-68.2665, 10.9457], [-68.2574, 10.9387], [-68.2543, 10.9443], [-68.2601, 10.9454]]]]}}, {"type": "Feature", "properties": {"municipio": "Palma Sola", "estado": "Falcón", "gid": "VEN.12.16_1"}, "geometry": {"type": "Polygon", "coordinates": [[[-68.5689, 10.6539], [-68.5466, 10.6446], [-68.5063, 10.635], [-68.4805, 10.7328], [-68.5481, 10.76], [-68.5984, 10.7553], [-68.5946, 10.7211], [-68.5888, 10.6671], [-68.5689, 10.6539]]]}}, {"type": "Feature", "properties": {"municipio": "Petit", "estado": "Falcón", "gid": "VEN.12.17_1"}, "geometry": {"type": "Polygon", "coordinates": [[[-69.5785, 11.2319], [-69.6249, 11.2218], [-69.6783, 11.2046], [-69.6903, 11.1634], [-69.6669, 11.1487], [-69.6536, 11.146], [-69.6092, 11.1477], [-69.6056, 11.1372], [-69.6122, 11.0739], [-69.5984, 11.064], [-69.5576, 11.0038], [-69.5486, 10.9836], [-69.5529, 10.9649], [-69.5467, 10.9651], [-69.4788, 10.9137], [-69.46, 10.9118], [-69.4385, 10.9218], [-69.4088, 10.947], [-69.3576, 10.9447], [-69.3267, 10.9315], [-69.3112, 10.9477], [-69.249, 10.9622], [-69.2212, 11.0012], [-69.2117, 11.0369], [-69.1975, 11.0529], [-69.1713, 11.0737], [-69.1857, 11.1059], [-69.1954, 11.121], [-69.2195, 11.1202], [-69.3767, 11.1363], [-69.3908, 11.1408], [-69.4013, 11.1483], [-69.4475, 11.2046], [-69.4838, 11.2303], [-69.5095, 11.2392], [-69.542, 11.2153], [-69.5692, 11.213], [-69.5773, 11.2239], [-69.5785, 11.2319]]]}}, {"type": "Feature", "properties": {"municipio": "Píritu", "estado": "Falcón", "gid": "VEN.12.18_1"}, "geometry": {"type": "Polygon", "coordinates": [[[-68.7568, 11.369], [-68.7951, 11.3985], [-68.8288, 11.4438], [-68.8407, 11.4382], [-68.8599, 11.4507], [-68.8857, 11.4485], [-68.8913, 11.4415], [-68.9485, 11.451], [-68.9882, 11.4349], [-69.0079, 11.4432], [-69.0212, 11.4354], [-69.0421, 11.4438], [-69.0512, 11.4393], [-69.1071, 11.4937], [-69.1149, 11.4838], [-69.1358, 11.4913], [-69.1347, 11.4719], [-69.1462, 11.4413], [-69.1895, 11.4455], [-69.216, 11.4679], [-69.2169, 11.4603], [-69.1869, 11.409], [-69.2041, 11.3658], [-69.2028, 11.1626], [-69.194, 11.1294], [-68.9994, 11.196], [-68.9464, 11.195], [-68.9215, 11.2225], [-68.8235, 11.2591], [-68.7749, 11.2739], [-68.7568, 11.369]]]}}, {"type": "Feature", "properties": {"municipio": "San Francisco", "estado": "Falcón", "gid": "VEN.12.19_1"}, "geometry": {"type": "Polygon", "coordinates": [[[-68.7734, 11.2813], [-68.7749, 11.2739], [-68.8235, 11.2591], [-68.6809, 11.0283], [-68.6668, 11.026], [-68.6348, 11.0259], [-68.6277, 11.0278], [-68.6247, 11.0309], [-68.6145, 11.0331], [-68.5611, 11.0355], [-68.5744, 11.0781], [-68.606, 11.1079], [-68.5933, 11.1388], [-68.5983, 11.1612], [-68.6711, 11.1946], [-68.7734, 11.2813]]]}}, {"type": "Feature", "properties": {"municipio": "Silva", "estado": "Falcón", "gid": "VEN.12.20_1"}, "geometry": {"type": "MultiPolygon", "coordinates": [[[[-68.5901, 10.8298], [-68.5988, 10.8006], [-68.6013, 10.781], [-68.5984, 10.7553], [-68.5481, 10.76], [-68.4805, 10.7328], [-68.5063, 10.635], [-68.468, 10.6295], [-68.4262, 10.626], [-68.2663, 10.6224], [-68.2971, 10.6846], [-68.3243, 10.7685], [-68.3238, 10.7813], [-68.3129, 10.7943], [-68.2962, 10.7854], [-68.3015, 10.7985], [-68.2901, 10.809], [-68.3065, 10.8124], [-68.3021, 10.8215], [-68.3071, 10.8276], [-68.3115, 10.7965], [-68.3215, 10.8001], [-68.3246, 10.8199], [-68.3215, 10.8237], [-68.3151, 10.8165], [-68.3082, 10.8279], [-68.3268, 10.8324], [-68.3296, 10.8218], [-68.3304, 10.8365], [-68.3257, 10.844], [-68.3329, 10.8535], [-68.3257, 10.859], [-68.3296, 10.8507], [-68.319, 10.8413], [-68.3288, 10.8329], [-68.3157, 10.8365], [-68.2968, 10.8218], [-68.2929, 10.8299], [-68.3015, 10.8415], [-68.3121, 10.839], [-68.3068, 10.844], [-68.3146, 10.8426], [-68.3254, 10.8535], [-68.314, 10.8554], [-68.3018, 10.8449], [-68.3093, 10.8543], [-68.2929, 10.8415], [-68.2857, 10.8476], [-68.2937, 10.8446], [-68.3029, 10.8565], [-68.2829, 10.8579], [-68.2737, 10.846], [-68.2646, 10.8549], [-68.2399, 10.8493], [-68.2476, 10.8593], [-68.2729, 10.8706], [-68.3497, 10.8848], [-68.3911, 10.8633], [-68.4438, 10.8577], [-68.5053, 10.8801], [-68.5342, 10.8834], [-68.5901, 10.8298]]], [[[-68.2835, 10.8138], [-68.2882, 10.8096], [-68.2776, 10.8085], [-68.2835, 10.8138]]], [[[-68.2701, 10.8474], [-68.2865, 10.8349], [-68.2862, 10.8215], [-68.2787, 10.8279], [-68.276, 10.8207], [-68.2676, 10.8318], [-68.2746, 10.8307], [-68.2607, 10.8351], [-68.2735, 10.8329], [-68.2757, 10.8393], [-68.2671, 10.8396], [-68.2701, 10.8474]]], [[[-68.2379, 10.8315], [-68.2671, 10.8149], [-68.2457, 10.819], [-68.2379, 10.8315]]], [[[-68.2262, 10.8468], [-68.2374, 10.841], [-68.2382, 10.8346], [-68.2254, 10.8407], [-68.2307, 10.8424], [-68.2262, 10.8468]]]]}}, {"type": "Feature", "properties": {"municipio": "Sucre", "estado": "Falcón", "gid": "VEN.12.21_1"}, "geometry": {"type": "Polygon", "coordinates": [[[-69.7928, 10.9614], [-69.7877, 10.961], [-69.7542, 10.9446], [-69.7273, 10.9467], [-69.6864, 10.9715], [-69.6323, 10.9556], [-69.5999, 10.9534], [-69.5732, 10.9641], [-69.5529, 10.9649], [-69.5486, 10.9836], [-69.5576, 11.0038], [-69.5984, 11.064], [-69.6122, 11.0739], [-69.6056, 11.1372], [-69.6092, 11.1477], [-69.6536, 11.146], [-69.6669, 11.1487], [-69.6903, 11.1634], [-69.6783, 11.2046], [-69.7025, 11.1984], [-69.7274, 11.2053], [-69.7383, 11.2284], [-69.7483, 11.2269], [-69.7785, 11.192], [-69.8039, 11.1934], [-69.8769, 11.1869], [-69.883, 11.1828], [-69.8244, 11.1582], [-69.7304, 11.0956], [-69.681, 11.0984], [-69.6716, 11.0927], [-69.6687, 11.0794], [-69.6412, 11.069], [-69.6744, 11.0263], [-69.6886, 11.0301], [-69.7928, 10.9614]]]}}, {"type": "Feature", "properties": {"municipio": "Tocópero", "estado": "Falcón", "gid": "VEN.12.22_1"}, "geometry": {"type": "Polygon", "coordinates": [[[-69.1358, 11.4913], [-69.1537, 11.4913], [-69.1826, 11.5107], [-69.2021, 11.5026], [-69.226, 11.5085], [-69.266, 11.5346], [-69.2824, 11.534], [-69.3112, 11.5149], [-69.3013, 11.4791], [-69.2174, 11.4629], [-69.216, 11.4679], [-69.1895, 11.4455], [-69.1462, 11.4413], [-69.1347, 11.4719], [-69.1358, 11.4913]]]}}, {"type": "Feature", "properties": {"municipio": "Unión", "estado": "Falcón", "gid": "VEN.12.23_1"}, "geometry": {"type": "Polygon", "coordinates": [[[-69.235, 10.7369], [-69.1974, 10.735], [-69.0732, 10.7141], [-69.0537, 10.7044], [-68.9545, 10.7289], [-68.9175, 10.7282], [-68.9339, 10.757], [-68.9375, 10.822], [-68.9504, 10.8431], [-69.0915, 10.8751], [-69.1192, 10.9437], [-69.1713, 11.0737], [-69.1975, 11.0529], [-69.2117, 11.0369], [-69.2212, 11.0012], [-69.249, 10.9622], [-69.3112, 10.9477], [-69.3267, 10.9315], [-69.3183, 10.9249], [-69.3305, 10.8631], [-69.3235, 10.802], [-69.2572, 10.7778], [-69.235, 10.7369]]]}}, {"type": "Feature", "properties": {"municipio": "Urumaco", "estado": "Falcón", "gid": "VEN.12.24_1"}, "geometry": {"type": "Polygon", "coordinates": [[[-70.4164, 10.9166], [-70.3864, 10.9247], [-70.3446, 10.9304], [-70.3294, 10.9228], [-70.2952, 10.9247], [-70.2725, 10.938], [-70.2592, 10.9551], [-70.2402, 11.012], [-70.2098, 11.0519], [-70.2079, 11.0595], [-70.2212, 11.0728], [-70.1946, 11.0785], [-70.1223, 11.1177], [-70.1286, 11.1991], [-70.1312, 11.2148], [-70.1979, 11.2814], [-70.2365, 11.3426], [-70.2637, 11.351], [-70.2721, 11.3485], [-70.2696, 11.3429], [-70.2793, 11.3543], [-70.2929, 11.3496], [-70.3063, 11.334], [-70.2915, 11.3415], [-70.3071, 11.331], [-70.3196, 11.331], [-70.3363, 11.3188], [-70.3081, 11.2897], [-70.3058, 11.2479], [-70.3175, 11.2283], [-70.3238, 11.187], [-70.3553, 11.1405], [-70.3563, 11.0671], [-70.3665, 11.0025], [-70.3842, 10.9718], [-70.4111, 10.9457], [-70.4164, 10.9166]]]}}, {"type": "Feature", "properties": {"municipio": "Zamora", "estado": "Falcón", "gid": "VEN.12.25_1"}, "geometry": {"type": "Polygon", "coordinates": [[[-69.3904, 11.1407], [-69.3767, 11.1363], [-69.2195, 11.1202], [-69.1928, 11.1243], [-69.2028, 11.1626], [-69.2041, 11.3658], [-69.1869, 11.409], [-69.2169, 11.4603], [-69.2174, 11.4629], [-69.3013, 11.4791], [-69.3112, 11.5149], [-69.3688, 11.4826], [-69.437, 11.4916], [-69.4298, 11.4772], [-69.3911, 11.4609], [-69.386, 11.324], [-69.3623, 11.3001], [-69.3652, 11.165], [-69.369, 11.1577], [-69.3904, 11.1407]]]}}]}