{"type": "FeatureCollection", "features": [{"type": "Feature", "properties": {"municipio": "Camaguán", "estado": "Guárico", "gid": "VEN.13.1_1"}, "geometry": {"type": "Polygon", "coordinates": [[[-67.4257, 7.8812], [-67.4046, 7.8936], [-67.397, 7.9164], [-67.435, 8.0303], [-67.4578, 8.0455], [-67.4559, 8.0721], [-67.4483, 8.0854], [-67.3932, 8.1271], [-67.3876, 8.1385], [-67.4046, 8.1537], [-67.4046, 8.1632], [-67.3743, 8.224], [-67.4141, 8.2657], [-67.4597, 8.2923], [-67.473, 8.3208], [-67.485, 8.3329], [-67.5165, 8.3329], [-67.7909, 8.2407], [-67.7921, 8.2322], [-67.7671, 8.2074], [-67.6951, 8.1655], [-67.6605, 8.1225], [-67.6266, 8.0978], [-67.6194, 8.0628], [-67.5916, 8.0155], [-67.6079, 7.9896], [-67.5908, 7.9416], [-67.5588, 7.9063], [-67.5501, 7.8591], [-67.5305, 7.8479], [-67.5004, 7.8483], [-67.4568, 7.8536], [-67.4377, 7.8803], [-67.4257, 7.8812]]]}}, {"type": "Feature", "properties": {"municipio": "Chaguaramas", "estado": "Guárico", "gid": "VEN.13.2_1"}, "geometry": {"type": "Polygon", "coordinates": [[[-66.6607, 9.1754], [-66.6132, 9.1561], [-66.5208, 9.1356], [-66.4687, 9.1141], [-66.3728, 9.0902], [-66.334, 9.0644], [-66.2404, 8.9698], [-66.2134, 9.0587], [-66.1482, 9.1719], [-66.1046, 9.2103], [-66.0903, 9.237], [-66.0878, 9.2597], [-66.1091, 9.3063], [-66.0756, 9.4043], [-66.0874, 9.4586], [-66.0576, 9.49], [-65.984, 9.6179], [-66.0002, 9.6279], [-66.0596, 9.6723], [-66.1175, 9.6657], [-66.126, 9.6598], [-66.1405, 9.6177], [-66.3155, 9.58], [-66.343, 9.5416], [-66.3948, 9.511], [-66.4165, 9.4225], [-66.4492, 9.3801], [-66.5156, 9.3349], [-66.56, 9.2704], [-66.6166, 9.2363], [-66.651, 9.2255], [-66.681, 9.2217], [-66.6748, 9.21], [-66.6607, 9.1754]]]}}, {"type": "Feature", "properties": {"municipio": "El Socorro", "estado": "Guárico", "gid": "VEN.13.3_1"}, "geometry": {"type": "Polygon", "coordinates": [[[-65.5684, 7.7917], [-65.5629, 7.8584], [-65.5189, 7.9217], [-65.5175, 7.9808], [-65.4773, 8.0904], [-65.4605, 8.1598], [-65.4663, 8.2187], [-65.4786, 8.2476], [-65.575, 8.3486], [-65.613, 8.4387], [-65.6124, 8.4568], [-65.581, 8.4862], [-65.5886, 8.5734], [-65.5787, 8.7088], [-65.5742, 8.7302], [-65.56, 8.7652], [-65.521, 8.7938], [-65.4851, 8.8738], [-65.43, 8.9173], [-65.4237, 8.9186], [-65.4223, 8.9176], [-65.4255, 8.9456], [-65.4304, 8.9615], [-65.4538, 9.0177], [-65.5375, 9.1235], [-65.5482, 9.1308], [-65.6142, 9.0715], [-65.6377, 9.0584], [-65.6615, 9.0573], [-65.7033, 9.031], [-65.7391, 9.0365], [-65.7928, 9.0149], [-65.8655, 8.9479], [-65.8299, 8.8812], [-65.7965, 8.8443], [-65.7718, 8.8234], [-65.761, 8.8025], [-65.7598, 8.7792], [-65.7501, 8.7706], [-65.6991, 8.7615], [-65.6728, 8.7407], [-65.6559, 8.7065], [-65.6347, 8.5964], [-65.6247, 8.5342], [-65.6418, 8.4897], [-65.6811, 8.4235], [-65.6551, 8.3838], [-65.6393, 8.3355], [-65.5766, 8.2507], [-65.5635, 8.2155], [-65.5771, 8.155], [-65.6198, 8.0948], [-65.6411, 8.0484], [-65.6555, 7.926], [-65.6395, 7.7973], [-65.5826, 7.7939], [-65.5684, 7.7917]]]}}, {"type": "Feature", "properties": {"municipio": "Infante", "estado": "Guárico", "gid": "VEN.13.4_1"}, "geometry": {"type": "Polygon", "coordinates": [[[-65.6395, 7.7973], [-65.6555, 7.926], [-65.6411, 8.0484], [-65.6198, 8.0948], [-65.5771, 8.155], [-65.5635, 8.2155], [-65.5766, 8.2507], [-65.6393, 8.3355], [-65.6551, 8.3838], [-65.6811, 8.4235], [-65.6418, 8.4897], [-65.6247, 8.5342], [-65.6347, 8.5964], [-65.6559, 8.7065], [-65.6728, 8.7407], [-65.6991, 8.7615], [-65.7501, 8.7706], [-65.7598, 8.7792], [-65.761, 8.8025], [-65.7718, 8.8234], [-65.7965, 8.8443], [-65.8299, 8.8812], [-65.8655, 8.9479], [-65.8977, 9.1358], [-65.8956, 9.1637], [-65.8599, 9.2706], [-65.8534, 9.3077], [-65.8561, 9.3477], [-65.8681, 9.3823], [-65.9613, 9.6094], [-65.9695, 9.6103], [-65.984, 9.6179], [-66.0576, 9.49], [-66.0874, 9.4586], [-66.0756, 9.4043], [-66.1091, 9.3063], [-66.0878, 9.2597], [-66.0903, 9.237], [-66.1046, 9.2103], [-66.1482, 9.1719], [-66.2134, 9.0587], [-66.2404, 8.9698], [-66.2904, 8.8739], [-66.2963, 8.8363], [-66.26, 8.6826], [-66.2548, 8.5951], [-66.2259, 8.5076], [-66.2156, 8.4512], [-66.2138, 8.3353], [-66.2328, 8.2714], [-66.1855, 7.9638], [-66.1661, 7.8892], [-66.1636, 7.8501], [-66.1491, 7.8149], [-66.1504, 7.79], [-66.1631, 7.7596], [-66.1609, 7.7063], [-66.1473, 7.6639], [-66.1207, 7.6239], [-66.1123, 7.5735], [-66.1038, 7.5732], [-66.0443, 7.5885], [-65.926, 7.5804], [-65.8118, 7.6297], [-65.7031, 7.7621], [-65.6684, 7.7848], [-65.651, 7.7961], [-65.6395, 7.7973]]]}}, {"type": "Feature", "properties": {"municipio": "Las Mercedes", "estado": "Guárico", "gid": "VEN.13.5_1"}, "geometry": {"type": "Polygon", "coordinates": [[[-66.3033, 7.555], [-66.2591, 7.548], [-66.2166, 7.5407], [-66.1721, 7.5741], [-66.1351, 7.581], [-66.1123, 7.5735], [-66.1207, 7.6239], [-66.1473, 7.6639], [-66.1609, 7.7063], [-66.1631, 7.7596], [-66.1504, 7.79], [-66.1491, 7.8149], [-66.1636, 7.8501], [-66.1661, 7.8892], [-66.1855, 7.9638], [-66.2328, 8.2714], [-66.2138, 8.3353], [-66.2156, 8.4512], [-66.2259, 8.5076], [-66.2548, 8.5951], [-66.26, 8.6826], [-66.2963, 8.8363], [-66.2904, 8.8739], [-66.2404, 8.9698], [-66.334, 9.0644], [-66.3728, 9.0902], [-66.4687, 9.1141], [-66.5208, 9.1356], [-66.6132, 9.1561], [-66.6607, 9.1754], [-66.6475, 9.142], [-66.6339, 9.0964], [-66.6252, 9.0469], [-66.6297, 8.9093], [-66.6381, 8.8671], [-66.6379, 8.8033], [-66.6461, 8.708], [-66.7087, 8.3963], [-66.7143, 8.3269], [-66.6947, 8.2546], [-66.6945, 8.2272], [-66.7331, 8.1387], [-66.7314, 7.9787], [-66.7363, 7.9473], [-66.764, 7.8966], [-66.7655, 7.8656], [-66.7575, 7.8626], [-66.6996, 7.8548], [-66.6317, 7.8225], [-66.6089, 7.8058], [-66.595, 7.7855], [-66.5699, 7.8024], [-66.5353, 7.7926], [-66.5093, 7.7693], [-66.472, 7.7035], [-66.4411, 7.6787], [-66.3836, 7.6726], [-66.3633, 7.6614], [-66.3326, 7.6087], [-66.3145, 7.5977], [-66.3192, 7.5963], [-66.3033, 7.555]]]}}, {"type": "Feature", "properties": {"municipio": "Mellado", "estado": "Guárico", "gid": "VEN.13.6_1"}, "geometry": {"type": "Polygon", "coordinates": [[[-66.9465, 9.7302], [-66.9827, 9.6782], [-67.0407, 9.6543], [-67.0727, 9.613], [-67.1316, 9.5861], [-67.1681, 9.5838], [-67.1803, 9.5754], [-67.1858, 9.5695], [-67.2008, 9.5403], [-67.2418, 9.4672], [-67.2293, 9.3776], [-67.2413, 9.3505], [-67.2663, 9.3174], [-67.3335, 9.2678], [-67.3436, 9.2184], [-67.3675, 9.175], [-67.3542, 9.1653], [-67.3201, 9.1331], [-67.3083, 9.1336], [-67.2928, 9.149], [-67.2579, 9.1444], [-67.2295, 9.1624], [-67.177, 9.1804], [-67.1587, 9.1263], [-67.1429, 9.1196], [-67.1146, 9.1372], [-67.077, 9.1792], [-67.0473, 9.1943], [-66.9823, 9.1872], [-66.9581, 9.1923], [-66.8983, 9.2173], [-66.7682, 9.2593], [-66.7965, 9.2824], [-66.8372, 9.319], [-66.9378, 9.437], [-66.9912, 9.4594], [-67.0096, 9.4769], [-67.0095, 9.4985], [-66.982, 9.5482], [-66.9644, 9.5635], [-66.8898, 9.5918], [-66.8757, 9.6069], [-66.867, 9.6399], [-66.871, 9.6907], [-66.9108, 9.7172], [-66.9465, 9.7302]]]}}, {"type": "Feature", "properties": {"municipio": "Miranda", "estado": "Guárico", "gid": "VEN.13.7_1"}, "geometry": {"type": "Polygon", "coordinates": [[[-66.7682, 9.2593], [-66.8983, 9.2173], [-66.9581, 9.1923], [-66.9823, 9.1872], [-67.0473, 9.1943], [-67.077, 9.1792], [-67.1146, 9.1372], [-67.1429, 9.1196], [-67.1587, 9.1263], [-67.177, 9.1804], [-67.2295, 9.1624], [-67.2579, 9.1444], [-67.2928, 9.149], [-67.3083, 9.1336], [-67.3201, 9.1331], [-67.3542, 9.1653], [-67.3724, 9.1767], [-67.4373, 9.1885], [-67.5085, 9.1762], [-67.863, 9.1768], [-67.8668, 9.1411], [-67.8401, 9.0862], [-67.8655, 9.0106], [-67.9686, 8.8819], [-67.9878, 8.8414], [-67.9931, 8.7913], [-68.0206, 8.7618], [-68.0245, 8.7077], [-68.0081, 8.6754], [-68.0076, 8.6204], [-68.0228, 8.5906], [-67.9949, 8.5123], [-67.9996, 8.4868], [-68.0147, 8.4601], [-68.0248, 8.4476], [-68.0123, 8.4275], [-67.9707, 8.3939], [-67.9236, 8.3757], [-67.8925, 8.3776], [-67.8808, 8.37], [-67.8751, 8.3448], [-67.8367, 8.3043], [-67.8382, 8.276], [-67.8316, 8.2681], [-67.7985, 8.264], [-67.7902, 8.2524], [-67.7909, 8.2407], [-67.5165, 8.3329], [-67.4769, 8.3327], [-67.412, 8.3156], [-67.3174, 8.2757], [-67.2459, 8.2857], [-67.221, 8.2815], [-67.1976, 8.2659], [-67.157, 8.2574], [-67.0437, 8.1989], [-67.0057, 8.197], [-66.9737, 8.1041], [-66.9398, 8.0335], [-66.9421, 7.9905], [-66.9332, 7.9776], [-66.7814, 7.8714], [-66.7655, 7.8656], [-66.764, 7.8966], [-66.7363, 7.9473], [-66.7314, 7.9787], [-66.7331, 8.1387], [-66.6945, 8.2272], [-66.6947, 8.2546], [-66.7143, 8.3269], [-66.7087, 8.3963], [-66.6461, 8.708], [-66.6379, 8.8033], [-66.6381, 8.8671], [-66.6297, 8.9093], [-66.6252, 9.0469], [-66.6339, 9.0964], [-66.6475, 9.142], [-66.6748, 9.21], [-66.6907, 9.2396], [-66.6992, 9.2505], [-66.7124, 9.2377], [-66.7292, 9.2354], [-66.7553, 9.2481], [-66.7682, 9.2593]]]}}, {"type": "Feature", "properties": {"municipio": "Monagas", "estado": "Guárico", "gid": "VEN.13.8_1"}, "geometry": {"type": "Polygon", "coordinates": [[[-66.6992, 9.2505], [-66.6907, 9.2396], [-66.681, 9.2217], [-66.651, 9.2255], [-66.6166, 9.2363], [-66.56, 9.2704], [-66.5156, 9.3349], [-66.4492, 9.3801], [-66.4165, 9.4225], [-66.3948, 9.511], [-66.343, 9.5416], [-66.3155, 9.58], [-66.1405, 9.6177], [-66.126, 9.6598], [-66.1175, 9.6657], [-66.0596, 9.6723], [-66.0002, 9.6279], [-65.9695, 9.6103], [-65.9613, 9.6094], [-65.9786, 9.6654], [-65.9799, 9.6894], [-65.9591, 9.7175], [-65.9772, 9.7477], [-65.9775, 9.8365], [-65.9694, 9.8554], [-65.9419, 9.8833], [-65.9218, 9.9745], [-66.0437, 9.9858], [-66.0844, 9.9707], [-66.135, 9.9652], [-66.2286, 9.9853], [-66.2988, 10.0001], [-66.3385, 10.0412], [-66.359, 10.0529], [-66.4017, 10.0594], [-66.4313, 10.0489], [-66.4788, 10.0158], [-66.5037, 10], [-66.5485, 9.983], [-66.6258, 9.9792], [-66.6183, 9.9627], [-66.6228, 9.9271], [-66.6068, 9.8822], [-66.6099, 9.8206], [-66.6193, 9.786], [-66.6358, 9.7591], [-66.6388, 9.7286], [-66.5863, 9.6558], [-66.5885, 9.5881], [-66.5996, 9.5384], [-66.5777, 9.4864], [-66.6071, 9.3685], [-66.6175, 9.3471], [-66.661, 9.2979], [-66.6992, 9.2505]]]}}, {"type": "Feature", "properties": {"municipio": "Ortíz", "estado": "Guárico", "gid": "VEN.13.9_1"}, "geometry": {"type": "Polygon", "coordinates": [[[-67.7885, 9.9268], [-67.8074, 9.9143], [-67.8025, 9.855], [-67.7963, 9.8531], [-67.7332, 9.7359], [-67.7283, 9.7165], [-67.7332, 9.7012], [-67.7596, 9.6875], [-67.8051, 9.6444], [-67.8363, 9.6318], [-67.8834, 9.629], [-67.896, 9.618], [-67.9058, 9.5892], [-67.931, 9.5739], [-67.9396, 9.547], [-67.9098, 9.4871], [-67.9052, 9.4284], [-67.8949, 9.4007], [-67.9179, 9.3224], [-67.8623, 9.2421], [-67.8644, 9.1952], [-67.863, 9.1768], [-67.5085, 9.1762], [-67.4373, 9.1885], [-67.3724, 9.1767], [-67.3675, 9.175], [-67.3436, 9.2184], [-67.3335, 9.2678], [-67.2663, 9.3174], [-67.2413, 9.3505], [-67.2293, 9.3776], [-67.2418, 9.4672], [-67.2008, 9.5403], [-67.1851, 9.5708], [-67.223, 9.6514], [-67.2517, 9.6765], [-67.3411, 9.697], [-67.4151, 9.7359], [-67.5033, 9.7203], [-67.5215, 9.7369], [-67.5243, 9.8869], [-67.5198, 9.9049], [-67.5242, 9.9076], [-67.5439, 9.9206], [-67.5562, 9.914], [-67.579, 9.8806], [-67.6257, 9.8768], [-67.6727, 9.8418], [-67.6996, 9.8454], [-67.7317, 9.8905], [-67.7697, 9.9235], [-67.7885, 9.9268]]]}}, {"type": "Feature", "properties": {"municipio": "Ribas", "estado": "Guárico", "gid": "VEN.13.10_1"}, "geometry": {"type": "Polygon", "coordinates": [[[-65.701, 9.7218], [-65.7508, 9.6781], [-65.7848, 9.6656], [-65.8319, 9.6241], [-65.9164, 9.608], [-65.9613, 9.6094], [-65.8681, 9.3823], [-65.8561, 9.3477], [-65.8534, 9.3077], [-65.8599, 9.2706], [-65.8956, 9.1637], [-65.8977, 9.1358], [-65.8655, 8.9479], [-65.7928, 9.0149], [-65.7391, 9.0365], [-65.7033, 9.031], [-65.6615, 9.0573], [-65.6377, 9.0584], [-65.6142, 9.0715], [-65.5465, 9.131], [-65.5319, 9.1535], [-65.5168, 9.1825], [-65.4676, 9.2405], [-65.4661, 9.2551], [-65.4973, 9.3028], [-65.5296, 9.3745], [-65.5777, 9.4215], [-65.5811, 9.4437], [-65.5046, 9.5764], [-65.5232, 9.5683], [-65.5764, 9.604], [-65.6663, 9.6674], [-65.6974, 9.711], [-65.701, 9.7218]]]}}, {"type": "Feature", "properties": {"municipio": "Roscio", "estado": "Guárico", "gid": "VEN.13.11_1"}, "geometry": {"type": "Polygon", "coordinates": [[[-67.1087, 9.8531], [-67.1386, 9.879], [-67.1664, 9.9233], [-67.1924, 9.9393], [-67.2475, 9.9409], [-67.2786, 9.9591], [-67.3453, 9.9721], [-67.4081, 10.0014], [-67.4821, 9.9812], [-67.5008, 9.981], [-67.5083, 9.983], [-67.5105, 9.9553], [-67.5006, 9.9081], [-67.5168, 9.9031], [-67.5198, 9.9049], [-67.5243, 9.8869], [-67.5215, 9.7369], [-67.5033, 9.7203], [-67.4151, 9.7359], [-67.3411, 9.697], [-67.2517, 9.6765], [-67.223, 9.6514], [-67.1858, 9.5695], [-67.1803, 9.5754], [-67.1681, 9.5838], [-67.1316, 9.5861], [-67.0727, 9.613], [-67.0407, 9.6543], [-66.9827, 9.6782], [-66.9465, 9.7302], [-66.9631, 9.7397], [-66.9839, 9.7805], [-67.0122, 9.7873], [-67.0582, 9.8247], [-67.0842, 9.8288], [-67.1087, 9.8531]]]}}, {"type": "Feature", "properties": {"municipio": "San Gerónimode Guayabal", "estado": "Guárico", "gid": "VEN.13.12_1"}, "geometry": {"type": "Polygon", "coordinates": [[[-66.595, 7.7855], [-66.6089, 7.8058], [-66.6317, 7.8225], [-66.6996, 7.8548], [-66.7575, 7.8626], [-66.7814, 7.8714], [-66.9332, 7.9776], [-66.9421, 7.9905], [-66.9398, 8.0335], [-66.9737, 8.1041], [-67.0057, 8.197], [-67.0437, 8.1989], [-67.157, 8.2574], [-67.1976, 8.2659], [-67.221, 8.2815], [-67.2459, 8.2857], [-67.3174, 8.2757], [-67.412, 8.3156], [-67.4769, 8.3327], [-67.485, 8.3329], [-67.473, 8.3208], [-67.4597, 8.2923], [-67.4141, 8.2657], [-67.3743, 8.224], [-67.4046, 8.1632], [-67.4046, 8.1537], [-67.3876, 8.1385], [-67.3932, 8.1271], [-67.4483, 8.0854], [-67.4559, 8.0721], [-67.4578, 8.0455], [-67.435, 8.0303], [-67.397, 7.9164], [-67.4046, 7.8936], [-67.4257, 7.8812], [-67.4094, 7.8787], [-67.3156, 7.8342], [-67.1929, 7.8168], [-67.1565, 7.7943], [-67.0445, 7.7902], [-66.9557, 7.7664], [-66.8717, 7.7344], [-66.8382, 7.6913], [-66.8134, 7.679], [-66.792, 7.6906], [-66.7358, 7.6865], [-66.6967, 7.6947], [-66.6951, 7.7154], [-66.7056, 7.7444], [-66.7014, 7.7568], [-66.6053, 7.7794], [-66.595, 7.7855]]]}}, {"type": "Feature", "properties": {"municipio": "San Joséde Guaribe", "estado": "Guárico", "gid": "VEN.13.13_1"}, "geometry": {"type": "Polygon", "coordinates": [[[-65.6885, 9.7894], [-65.6815, 9.8334], [-65.7207, 9.9272], [-65.7266, 9.9679], [-65.7732, 9.9729], [-65.9218, 9.9745], [-65.9419, 9.8833], [-65.9694, 9.8554], [-65.9775, 9.8365], [-65.9772, 9.7477], [-65.9591, 9.7175], [-65.9799, 9.6894], [-65.9786, 9.6654], [-65.9613, 9.6094], [-65.9164, 9.608], [-65.8319, 9.6241], [-65.7848, 9.6656], [-65.7508, 9.6781], [-65.701, 9.7218], [-65.7019, 9.7423], [-65.6885, 9.7894]]]}}, {"type": "Feature", "properties": {"municipio": "Santa Maríade Ipire", "estado": "Guárico", "gid": "VEN.13.14_1"}, "geometry": {"type": "Polygon", "coordinates": [[[-64.7778, 8.7045], [-64.797, 8.7115], [-64.848, 8.76], [-64.9061, 8.7921], [-65.0319, 8.7944], [-65.0699, 8.8089], [-65.1534, 8.7977], [-65.2099, 8.8064], [-65.2288, 8.819], [-65.2472, 8.8443], [-65.272, 8.8895], [-65.2903, 8.9451], [-65.3125, 8.9418], [-65.3667, 8.9738], [-65.3819, 8.976], [-65.3896, 8.9684], [-65.4067, 8.9071], [-65.4237, 8.9186], [-65.43, 8.9173], [-65.4851, 8.8738], [-65.521, 8.7938], [-65.56, 8.7652], [-65.5742, 8.7302], [-65.5787, 8.7088], [-65.5886, 8.5734], [-65.581, 8.4862], [-65.6124, 8.4568], [-65.613, 8.4387], [-65.575, 8.3486], [-65.4786, 8.2476], [-65.4663, 8.2187], [-65.4605, 8.1598], [-65.4773, 8.0904], [-65.5175, 7.9808], [-65.5189, 7.9217], [-65.5629, 7.8584], [-65.5684, 7.7917], [-65.552, 7.7879], [-65.5004, 7.7845], [-65.4212, 7.7693], [-65.3597, 7.7559], [-65.3298, 7.7451], [-65.3318, 7.796], [-65.3519, 7.816], [-65.3936, 7.8389], [-65.4761, 7.8487], [-65.4868, 7.8856], [-65.474, 7.9435], [-65.4221, 7.9986], [-65.4028, 8.0341], [-65.3691, 8.0569], [-65.3683, 8.0824], [-65.3486, 8.1185], [-65.3017, 8.1606], [-65.2811, 8.1979], [-65.2079, 8.2927], [-65.1614, 8.4209], [-65.1307, 8.472], [-65.1315, 8.5067], [-65.1495, 8.5495], [-65.15, 8.5769], [-65.1448, 8.6178], [-65.1219, 8.65], [-65.093, 8.6669], [-65.0651, 8.6719], [-64.9836, 8.6262], [-64.8502, 8.6088], [-64.8186, 8.6401], [-64.7861, 8.6895], [-64.7778, 8.7045]]]}}, {"type": "Feature", "properties": {"municipio": "Zaraza", "estado": "Guárico", "gid": "VEN.13.15_1"}, "geometry": {"type": "Polygon", "coordinates": [[[-65.5046, 9.5764], [-65.5811, 9.4437], [-65.5777, 9.4215], [-65.5296, 9.3745], [-65.4973, 9.3028], [-65.4661, 9.2551], [-65.4676, 9.2405], [-65.5168, 9.1825], [-65.5319, 9.1535], [-65.5472, 9.1302], [-65.5375, 9.1235], [-65.4538, 9.0177], [-65.4304, 8.9615], [-65.4255, 8.9456], [-65.4223, 8.9176], [-65.4067, 8.9071], [-65.3896, 8.9684], [-65.3819, 8.976], [-65.3667, 8.9738], [-65.3125, 8.9418], [-65.2903, 8.9451], [-65.272, 8.8895], [-65.2472, 8.8443], [-65.2288, 8.819], [-65.2099, 8.8064], [-65.1534, 8.7977], [-65.0699, 8.8089], [-65.0319, 8.7944], [-64.9061, 8.7921], [-64.848, 8.76], [-64.797, 8.7115], [-64.7778, 8.7045], [-64.7636, 8.7346], [-64.7607, 8.7558], [-64.7643, 8.7705], [-64.7709, 8.7852], [-64.791, 8.8139], [-64.7982, 8.8213], [-64.8444, 8.8571], [-64.8819, 8.8817], [-64.9194, 8.9316], [-64.9634, 8.9649], [-64.9794, 9.0055], [-65.0815, 9.0646], [-65.1361, 9.0655], [-65.1762, 9.0814], [-65.2036, 9.2053], [-65.2391, 9.3128], [-65.2626, 9.3601], [-65.2573, 9.3818], [-65.2193, 9.4071], [-65.181, 9.4392], [-65.1858, 9.4747], [-65.1995, 9.4995], [-65.318, 9.554], [-65.3827, 9.6117], [-65.41, 9.6402], [-65.4314, 9.639], [-65.4721, 9.6137], [-65.5046, 9.5764]]]}}]}