{"type": "FeatureCollection", "features": [{"type": "Feature", "properties": {"municipio": "Vargas", "estado": "La Guaira", "gid": "VEN.23.1_1"}, "geometry": {"type": "Polygon", "coordinates": [[[-67.3539, 10.5023], [-67.3272, 10.4709], [-67.314, 10.4063], [-67.2933, 10.4022], [-67.2767, 10.4258], [-67.2407, 10.443], [-67.204, 10.4388], [-67.1756, 10.4225], [-67.1674, 10.4137], [-67.1717, 10.4187], [-67.1388, 10.4457], [-67.1276, 10.4473], [-67.1001, 10.4635], [-67.0368, 10.477], [-67.027, 10.4948], [-67.0268, 10.5218], [-66.9893, 10.5606], [-66.9298, 10.5512], [-66.868, 10.554], [-66.8443, 10.5442], [-66.8423, 10.5467], [-66.8298, 10.554], [-66.8144, 10.5579], [-66.7163, 10.5547], [-66.6803, 10.5604], [-66.5964, 10.5686], [-66.5288, 10.5633], [-66.4677, 10.5457], [-66.3813, 10.5352], [-66.3489, 10.5346], [-66.3488, 10.563], [-66.359, 10.5674], [-66.3381, 10.6038], [-66.3418, 10.6096], [-66.3646, 10.6099], [-66.411, 10.6313], [-66.4354, 10.6257], [-66.4949, 10.6321], [-66.6654, 10.6218], [-66.7179, 10.6257], [-66.7215, 10.6199], [-66.7387, 10.6254], [-66.7496, 10.6162], [-66.8018, 10.611], [-66.8318, 10.6135], [-66.846, 10.6226], [-66.9076, 10.6021], [-66.9465, 10.6071], [-66.9421, 10.599], [-67.0163, 10.6154], [-67.0301, 10.6126], [-67.0529, 10.5935], [-67.0832, 10.5888], [-67.0938, 10.5796], [-67.1593, 10.5599], [-67.221, 10.551], [-67.2374, 10.556], [-67.2557, 10.5471], [-67.3099, 10.5404], [-67.3518, 10.5429], [-67.3526, 10.5404], [-67.3646, 10.5382], [-67.3539, 10.5023]]]}}]}