{"type": "FeatureCollection", "features": [{"type": "Feature", "properties": {"municipio": "Andrés Eloy Blanco", "estado": "Lara", "gid": "VEN.14.1_1"}, "geometry": {"type": "Polygon", "coordinates": [[[-69.4381, 9.803], [-69.5117, 9.7667], [-69.5155, 9.7571], [-69.5699, 9.7461], [-69.5868, 9.755], [-69.6042, 9.7898], [-69.5978, 9.8255], [-69.6075, 9.8416], [-69.6518, 9.8301], [-69.713, 9.8416], [-69.7479, 9.7637], [-69.738, 9.7363], [-69.6923, 9.6746], [-69.6906, 9.6362], [-69.6695, 9.6257], [-69.5923, 9.6125], [-69.5622, 9.6232], [-69.4211, 9.6274], [-69.4013, 9.633], [-69.3834, 9.6491], [-69.3463, 9.6666], [-69.3306, 9.7056], [-69.329, 9.7432], [-69.3271, 9.7481], [-69.3627, 9.7712], [-69.3748, 9.7942], [-69.394, 9.7998], [-69.4381, 9.803]]]}}, {"type": "Feature", "properties": {"municipio": "Crespo", "estado": "Lara", "gid": "VEN.14.2_1"}, "geometry": {"type": "Polygon", "coordinates": [[[-69.1381, 10.2487], [-69.0804, 10.2735], [-69.0478, 10.314], [-69.0374, 10.3119], [-69.0279, 10.2971], [-69.0179, 10.2959], [-69.0028, 10.3091], [-68.9784, 10.3332], [-68.9737, 10.3475], [-68.991, 10.4089], [-68.9832, 10.47], [-69.0231, 10.4622], [-69.0327, 10.4906], [-69.0272, 10.5192], [-69.0547, 10.5433], [-69.0904, 10.5496], [-69.1165, 10.5431], [-69.1339, 10.518], [-69.1512, 10.5153], [-69.2144, 10.5359], [-69.2522, 10.5375], [-69.2739, 10.4693], [-69.2591, 10.4407], [-69.2635, 10.4044], [-69.275, 10.3875], [-69.3043, 10.369], [-69.3054, 10.3477], [-69.2878, 10.317], [-69.2548, 10.3027], [-69.1979, 10.2863], [-69.1539, 10.3026], [-69.1381, 10.2487]]]}}, {"type": "Feature", "properties": {"municipio": "Iribarren", "estado": "Lara", "gid": "VEN.14.3_1"}, "geometry": {"type": "Polygon", "coordinates": [[[-69.3271, 9.7481], [-69.3193, 9.7658], [-69.3251, 9.8045], [-69.3261, 9.8318], [-69.3135, 9.847], [-69.2728, 9.8693], [-69.2546, 9.8895], [-69.2485, 9.901], [-69.2364, 9.9332], [-69.2302, 9.9363], [-69.2662, 9.9883], [-69.2761, 10.0111], [-69.2822, 10.0355], [-69.2849, 10.0676], [-69.2703, 10.092], [-69.168, 10.149], [-69.1725, 10.1583], [-69.1806, 10.1992], [-69.1773, 10.2264], [-69.1381, 10.2487], [-69.1539, 10.3026], [-69.1979, 10.2863], [-69.2548, 10.3027], [-69.2878, 10.317], [-69.3054, 10.3477], [-69.3043, 10.369], [-69.275, 10.3875], [-69.2635, 10.4044], [-69.2591, 10.4407], [-69.2739, 10.4693], [-69.2522, 10.5375], [-69.4303, 10.5691], [-69.4794, 10.5225], [-69.5383, 10.4973], [-69.5799, 10.4584], [-69.6059, 10.4452], [-69.5987, 10.4205], [-69.599, 10.4034], [-69.6336, 10.3411], [-69.6626, 10.2952], [-69.6649, 10.2628], [-69.6579, 10.2513], [-69.6398, 10.2362], [-69.6381, 10.2103], [-69.6305, 10.1942], [-69.5659, 10.1503], [-69.5651, 10.0782], [-69.5075, 10.025], [-69.4918, 9.946], [-69.4686, 9.931], [-69.4814, 9.8969], [-69.476, 9.879], [-69.4651, 9.8629], [-69.4467, 9.8504], [-69.4486, 9.8107], [-69.443, 9.8034], [-69.394, 9.7998], [-69.3748, 9.7942], [-69.3627, 9.7712], [-69.3271, 9.7481]]]}}, {"type": "Feature", "properties": {"municipio": "Jiménez", "estado": "Lara", "gid": "VEN.14.4_1"}, "geometry": {"type": "Polygon", "coordinates": [[[-69.4381, 9.803], [-69.443, 9.8034], [-69.4486, 9.8107], [-69.4467, 9.8504], [-69.4591, 9.8583], [-69.4693, 9.8675], [-69.478, 9.885], [-69.4814, 9.8969], [-69.4686, 9.931], [-69.4918, 9.946], [-69.5075, 10.025], [-69.5651, 10.0782], [-69.5659, 10.1503], [-69.6305, 10.1942], [-69.6472, 10.1864], [-69.7029, 10.1243], [-69.723, 10.08], [-69.7521, 10.0628], [-69.7696, 10.052], [-69.7512, 10.0403], [-69.7319, 9.9878], [-69.7475, 9.945], [-69.7043, 9.9073], [-69.7031, 9.8724], [-69.713, 9.8416], [-69.6518, 9.8301], [-69.6075, 9.8416], [-69.5978, 9.8255], [-69.6042, 9.7898], [-69.5868, 9.755], [-69.5699, 9.7461], [-69.5155, 9.7571], [-69.5117, 9.7667], [-69.4381, 9.803]]]}}, {"type": "Feature", "properties": {"municipio": "Morán", "estado": "Lara", "gid": "VEN.14.5_1"}, "geometry": {"type": "Polygon", "coordinates": [[[-69.713, 9.8416], [-69.7031, 9.8724], [-69.7043, 9.9073], [-69.7475, 9.945], [-69.7319, 9.9878], [-69.7512, 10.0403], [-69.7696, 10.052], [-69.7737, 10.0497], [-69.806, 10.0576], [-69.8613, 9.9943], [-69.914, 9.9862], [-69.9251, 9.971], [-69.9186, 9.9446], [-69.9359, 9.921], [-69.9813, 9.9118], [-69.9878, 9.916], [-69.9885, 9.9458], [-70.025, 9.9365], [-70.0713, 9.8909], [-70.0828, 9.8244], [-70.0978, 9.8051], [-70.0668, 9.7803], [-70.0187, 9.7627], [-69.9928, 9.7357], [-69.988, 9.7121], [-70.0028, 9.7013], [-70.0786, 9.6927], [-70.0949, 9.6801], [-70.1117, 9.6103], [-70.1079, 9.5705], [-70.0193, 9.4758], [-69.9992, 9.5033], [-69.9659, 9.577], [-69.948, 9.5869], [-69.9081, 9.5729], [-69.8297, 9.5818], [-69.8261, 9.5678], [-69.876, 9.5105], [-69.8939, 9.4876], [-69.8932, 9.4763], [-69.8578, 9.4711], [-69.8136, 9.4739], [-69.7438, 9.4996], [-69.7217, 9.4935], [-69.6881, 9.4685], [-69.6481, 9.4749], [-69.6166, 9.4858], [-69.6087, 9.4959], [-69.6106, 9.5155], [-69.6292, 9.5456], [-69.6026, 9.5656], [-69.5923, 9.6125], [-69.6695, 9.6257], [-69.6906, 9.6362], [-69.6923, 9.6746], [-69.738, 9.7363], [-69.7479, 9.7637], [-69.713, 9.8416]]]}}, {"type": "Feature", "properties": {"municipio": "Palavecino", "estado": "Lara", "gid": "VEN.14.6_1"}, "geometry": {"type": "Polygon", "coordinates": [[[-69.234, 9.9431], [-69.2336, 9.9518], [-69.1555, 9.9747], [-69.1008, 10.0138], [-69.104, 10.0323], [-69.1, 10.0847], [-69.1519, 10.1186], [-69.168, 10.149], [-69.2703, 10.092], [-69.2849, 10.0676], [-69.2822, 10.0355], [-69.2789, 10.0201], [-69.2703, 9.9958], [-69.234, 9.9431]]]}}, {"type": "Feature", "properties": {"municipio": "Simón Planas", "estado": "Lara", "gid": "VEN.14.7_1"}, "geometry": {"type": "Polygon", "coordinates": [[[-68.9219, 9.8949], [-68.9301, 9.9105], [-68.9193, 9.9498], [-68.9015, 9.9707], [-68.8714, 9.9864], [-68.862, 10.0023], [-68.898, 10.0343], [-68.9173, 10.0662], [-68.9414, 10.0684], [-68.9932, 10.0389], [-69.0267, 10.0276], [-69.0454, 10.0124], [-69.0498, 9.9422], [-69.0557, 9.9359], [-69.0675, 9.9456], [-69.0821, 9.9823], [-69.1008, 10.0138], [-69.1555, 9.9747], [-69.2336, 9.9518], [-69.234, 9.9431], [-69.2302, 9.9363], [-69.2185, 9.9369], [-69.211, 9.9304], [-69.2181, 9.8875], [-69.2027, 9.8475], [-69.2232, 9.8111], [-69.2112, 9.7857], [-69.1973, 9.7764], [-69.1613, 9.7632], [-69.093, 9.754], [-69.0655, 9.7613], [-69.032, 9.7632], [-69.0021, 9.8017], [-68.9749, 9.7913], [-68.9437, 9.8109], [-68.9219, 9.8949]]]}}, {"type": "Feature", "properties": {"municipio": "Torres", "estado": "Lara", "gid": "VEN.14.8_1"}, "geometry": {"type": "Polygon", "coordinates": [[[-70.4916, 10.4389], [-70.5395, 10.354], [-70.5908, 10.3459], [-70.6313, 10.3262], [-70.6686, 10.2847], [-70.7032, 10.1989], [-70.7159, 10.1828], [-70.838, 10.108], [-70.8608, 10.0779], [-70.8611, 10.0566], [-70.843, 10.0207], [-70.7899, 9.9647], [-70.7331, 9.9427], [-70.6805, 9.9016], [-70.662, 9.9007], [-70.6622, 9.9364], [-70.6475, 9.9804], [-70.6173, 10.0317], [-70.6002, 10.0362], [-70.5642, 10.0176], [-70.5579, 9.9776], [-70.5217, 9.9273], [-70.4924, 9.9177], [-70.4583, 9.8914], [-70.4356, 9.8977], [-70.4106, 9.9155], [-70.3528, 9.9229], [-70.3327, 9.8844], [-70.3258, 9.8751], [-70.2827, 9.8746], [-70.2625, 9.8356], [-70.2458, 9.8211], [-70.2337, 9.826], [-70.2228, 9.8642], [-70.2148, 9.8688], [-70.1903, 9.8555], [-70.1544, 9.8185], [-70.0978, 9.8051], [-70.0828, 9.8244], [-70.0713, 9.8909], [-70.025, 9.9365], [-69.9885, 9.9458], [-69.9878, 9.916], [-69.9813, 9.9118], [-69.9359, 9.921], [-69.9186, 9.9446], [-69.9251, 9.971], [-69.914, 9.9862], [-69.8613, 9.9943], [-69.806, 10.0576], [-69.7737, 10.0497], [-69.7521, 10.0628], [-69.723, 10.08], [-69.7029, 10.1243], [-69.6472, 10.1864], [-69.6303, 10.1943], [-69.6381, 10.2103], [-69.6398, 10.2362], [-69.6579, 10.2513], [-69.6649, 10.2628], [-69.6626, 10.2952], [-69.6336, 10.3411], [-69.599, 10.4034], [-69.5987, 10.4205], [-69.6059, 10.4452], [-69.618, 10.439], [-69.6434, 10.4521], [-69.6401, 10.4742], [-69.6502, 10.4827], [-69.7611, 10.5056], [-69.7851, 10.5005], [-69.8282, 10.4613], [-69.8695, 10.4455], [-69.9277, 10.4372], [-69.94, 10.4636], [-69.9559, 10.472], [-70.002, 10.4489], [-70.0446, 10.4497], [-70.0713, 10.4401], [-70.092, 10.4441], [-70.1225, 10.4625], [-70.1832, 10.5548], [-70.2033, 10.5579], [-70.2786, 10.5408], [-70.3278, 10.5583], [-70.3541, 10.5453], [-70.3785, 10.4936], [-70.4055, 10.4754], [-70.4597, 10.4677], [-70.4916, 10.4389]]]}}, {"type": "Feature", "properties": {"municipio": "Urdaneta", "estado": "Lara", "gid": "VEN.14.9_1"}, "geometry": {"type": "Polygon", "coordinates": [[[-70.3278, 10.5583], [-70.2786, 10.5408], [-70.2033, 10.5579], [-70.1832, 10.5548], [-70.1225, 10.4625], [-70.092, 10.4441], [-70.0713, 10.4401], [-70.0446, 10.4497], [-70.002, 10.4489], [-69.9559, 10.472], [-69.94, 10.4636], [-69.9277, 10.4372], [-69.8695, 10.4455], [-69.8282, 10.4613], [-69.7851, 10.5005], [-69.7611, 10.5056], [-69.6502, 10.4827], [-69.6401, 10.4742], [-69.6434, 10.4521], [-69.618, 10.439], [-69.5799, 10.4584], [-69.5383, 10.4973], [-69.4794, 10.5225], [-69.4303, 10.5691], [-69.2522, 10.5375], [-69.2144, 10.5359], [-69.1512, 10.5153], [-69.1339, 10.518], [-69.1165, 10.5431], [-69.0904, 10.5496], [-69.0547, 10.5433], [-69.0272, 10.5192], [-69.0262, 10.5235], [-68.9846, 10.5784], [-68.9429, 10.6059], [-68.9179, 10.6564], [-68.8703, 10.6902], [-68.8672, 10.6998], [-68.8807, 10.7248], [-68.8883, 10.7299], [-68.9198, 10.728], [-68.9545, 10.7289], [-69.0537, 10.7044], [-69.0732, 10.7141], [-69.1974, 10.735], [-69.2535, 10.7339], [-69.3718, 10.7423], [-69.4666, 10.7267], [-69.5017, 10.7365], [-69.5386, 10.7754], [-69.605, 10.7827], [-69.705, 10.7607], [-69.7535, 10.739], [-69.791, 10.7388], [-69.8173, 10.7487], [-69.8528, 10.7386], [-69.9282, 10.6984], [-69.9827, 10.6863], [-70.0412, 10.6632], [-70.1182, 10.6715], [-70.1722, 10.6257], [-70.2118, 10.6031], [-70.3083, 10.5688], [-70.3278, 10.5583]]]}}]}