{"type": "FeatureCollection", "features": [{"type": "Feature", "properties": {"municipio": "Alberto Adriani", "estado": "Mérida", "gid": "VEN.15.1_1"}, "geometry": {"type": "Polygon", "coordinates": [[[-71.5154, 8.6872], [-71.5225, 8.699], [-71.5666, 8.7164], [-71.6136, 8.7525], [-71.7324, 8.6676], [-71.7645, 8.6584], [-71.8067, 8.6951], [-71.8326, 8.7031], [-71.8542, 8.7001], [-71.898, 8.6734], [-71.9505, 8.6633], [-71.969, 8.6459], [-71.9706, 8.6369], [-71.9698, 8.635], [-71.9549, 8.6268], [-71.9244, 8.617], [-71.8277, 8.6053], [-71.8011, 8.5764], [-71.7842, 8.5476], [-71.7652, 8.545], [-71.7416, 8.4923], [-71.7261, 8.4961], [-71.6619, 8.5196], [-71.6333, 8.5264], [-71.6297, 8.5161], [-71.6088, 8.4934], [-71.5612, 8.4903], [-71.5744, 8.5444], [-71.5377, 8.5301], [-71.5581, 8.5635], [-71.5685, 8.5887], [-71.5605, 8.6037], [-71.5199, 8.6293], [-71.5154, 8.6872]]]}}, {"type": "Feature", "properties": {"municipio": "Andrés Bello", "estado": "Mérida", "gid": "VEN.15.2_1"}, "geometry": {"type": "Polygon", "coordinates": [[[-71.5685, 8.5887], [-71.4993, 8.5856], [-71.4159, 8.5987], [-71.3979, 8.5918], [-71.3915, 8.6213], [-71.3778, 8.6328], [-71.3877, 8.6463], [-71.3574, 8.6595], [-71.2576, 8.6652], [-71.1967, 8.6895], [-71.2575, 8.7424], [-71.2878, 8.7566], [-71.3284, 8.7712], [-71.3912, 8.7695], [-71.3885, 8.7591], [-71.3992, 8.7527], [-71.4816, 8.7468], [-71.4957, 8.7062], [-71.5154, 8.6872], [-71.5199, 8.6293], [-71.5605, 8.6037], [-71.5685, 8.5887]]]}}, {"type": "Feature", "properties": {"municipio": "Antonio Pinto Salinas", "estado": "Mérida", "gid": "VEN.15.3_1"}, "geometry": {"type": "Polygon", "coordinates": [[[-71.7416, 8.4923], [-71.7221, 8.4684], [-71.7194, 8.4628], [-71.7217, 8.4236], [-71.7424, 8.4113], [-71.7448, 8.4081], [-71.7217, 8.4046], [-71.7156, 8.3742], [-71.6941, 8.3673], [-71.6789, 8.3504], [-71.6754, 8.3199], [-71.6812, 8.3043], [-71.6789, 8.2714], [-71.6617, 8.2625], [-71.6009, 8.2504], [-71.575, 8.2253], [-71.5741, 8.2288], [-71.5654, 8.2364], [-71.5581, 8.2374], [-71.5717, 8.3197], [-71.5448, 8.3535], [-71.537, 8.3766], [-71.5645, 8.4329], [-71.5612, 8.4903], [-71.6088, 8.4934], [-71.6297, 8.5161], [-71.6333, 8.5264], [-71.6619, 8.5196], [-71.7261, 8.4961], [-71.7416, 8.4923]]]}}, {"type": "Feature", "properties": {"municipio": "Aricagua", "estado": "Mérida", "gid": "VEN.15.4_1"}, "geometry": {"type": "Polygon", "coordinates": [[[-70.9054, 8.2652], [-70.9242, 8.2709], [-70.9359, 8.2764], [-70.9686, 8.3032], [-71.0474, 8.3365], [-71.0866, 8.3561], [-71.1171, 8.3496], [-71.1278, 8.3265], [-71.1568, 8.2866], [-71.1849, 8.2494], [-71.2044, 8.2279], [-71.2319, 8.2056], [-71.2437, 8.1905], [-71.2607, 8.1566], [-71.2788, 8.1428], [-71.2469, 8.1171], [-71.232, 8.0949], [-71.2345, 8.0691], [-71.2589, 8.007], [-71.3277, 7.9656], [-71.335, 7.9544], [-71.3335, 7.9001], [-71.1897, 7.9661], [-71.1397, 8.0013], [-71.1056, 8.0109], [-71.0363, 8.0807], [-71.0159, 8.1444], [-71.0011, 8.1755], [-70.9958, 8.1942], [-71.0057, 8.2316], [-70.9949, 8.2526], [-70.9758, 8.2605], [-70.9424, 8.2438], [-70.9206, 8.2507], [-70.9054, 8.2652]]]}}, {"type": "Feature", "properties": {"municipio": "Arzobispo Chacón", "estado": "Mérida", "gid": "VEN.15.5_1"}, "geometry": {"type": "Polygon", "coordinates": [[[-71.3335, 7.9001], [-71.335, 7.9544], [-71.3277, 7.9656], [-71.2589, 8.007], [-71.2345, 8.0691], [-71.232, 8.0949], [-71.2469, 8.1171], [-71.2788, 8.1428], [-71.2607, 8.1566], [-71.2437, 8.1905], [-71.2319, 8.2056], [-71.2044, 8.2279], [-71.1849, 8.2494], [-71.1671, 8.2759], [-71.1992, 8.3124], [-71.2253, 8.3206], [-71.2518, 8.3243], [-71.3328, 8.3113], [-71.3579, 8.3045], [-71.3493, 8.288], [-71.3531, 8.2666], [-71.3708, 8.2537], [-71.3855, 8.2543], [-71.4005, 8.272], [-71.4246, 8.274], [-71.4495, 8.241], [-71.4914, 8.2156], [-71.5414, 8.2375], [-71.5654, 8.2364], [-71.5741, 8.2288], [-71.5771, 8.2162], [-71.5705, 8.1797], [-71.5933, 8.1477], [-71.5864, 8.0945], [-71.5771, 8.0794], [-71.5437, 8.0732], [-71.5673, 7.9879], [-71.5614, 7.9576], [-71.5251, 7.915], [-71.519, 7.8967], [-71.5178, 7.8731], [-71.4798, 7.8641], [-71.481, 7.8442], [-71.4959, 7.801], [-71.4942, 7.7976], [-71.4834, 7.7949], [-71.4707, 7.8074], [-71.4452, 7.8705], [-71.429, 7.8798], [-71.4204, 7.8664], [-71.4171, 7.8403], [-71.4117, 7.8362], [-71.3971, 7.8498], [-71.381, 7.8597], [-71.3618, 7.8512], [-71.3327, 7.8739], [-71.3274, 7.8918], [-71.3335, 7.9001]]]}}, {"type": "Feature", "properties": {"municipio": "Campo Elías", "estado": "Mérida", "gid": "VEN.15.6_1"}, "geometry": {"type": "Polygon", "coordinates": [[[-71.3979, 8.5918], [-71.3697, 8.5483], [-71.3834, 8.5258], [-71.3843, 8.4984], [-71.3753, 8.4534], [-71.3802, 8.4201], [-71.3545, 8.3573], [-71.3606, 8.3135], [-71.3579, 8.3045], [-71.3328, 8.3113], [-71.2518, 8.3243], [-71.2253, 8.3206], [-71.1992, 8.3124], [-71.1671, 8.2759], [-71.1568, 8.2866], [-71.1367, 8.3146], [-71.1721, 8.3512], [-71.2234, 8.4271], [-71.1808, 8.4504], [-71.1897, 8.4677], [-71.1872, 8.5234], [-71.2103, 8.6341], [-71.1996, 8.6458], [-71.1693, 8.6579], [-71.1604, 8.6722], [-71.1603, 8.6902], [-71.1761, 8.6927], [-71.1915, 8.6911], [-71.2591, 8.6649], [-71.3574, 8.6595], [-71.3877, 8.6463], [-71.3778, 8.6328], [-71.3915, 8.6213], [-71.3979, 8.5918]]]}}, {"type": "Feature", "properties": {"municipio": "Caracciolo Parra Olmedo", "estado": "Mérida", "gid": "VEN.15.7_1"}, "geometry": {"type": "Polygon", "coordinates": [[[-71.1967, 8.6895], [-71.1761, 8.6927], [-71.1603, 8.6902], [-71.0926, 8.7177], [-71.06, 8.7515], [-71.0244, 8.7712], [-70.9918, 8.7783], [-70.9915, 8.8255], [-71.0183, 8.8615], [-71.0178, 8.8667], [-71.0205, 8.8673], [-71.065, 8.8727], [-71.0911, 8.869], [-71.1111, 8.8585], [-71.147, 8.859], [-71.1638, 8.9133], [-71.1962, 8.9506], [-71.1988, 8.9769], [-71.1941, 8.993], [-71.1954, 9.0049], [-71.2247, 9.0453], [-71.2334, 9.0466], [-71.3459, 8.9941], [-71.3889, 8.9595], [-71.3933, 8.9525], [-71.4024, 8.9286], [-71.3952, 8.928], [-71.3666, 8.868], [-71.3689, 8.8035], [-71.3579, 8.7863], [-71.3402, 8.7757], [-71.2878, 8.7566], [-71.2575, 8.7424], [-71.1967, 8.6895]]]}}, {"type": "Feature", "properties": {"municipio": "Cardenal Quintero", "estado": "Mérida", "gid": "VEN.15.8_1"}, "geometry": {"type": "Polygon", "coordinates": [[[-70.5404, 8.9988], [-70.5641, 9.0384], [-70.5713, 9.0428], [-70.6065, 8.9987], [-70.6348, 8.9408], [-70.6417, 8.8919], [-70.6779, 8.8802], [-70.6951, 8.893], [-70.7029, 8.8932], [-70.7112, 8.8701], [-70.749, 8.8252], [-70.7835, 8.8069], [-70.7732, 8.7919], [-70.7723, 8.7395], [-70.7627, 8.7344], [-70.7483, 8.7508], [-70.7346, 8.7533], [-70.7176, 8.7154], [-70.7117, 8.7199], [-70.6866, 8.7301], [-70.6607, 8.7476], [-70.6416, 8.7792], [-70.6128, 8.8571], [-70.5772, 8.9021], [-70.5498, 8.9915], [-70.5404, 8.9988]]]}}, {"type": "Feature", "properties": {"municipio": "Guaraque", "estado": "Mérida", "gid": "VEN.15.9_1"}, "geometry": {"type": "Polygon", "coordinates": [[[-71.6785, 8.2711], [-71.7017, 8.2601], [-71.7165, 8.2375], [-71.7506, 8.2391], [-71.7644, 8.2449], [-71.7899, 8.2279], [-71.8028, 8.2157], [-71.8161, 8.1756], [-71.8231, 8.1625], [-71.8331, 8.1494], [-71.8401, 8.1435], [-71.7946, 8.1313], [-71.7689, 8.1085], [-71.7416, 8.069], [-71.6914, 8.0242], [-71.6778, 7.9941], [-71.6567, 7.975], [-71.6377, 7.9718], [-71.5673, 7.9879], [-71.5437, 8.0732], [-71.5771, 8.0794], [-71.5864, 8.0945], [-71.5933, 8.1477], [-71.5705, 8.1797], [-71.5771, 8.2162], [-71.575, 8.2253], [-71.6009, 8.2504], [-71.6617, 8.2625], [-71.6785, 8.2711]]]}}, {"type": "Feature", "properties": {"municipio": "Julio César Salas", "estado": "Mérida", "gid": "VEN.15.10_1"}, "geometry": {"type": "Polygon", "coordinates": [[[-70.9941, 9.3475], [-70.9954, 9.2569], [-70.9904, 9.1996], [-70.9654, 9.1883], [-70.9459, 9.1309], [-70.9251, 9.1026], [-70.9155, 9.1005], [-70.9041, 9.1115], [-70.831, 9.0583], [-70.8025, 9.1116], [-70.8173, 9.1144], [-70.879, 9.1249], [-70.9198, 9.3023], [-70.9739, 9.3492], [-70.9941, 9.3475]]]}}, {"type": "Feature", "properties": {"municipio": "Justo Briceño", "estado": "Mérida", "gid": "VEN.15.11_1"}, "geometry": {"type": "Polygon", "coordinates": [[[-70.9918, 8.7783], [-70.9647, 8.7811], [-70.9081, 8.799], [-70.8947, 8.8075], [-70.863, 8.8523], [-70.8441, 8.8648], [-70.8407, 8.8846], [-70.848, 8.9248], [-70.872, 8.9771], [-70.8921, 8.9949], [-70.8913, 9.012], [-70.8429, 9.0628], [-70.9041, 9.1115], [-70.9155, 9.1005], [-70.9181, 9.1003], [-70.9286, 9.0741], [-70.9286, 9.0173], [-70.954, 9.0451], [-70.9772, 9.1355], [-71.0318, 9.0869], [-71.0329, 9.0722], [-71.0084, 9.0284], [-71.0758, 9.0437], [-71.0471, 9.0007], [-71.0168, 8.9824], [-71.0174, 8.9559], [-71.0069, 8.9208], [-71.0167, 8.8787], [-71.0183, 8.8615], [-70.9915, 8.8255], [-70.9918, 8.7783]]]}}, {"type": "Feature", "properties": {"municipio": "Libertador", "estado": "Mérida", "gid": "VEN.15.12_1"}, "geometry": {"type": "Polygon", "coordinates": [[[-70.8577, 8.3897], [-70.9044, 8.4392], [-70.9185, 8.4839], [-70.9595, 8.5383], [-71.0436, 8.5613], [-71.0642, 8.5736], [-71.0696, 8.6062], [-71.0426, 8.6549], [-71.022, 8.6886], [-71.0046, 8.7048], [-70.9695, 8.7278], [-70.9561, 8.7452], [-70.9474, 8.7606], [-70.9375, 8.7685], [-70.9417, 8.7873], [-70.9647, 8.7811], [-71.0244, 8.7712], [-71.06, 8.7515], [-71.0926, 8.7177], [-71.1603, 8.6902], [-71.1604, 8.6722], [-71.1693, 8.6579], [-71.1996, 8.6458], [-71.2103, 8.6341], [-71.1872, 8.5234], [-71.1897, 8.4677], [-71.1808, 8.4504], [-71.2234, 8.4271], [-71.1721, 8.3512], [-71.1367, 8.3146], [-71.1278, 8.3265], [-71.1171, 8.3496], [-71.0866, 8.3561], [-71.0474, 8.3365], [-70.9686, 8.3032], [-70.9359, 8.2764], [-70.9242, 8.2709], [-70.9054, 8.2652], [-70.8924, 8.283], [-70.8699, 8.3611], [-70.8577, 8.3897]]]}}, {"type": "Feature", "properties": {"municipio": "Miranda", "estado": "Mérida", "gid": "VEN.15.13_1"}, "geometry": {"type": "Polygon", "coordinates": [[[-70.7029, 8.8932], [-70.6945, 8.9164], [-70.6875, 8.9379], [-70.6895, 8.9922], [-70.6735, 9.0229], [-70.6943, 9.0215], [-70.713, 9.0329], [-70.752, 9.0857], [-70.8025, 9.1116], [-70.831, 9.0583], [-70.8429, 9.0628], [-70.8913, 9.012], [-70.8921, 8.9949], [-70.872, 8.9771], [-70.848, 8.9248], [-70.8407, 8.8846], [-70.8441, 8.8648], [-70.8506, 8.86], [-70.7912, 8.8153], [-70.7835, 8.8069], [-70.749, 8.8252], [-70.7112, 8.8701], [-70.7029, 8.8932]]]}}, {"type": "Feature", "properties": {"municipio": "Obispo Ramosde Lora", "estado": "Mérida", "gid": "VEN.15.14_1"}, "geometry": {"type": "Polygon", "coordinates": [[[-71.5154, 8.6872], [-71.4957, 8.7062], [-71.4816, 8.7468], [-71.3992, 8.7527], [-71.3885, 8.7591], [-71.3912, 8.7695], [-71.3284, 8.7712], [-71.3402, 8.7757], [-71.3579, 8.7863], [-71.3689, 8.8035], [-71.3666, 8.868], [-71.3952, 8.928], [-71.4024, 8.9286], [-71.4141, 8.9091], [-71.6136, 8.7525], [-71.5666, 8.7164], [-71.5225, 8.699], [-71.5154, 8.6872]]]}}, {"type": "Feature", "properties": {"municipio": "Padre Noguera", "estado": "Mérida", "gid": "VEN.15.15_1"}, "geometry": {"type": "Polygon", "coordinates": [[[-71.3618, 7.8512], [-71.381, 7.8597], [-71.3971, 7.8498], [-71.4117, 7.8362], [-71.4171, 7.8403], [-71.4204, 7.8664], [-71.429, 7.8798], [-71.4452, 7.8705], [-71.4707, 7.8074], [-71.4834, 7.7949], [-71.4942, 7.7976], [-71.4959, 7.801], [-71.481, 7.8442], [-71.4798, 7.8641], [-71.5178, 7.8731], [-71.5141, 7.6711], [-71.4976, 7.6319], [-71.5003, 7.6213], [-71.4739, 7.6267], [-71.4648, 7.6388], [-71.4619, 7.7163], [-71.4538, 7.7487], [-71.4034, 7.7972], [-71.3754, 7.8376], [-71.3618, 7.8512]]]}}, {"type": "Feature", "properties": {"municipio": "Pueblo Llano", "estado": "Mérida", "gid": "VEN.15.16_1"}, "geometry": {"type": "Polygon", "coordinates": [[[-70.5713, 9.0428], [-70.5999, 9.0682], [-70.6735, 9.0229], [-70.6895, 8.9922], [-70.6875, 8.9379], [-70.6945, 8.9164], [-70.7028, 8.8931], [-70.6951, 8.893], [-70.6779, 8.8802], [-70.6417, 8.8919], [-70.6348, 8.9408], [-70.6065, 8.9987], [-70.5713, 9.0428]]]}}, {"type": "Feature", "properties": {"municipio": "Rangel", "estado": "Mérida", "gid": "VEN.15.17_1"}, "geometry": {"type": "Polygon", "coordinates": [[[-70.8417, 8.5746], [-70.7441, 8.5924], [-70.7048, 8.6142], [-70.704, 8.6457], [-70.7234, 8.6754], [-70.7255, 8.7041], [-70.7176, 8.7154], [-70.7346, 8.7533], [-70.7483, 8.7508], [-70.7627, 8.7344], [-70.7723, 8.7395], [-70.7732, 8.7919], [-70.7912, 8.8153], [-70.8506, 8.86], [-70.863, 8.8523], [-70.8947, 8.8075], [-70.9081, 8.799], [-70.9417, 8.7873], [-70.9375, 8.7685], [-70.9474, 8.7606], [-70.9634, 8.7351], [-70.9743, 8.7237], [-71.023, 8.6869], [-70.9969, 8.6805], [-70.9946, 8.6249], [-70.9822, 8.5989], [-70.9562, 8.5954], [-70.9037, 8.6091], [-70.8893, 8.5933], [-70.8942, 8.5751], [-70.888, 8.5602], [-70.872, 8.5539], [-70.8564, 8.5539], [-70.8505, 8.5666], [-70.8417, 8.5746]]]}}, {"type": "Feature", "properties": {"municipio": "Rivas Davila", "estado": "Mérida", "gid": "VEN.15.18_1"}, "geometry": {"type": "Polygon", "coordinates": [[[-71.7644, 8.2449], [-71.7719, 8.2517], [-71.7822, 8.2734], [-71.7991, 8.2952], [-71.8282, 8.3018], [-71.8472, 8.2681], [-71.9, 8.2073], [-71.8985, 8.1774], [-71.8904, 8.1653], [-71.8723, 8.1525], [-71.8401, 8.1435], [-71.8331, 8.1494], [-71.8231, 8.1625], [-71.8161, 8.1756], [-71.8028, 8.2157], [-71.7899, 8.2279], [-71.7644, 8.2449]]]}}, {"type": "Feature", "properties": {"municipio": "Santos Marquina", "estado": "Mérida", "gid": "VEN.15.19_1"}, "geometry": {"type": "Polygon", "coordinates": [[[-70.8564, 8.5539], [-70.872, 8.5539], [-70.888, 8.5602], [-70.8942, 8.5751], [-70.8893, 8.5933], [-70.9037, 8.6091], [-70.9562, 8.5954], [-70.9822, 8.5989], [-70.9946, 8.6249], [-70.9969, 8.6805], [-71.023, 8.6869], [-71.0426, 8.6549], [-71.0696, 8.6062], [-71.0642, 8.5736], [-71.0436, 8.5613], [-70.9595, 8.5383], [-70.9185, 8.4839], [-70.9044, 8.4392], [-70.8577, 8.3897], [-70.8543, 8.4168], [-70.8517, 8.4918], [-70.8564, 8.5539]]]}}, {"type": "Feature", "properties": {"municipio": "Sucre", "estado": "Mérida", "gid": "VEN.15.20_1"}, "geometry": {"type": "Polygon", "coordinates": [[[-71.5612, 8.4903], [-71.5645, 8.4329], [-71.537, 8.3766], [-71.5448, 8.3535], [-71.5717, 8.3197], [-71.5581, 8.2374], [-71.5414, 8.2375], [-71.4914, 8.2156], [-71.4495, 8.241], [-71.4246, 8.274], [-71.4005, 8.272], [-71.3855, 8.2543], [-71.3708, 8.2537], [-71.3531, 8.2666], [-71.3493, 8.288], [-71.3571, 8.3021], [-71.3606, 8.3135], [-71.3545, 8.3573], [-71.3802, 8.4201], [-71.3753, 8.4534], [-71.3843, 8.4984], [-71.3834, 8.5258], [-71.3697, 8.5483], [-71.3979, 8.5918], [-71.4159, 8.5987], [-71.4993, 8.5856], [-71.5685, 8.5887], [-71.5581, 8.5635], [-71.5377, 8.5301], [-71.5744, 8.5444], [-71.5612, 8.4903]]]}}, {"type": "Feature", "properties": {"municipio": "Tovar", "estado": "Mérida", "gid": "VEN.15.21_1"}, "geometry": {"type": "Polygon", "coordinates": [[[-71.7448, 8.4081], [-71.7486, 8.4031], [-71.7733, 8.3412], [-71.8257, 8.3104], [-71.8282, 8.3018], [-71.7991, 8.2952], [-71.7822, 8.2734], [-71.7745, 8.2556], [-71.7678, 8.2469], [-71.7603, 8.2424], [-71.7506, 8.2391], [-71.7165, 8.2375], [-71.7017, 8.2601], [-71.6785, 8.2711], [-71.6812, 8.3043], [-71.6754, 8.3199], [-71.6789, 8.3504], [-71.6941, 8.3673], [-71.7156, 8.3742], [-71.7217, 8.4046], [-71.7448, 8.4081]]]}}, {"type": "Feature", "properties": {"municipio": "Tulio Febres Cordero", "estado": "Mérida", "gid": "VEN.15.22_1"}, "geometry": {"type": "Polygon", "coordinates": [[[-71.0178, 8.8667], [-71.0167, 8.8787], [-71.0069, 8.9208], [-71.0174, 8.9559], [-71.0168, 8.9824], [-71.0471, 9.0007], [-71.0758, 9.0437], [-71.0084, 9.0284], [-71.0329, 9.0722], [-71.0318, 9.0869], [-70.9772, 9.1355], [-70.954, 9.0451], [-70.9286, 9.0173], [-70.9286, 9.0741], [-70.9181, 9.1003], [-70.9251, 9.1026], [-70.9459, 9.1309], [-70.9654, 9.1883], [-70.9904, 9.1996], [-70.9895, 9.1857], [-70.9908, 9.1732], [-71.0129, 9.1532], [-71.051, 9.1491], [-71.1206, 9.1736], [-71.1935, 9.2254], [-71.2071, 9.2201], [-71.2054, 9.2104], [-71.2174, 9.1976], [-71.2224, 9.1765], [-71.2144, 9.1729], [-71.1412, 9.1142], [-71.1486, 9.0291], [-71.1738, 8.9945], [-71.1886, 8.9882], [-71.1941, 8.993], [-71.1988, 8.9769], [-71.1962, 8.9506], [-71.1638, 8.9133], [-71.147, 8.859], [-71.1111, 8.8585], [-71.0911, 8.869], [-71.0785, 8.8716], [-71.0533, 8.8719], [-71.0178, 8.8667]]]}}, {"type": "Feature", "properties": {"municipio": "Zea", "estado": "Mérida", "gid": "VEN.15.23_1"}, "geometry": {"type": "Polygon", "coordinates": [[[-71.7842, 8.5476], [-71.768, 8.5114], [-71.7644, 8.4756], [-71.792, 8.4342], [-71.8003, 8.397], [-71.8201, 8.3573], [-71.8257, 8.3104], [-71.7733, 8.3412], [-71.7486, 8.4031], [-71.7424, 8.4113], [-71.7217, 8.4236], [-71.7194, 8.4628], [-71.7221, 8.4684], [-71.74, 8.4895], [-71.7454, 8.4988], [-71.7652, 8.545], [-71.7842, 8.5476]]]}}]}