{"type": "FeatureCollection", "features": [{"type": "Feature", "properties": {"municipio": "Acevedo", "estado": "Miranda", "gid": "VEN.16.1_1"}, "geometry": {"type": "Polygon", "coordinates": [[[-66.0722, 9.976], [-66.0869, 10.009], [-66.1305, 10.0377], [-66.1241, 10.0626], [-66.1439, 10.0734], [-66.1493, 10.0845], [-66.1107, 10.1217], [-66.0827, 10.127], [-66.0622, 10.1453], [-66.0589, 10.1627], [-66.0692, 10.1792], [-66.0701, 10.2037], [-66.0863, 10.2216], [-66.0966, 10.2422], [-66.1709, 10.2968], [-66.2275, 10.341], [-66.232, 10.3668], [-66.2287, 10.4069], [-66.2221, 10.418], [-66.2073, 10.4247], [-66.2077, 10.4417], [-66.2506, 10.4657], [-66.2788, 10.4674], [-66.2833, 10.5054], [-66.308, 10.5229], [-66.3489, 10.5355], [-66.3505, 10.5348], [-66.3511, 10.523], [-66.3548, 10.5133], [-66.3636, 10.5089], [-66.3687, 10.469], [-66.4036, 10.455], [-66.4079, 10.4087], [-66.4181, 10.3883], [-66.4394, 10.385], [-66.4617, 10.3986], [-66.4871, 10.3416], [-66.5192, 10.3531], [-66.5, 10.3032], [-66.5167, 10.2558], [-66.5071, 10.2531], [-66.5045, 10.2434], [-66.5046, 10.1818], [-66.5135, 10.1388], [-66.5333, 10.1132], [-66.5386, 10.0847], [-66.5343, 10.067], [-66.4937, 10.0488], [-66.4514, 10.0371], [-66.4313, 10.0489], [-66.4017, 10.0594], [-66.359, 10.0529], [-66.3385, 10.0412], [-66.2988, 10.0001], [-66.2286, 9.9853], [-66.135, 9.9652], [-66.0844, 9.9707], [-66.0722, 9.976]]]}}, {"type": "Feature", "properties": {"municipio": "Andrés Bello", "estado": "Miranda", "gid": "VEN.16.2_1"}, "geometry": {"type": "Polygon", "coordinates": [[[-66.0716, 10.2057], [-66.0087, 10.2279], [-65.9888, 10.2464], [-65.9838, 10.294], [-65.991, 10.3801], [-66.0103, 10.3809], [-66.0247, 10.3536], [-66.0493, 10.3513], [-66.0634, 10.3362], [-66.0646, 10.3182], [-66.0386, 10.2966], [-66.041, 10.2728], [-66.1015, 10.2468], [-66.0966, 10.2422], [-66.0863, 10.2216], [-66.0716, 10.2057]]]}}, {"type": "Feature", "properties": {"municipio": "Baruta", "estado": "Miranda", "gid": "VEN.16.3_1"}, "geometry": {"type": "Polygon", "coordinates": [[[-66.8898, 10.4323], [-66.8815, 10.4226], [-66.8772, 10.3943], [-66.863, 10.3896], [-66.8619, 10.3768], [-66.8341, 10.3646], [-66.8276, 10.3549], [-66.8186, 10.3486], [-66.747, 10.3649], [-66.7256, 10.3817], [-66.8156, 10.3883], [-66.8275, 10.4112], [-66.8305, 10.427], [-66.8059, 10.4595], [-66.7919, 10.467], [-66.7924, 10.4801], [-66.8007, 10.4878], [-66.8522, 10.4867], [-66.8578, 10.4688], [-66.8863, 10.4332], [-66.8898, 10.4323]]]}}, {"type": "Feature", "properties": {"municipio": "Brión", "estado": "Miranda", "gid": "VEN.16.4_1"}, "geometry": {"type": "Polygon", "coordinates": [[[-66.2305, 10.3916], [-66.1796, 10.3904], [-66.1372, 10.3923], [-66.1086, 10.4017], [-66.0881, 10.3945], [-66.0666, 10.4018], [-66.0439, 10.3996], [-66.0194, 10.3825], [-65.991, 10.3801], [-65.9799, 10.3874], [-66.0563, 10.4362], [-66.1137, 10.5079], [-66.116, 10.5254], [-66.1082, 10.531], [-66.1251, 10.5379], [-66.111, 10.5437], [-66.0996, 10.5307], [-66.094, 10.5426], [-66.0896, 10.5346], [-66.0801, 10.5454], [-66.064, 10.5482], [-66.0457, 10.5688], [-66.0582, 10.5863], [-66.0646, 10.5885], [-66.061, 10.5793], [-66.0679, 10.5746], [-66.0768, 10.576], [-66.124, 10.6004], [-66.174, 10.609], [-66.2363, 10.6493], [-66.2996, 10.6404], [-66.3154, 10.6174], [-66.3418, 10.6096], [-66.3381, 10.6038], [-66.359, 10.5674], [-66.3488, 10.563], [-66.3489, 10.5355], [-66.308, 10.5229], [-66.2833, 10.5054], [-66.2788, 10.4674], [-66.2506, 10.4657], [-66.2077, 10.4417], [-66.2073, 10.4247], [-66.2221, 10.418], [-66.2287, 10.4069], [-66.2305, 10.3916]]]}}, {"type": "Feature", "properties": {"municipio": "Buroz", "estado": "Miranda", "gid": "VEN.16.5_1"}, "geometry": {"type": "Polygon", "coordinates": [[[-66.1015, 10.2468], [-66.041, 10.2728], [-66.0386, 10.2966], [-66.0646, 10.3182], [-66.0634, 10.3362], [-66.0493, 10.3513], [-66.0247, 10.3536], [-66.0103, 10.3809], [-66.0194, 10.3825], [-66.0439, 10.3996], [-66.0666, 10.4018], [-66.0881, 10.3945], [-66.1086, 10.4017], [-66.1372, 10.3923], [-66.1796, 10.3904], [-66.2305, 10.3916], [-66.232, 10.3668], [-66.2275, 10.341], [-66.1709, 10.2968], [-66.1015, 10.2468]]]}}, {"type": "Feature", "properties": {"municipio": "Carrizal", "estado": "Miranda", "gid": "VEN.16.6_1"}, "geometry": {"type": "Polygon", "coordinates": [[[-66.9876, 10.404], [-66.9807, 10.3188], [-66.9382, 10.3186], [-66.9418, 10.3695], [-66.9454, 10.3713], [-66.9557, 10.3908], [-66.9671, 10.408], [-66.9876, 10.404]]]}}, {"type": "Feature", "properties": {"municipio": "Chacao", "estado": "Miranda", "gid": "VEN.16.7_1"}, "geometry": {"type": "Polygon", "coordinates": [[[-66.8522, 10.4867], [-66.8229, 10.4875], [-66.826, 10.5549], [-66.8423, 10.5467], [-66.8484, 10.5388], [-66.8517, 10.529], [-66.8522, 10.4867]]]}}, {"type": "Feature", "properties": {"municipio": "Cristóbal Rojas", "estado": "Miranda", "gid": "VEN.16.8_1"}, "geometry": {"type": "Polygon", "coordinates": [[[-66.88, 10.2621], [-66.8693, 10.224], [-66.8354, 10.21], [-66.8174, 10.1891], [-66.8119, 10.1867], [-66.8119, 10.2056], [-66.8019, 10.2296], [-66.79, 10.2524], [-66.7774, 10.2675], [-66.7624, 10.2797], [-66.7871, 10.3343], [-66.8186, 10.3486], [-66.8483, 10.337], [-66.8718, 10.2754], [-66.88, 10.2621]]]}}, {"type": "Feature", "properties": {"municipio": "El Hatillo", "estado": "Miranda", "gid": "VEN.16.9_1"}, "geometry": {"type": "Polygon", "coordinates": [[[-66.7256, 10.3817], [-66.7104, 10.3839], [-66.698, 10.3986], [-66.6964, 10.4078], [-66.723, 10.4168], [-66.7674, 10.4619], [-66.8, 10.4614], [-66.8059, 10.4595], [-66.8305, 10.427], [-66.8275, 10.4112], [-66.8156, 10.3883], [-66.7256, 10.3817]]]}}, {"type": "Feature", "properties": {"municipio": "Guaicaipuro", "estado": "Miranda", "gid": "VEN.16.10_1"}, "geometry": {"type": "Polygon", "coordinates": [[[-67.1341, 10.3297], [-67.1269, 10.3125], [-67.0797, 10.2765], [-67.0732, 10.2635], [-67.0942, 10.1808], [-67.0821, 10.1539], [-67.0626, 10.1074], [-67.0508, 10.1019], [-66.9885, 10.0968], [-66.9714, 10.0948], [-66.9628, 10.0914], [-66.9713, 10.1024], [-66.985, 10.1162], [-66.9887, 10.1233], [-66.9876, 10.1403], [-66.9787, 10.1568], [-66.9416, 10.1762], [-66.9335, 10.2036], [-66.938, 10.2373], [-66.8976, 10.2479], [-66.8718, 10.2754], [-66.8483, 10.337], [-66.8186, 10.3486], [-66.8276, 10.3549], [-66.8307, 10.3611], [-66.8393, 10.3679], [-66.8476, 10.3701], [-66.8672, 10.3801], [-66.9119, 10.3907], [-66.933, 10.3661], [-66.9418, 10.3695], [-66.9382, 10.3186], [-66.9807, 10.3188], [-66.9876, 10.404], [-67.0034, 10.4043], [-67.0597, 10.4175], [-67.1166, 10.4429], [-67.1388, 10.4457], [-67.1717, 10.4187], [-67.157, 10.4006], [-67.1392, 10.3625], [-67.1341, 10.3297]]]}}, {"type": "Feature", "properties": {"municipio": "Independencia", "estado": "Miranda", "gid": "VEN.16.11_1"}, "geometry": {"type": "Polygon", "coordinates": [[[-66.5167, 10.2558], [-66.5199, 10.2484], [-66.5352, 10.2348], [-66.5546, 10.2355], [-66.5631, 10.2565], [-66.6025, 10.2602], [-66.6263, 10.2884], [-66.6904, 10.2883], [-66.7238, 10.2748], [-66.7624, 10.2797], [-66.7372, 10.2541], [-66.6919, 10.2441], [-66.6787, 10.2242], [-66.6551, 10.2259], [-66.6482, 10.1767], [-66.6352, 10.1441], [-66.6376, 10.1066], [-66.5968, 10.1142], [-66.5731, 10.0947], [-66.5386, 10.0847], [-66.5333, 10.1132], [-66.5135, 10.1388], [-66.5046, 10.1818], [-66.5045, 10.2434], [-66.5071, 10.2531], [-66.5167, 10.2558]]]}}, {"type": "Feature", "properties": {"municipio": "Lander", "estado": "Miranda", "gid": "VEN.16.12_1"}, "geometry": {"type": "Polygon", "coordinates": [[[-66.6914, 9.9991], [-66.6761, 9.9874], [-66.6356, 9.9905], [-66.6291, 9.9847], [-66.6258, 9.9792], [-66.5485, 9.983], [-66.5037, 10], [-66.4788, 10.0158], [-66.4514, 10.0371], [-66.4937, 10.0488], [-66.5343, 10.067], [-66.5386, 10.0847], [-66.5731, 10.0947], [-66.5968, 10.1142], [-66.6376, 10.1066], [-66.6378, 10.1126], [-66.6694, 10.1089], [-66.6786, 10.1168], [-66.6889, 10.1494], [-66.7369, 10.1818], [-66.8005, 10.2324], [-66.8119, 10.2056], [-66.8121, 10.1837], [-66.8224, 10.1603], [-66.8294, 10.1147], [-66.8222, 10.0687], [-66.8414, 10.0389], [-66.8125, 10.0429], [-66.7651, 10.0396], [-66.7168, 10.0162], [-66.703, 10.0114], [-66.6914, 9.9991]]]}}, {"type": "Feature", "properties": {"municipio": "Los Salias", "estado": "Miranda", "gid": "VEN.16.13_1"}, "geometry": {"type": "Polygon", "coordinates": [[[-66.9671, 10.408], [-66.9557, 10.3908], [-66.9454, 10.3713], [-66.933, 10.3661], [-66.9119, 10.3907], [-66.8672, 10.3801], [-66.8619, 10.3768], [-66.863, 10.3896], [-66.8772, 10.3943], [-66.8815, 10.4226], [-66.8898, 10.4323], [-66.9246, 10.4241], [-66.9671, 10.408]]]}}, {"type": "Feature", "properties": {"municipio": "Páez", "estado": "Miranda", "gid": "VEN.16.14_1"}, "geometry": {"type": "Polygon", "coordinates": [[[-65.9218, 9.9745], [-65.861, 9.974], [-65.8666, 9.9874], [-65.8643, 10.0552], [-65.8188, 10.1023], [-65.8199, 10.1271], [-65.8342, 10.1653], [-65.8339, 10.1993], [-65.6312, 10.2007], [-65.8468, 10.2899], [-65.9171, 10.3329], [-65.9799, 10.3874], [-65.991, 10.3801], [-65.9838, 10.294], [-65.9888, 10.2464], [-66.0087, 10.2279], [-66.0716, 10.2057], [-66.0701, 10.2037], [-66.0692, 10.1792], [-66.0589, 10.1627], [-66.0622, 10.1453], [-66.0827, 10.127], [-66.1107, 10.1217], [-66.1493, 10.0845], [-66.1439, 10.0734], [-66.1241, 10.0626], [-66.1305, 10.0377], [-66.0869, 10.009], [-66.0722, 9.976], [-66.0437, 9.9858], [-65.9218, 9.9745]]]}}, {"type": "Feature", "properties": {"municipio": "Paz Castillo", "estado": "Miranda", "gid": "VEN.16.15_1"}, "geometry": {"type": "Polygon", "coordinates": [[[-66.5192, 10.3531], [-66.5288, 10.3882], [-66.5808, 10.4259], [-66.5893, 10.4245], [-66.6701, 10.4179], [-66.696, 10.406], [-66.698, 10.3986], [-66.7104, 10.3839], [-66.7256, 10.3817], [-66.747, 10.3649], [-66.8186, 10.3486], [-66.7871, 10.3343], [-66.7624, 10.2797], [-66.7238, 10.2748], [-66.6904, 10.2883], [-66.6263, 10.2884], [-66.6025, 10.2602], [-66.5631, 10.2565], [-66.5546, 10.2355], [-66.5352, 10.2348], [-66.5199, 10.2484], [-66.5, 10.3032], [-66.5192, 10.3531]]]}}, {"type": "Feature", "properties": {"municipio": "Pedro Gual", "estado": "Miranda", "gid": "VEN.16.16_1"}, "geometry": {"type": "Polygon", "coordinates": [[[-65.4742, 10.0601], [-65.401, 10.1127], [-65.3885, 10.1301], [-65.496, 10.1557], [-65.631, 10.2004], [-65.8339, 10.1993], [-65.8342, 10.1653], [-65.8199, 10.1271], [-65.8188, 10.1023], [-65.8643, 10.0552], [-65.8666, 9.9874], [-65.861, 9.974], [-65.7732, 9.9729], [-65.7266, 9.9679], [-65.672, 9.9712], [-65.6465, 9.9753], [-65.6099, 9.9854], [-65.565, 10.0083], [-65.5071, 10.0324], [-65.4742, 10.0601]]]}}, {"type": "Feature", "properties": {"municipio": "Plaza", "estado": "Miranda", "gid": "VEN.16.17_1"}, "geometry": {"type": "Polygon", "coordinates": [[[-66.5808, 10.4259], [-66.5631, 10.4808], [-66.5663, 10.4943], [-66.5959, 10.5312], [-66.5964, 10.5686], [-66.6803, 10.5604], [-66.6984, 10.5546], [-66.7104, 10.5094], [-66.6993, 10.4918], [-66.7025, 10.4572], [-66.6878, 10.4375], [-66.6816, 10.4125], [-66.6701, 10.4179], [-66.5893, 10.4245], [-66.5808, 10.4259]]]}}, {"type": "Feature", "properties": {"municipio": "Simón Bolívar", "estado": "Miranda", "gid": "VEN.16.18_1"}, "geometry": {"type": "Polygon", "coordinates": [[[-66.8005, 10.2324], [-66.7369, 10.1818], [-66.6889, 10.1494], [-66.6786, 10.1168], [-66.6694, 10.1089], [-66.6378, 10.1126], [-66.6352, 10.1441], [-66.6482, 10.1767], [-66.6551, 10.2259], [-66.6787, 10.2242], [-66.6919, 10.2441], [-66.7372, 10.2541], [-66.7624, 10.2797], [-66.7774, 10.2675], [-66.7861, 10.2583], [-66.8005, 10.2324]]]}}, {"type": "Feature", "properties": {"municipio": "Sucre", "estado": "Miranda", "gid": "VEN.16.19_1"}, "geometry": {"type": "Polygon", "coordinates": [[[-66.8, 10.4614], [-66.7674, 10.4619], [-66.723, 10.4168], [-66.6964, 10.4078], [-66.696, 10.406], [-66.6816, 10.4125], [-66.6878, 10.4375], [-66.7025, 10.4572], [-66.6993, 10.4918], [-66.7104, 10.5094], [-66.6984, 10.5546], [-66.7163, 10.5547], [-66.8144, 10.5579], [-66.826, 10.5549], [-66.8229, 10.4875], [-66.8007, 10.4878], [-66.7924, 10.4801], [-66.7919, 10.467], [-66.8, 10.4614]]]}}, {"type": "Feature", "properties": {"municipio": "Urdaneta", "estado": "Miranda", "gid": "VEN.16.20_1"}, "geometry": {"type": "Polygon", "coordinates": [[[-66.8414, 10.0389], [-66.8222, 10.0687], [-66.8294, 10.1147], [-66.8224, 10.1603], [-66.8149, 10.1751], [-66.8119, 10.1867], [-66.8174, 10.1891], [-66.8354, 10.21], [-66.8693, 10.224], [-66.88, 10.2621], [-66.8976, 10.2479], [-66.938, 10.2373], [-66.9335, 10.2036], [-66.9416, 10.1762], [-66.9787, 10.1568], [-66.9876, 10.1403], [-66.9887, 10.1233], [-66.985, 10.1162], [-66.9713, 10.1024], [-66.9628, 10.0914], [-66.9573, 10.0893], [-66.9118, 10.043], [-66.877, 10.0321], [-66.8414, 10.0389]]]}}, {"type": "Feature", "properties": {"municipio": "Zamora", "estado": "Miranda", "gid": "VEN.16.21_1"}, "geometry": {"type": "Polygon", "coordinates": [[[-66.3505, 10.5348], [-66.3813, 10.5352], [-66.4677, 10.5457], [-66.5288, 10.5633], [-66.5964, 10.5686], [-66.5959, 10.5312], [-66.5663, 10.4943], [-66.5631, 10.4808], [-66.5808, 10.4259], [-66.5288, 10.3882], [-66.5192, 10.3531], [-66.4871, 10.3416], [-66.4617, 10.3986], [-66.4394, 10.385], [-66.4181, 10.3883], [-66.4079, 10.4087], [-66.4036, 10.455], [-66.3687, 10.469], [-66.3636, 10.5089], [-66.3548, 10.5133], [-66.3511, 10.523], [-66.3505, 10.5348]]]}}]}