{"type": "FeatureCollection", "features": [{"type": "Feature", "properties": {"municipio": "Acosta", "estado": "Monagas", "gid": "VEN.17.1_1"}, "geometry": {"type": "Polygon", "coordinates": [[[-63.9603, 10.0393], [-63.9396, 10.0452], [-63.8934, 9.9997], [-63.8461, 10.0134], [-63.8046, 10.0019], [-63.7368, 10.0228], [-63.7135, 10.0086], [-63.6976, 10.0109], [-63.634, 10.0574], [-63.6262, 10.0589], [-63.6143, 10.0746], [-63.602, 10.1185], [-63.5949, 10.1259], [-63.6033, 10.1322], [-63.6321, 10.1162], [-63.6328, 10.1299], [-63.6122, 10.1634], [-63.5875, 10.197], [-63.603, 10.2132], [-63.6074, 10.2321], [-63.6596, 10.2152], [-63.7636, 10.1963], [-63.8041, 10.1423], [-63.8448, 10.0997], [-63.9434, 10.0724], [-63.9603, 10.0393]]]}}, {"type": "Feature", "properties": {"municipio": "Aguasay", "estado": "Monagas", "gid": "VEN.17.2_1"}, "geometry": {"type": "Polygon", "coordinates": [[[-63.3997, 8.9951], [-63.4318, 9.1818], [-63.5427, 9.5056], [-63.5628, 9.4922], [-63.6396, 9.5001], [-63.6534, 9.4977], [-63.7171, 9.5195], [-63.7675, 9.5199], [-63.8339, 9.5435], [-63.9393, 9.4493], [-63.9686, 9.4191], [-63.9754, 9.4057], [-63.9768, 9.3989], [-63.9773, 9.3721], [-63.9861, 9.3029], [-63.9757, 9.2759], [-63.94, 9.2411], [-63.9284, 9.2053], [-63.9145, 9.1919], [-63.889, 9.1909], [-63.8056, 9.2093], [-63.7214, 9.2075], [-63.6964, 9.2009], [-63.6516, 9.1777], [-63.6139, 9.1723], [-63.6045, 9.1621], [-63.5949, 9.1267], [-63.5348, 9.0959], [-63.4696, 9.0419], [-63.4229, 9.0181], [-63.4011, 8.9985], [-63.3997, 8.9951]]]}}, {"type": "Feature", "properties": {"municipio": "Bolívar", "estado": "Monagas", "gid": "VEN.17.3_1"}, "geometry": {"type": "Polygon", "coordinates": [[[-63.2305, 10.1498], [-63.2231, 10.1494], [-63.2195, 10.1277], [-63.1815, 10.1074], [-63.1533, 10.0782], [-63.1511, 10.0692], [-63.1626, 10.0507], [-63.1478, 10.0409], [-63.0989, 10.0686], [-63.0399, 10.0692], [-63.0273, 10.0995], [-62.9885, 10.1315], [-63.0386, 10.1725], [-63.053, 10.2253], [-63.0837, 10.2207], [-63.098, 10.2275], [-63.1012, 10.2332], [-63.1498, 10.2379], [-63.1732, 10.2332], [-63.1954, 10.2245], [-63.1931, 10.1991], [-63.1966, 10.1906], [-63.2305, 10.1498]]]}}, {"type": "Feature", "properties": {"municipio": "Caripe", "estado": "Monagas", "gid": "VEN.17.4_1"}, "geometry": {"type": "Polygon", "coordinates": [[[-63.5949, 10.1259], [-63.5877, 10.1282], [-63.5432, 10.1072], [-63.471, 10.1356], [-63.4616, 10.126], [-63.4634, 10.1007], [-63.4576, 10.0917], [-63.4095, 10.097], [-63.3704, 10.0755], [-63.3479, 10.0798], [-63.3269, 10.0704], [-63.2897, 10.0721], [-63.2574, 10.0845], [-63.2574, 10.1126], [-63.2305, 10.1498], [-63.1966, 10.1906], [-63.1931, 10.1991], [-63.1954, 10.2245], [-63.2104, 10.2175], [-63.2454, 10.2201], [-63.3577, 10.2722], [-63.4059, 10.3007], [-63.4297, 10.3078], [-63.4494, 10.3117], [-63.4963, 10.305], [-63.5747, 10.2515], [-63.6074, 10.2321], [-63.603, 10.2132], [-63.5875, 10.197], [-63.6122, 10.1634], [-63.6328, 10.1299], [-63.6321, 10.1162], [-63.6033, 10.1322], [-63.5949, 10.1259]]]}}, {"type": "Feature", "properties": {"municipio": "Cedeño", "estado": "Monagas", "gid": "VEN.17.5_1"}, "geometry": {"type": "Polygon", "coordinates": [[[-63.8339, 9.5435], [-63.7111, 9.6985], [-63.7067, 9.7024], [-63.6906, 9.6895], [-63.6823, 9.7436], [-63.5986, 9.7398], [-63.5786, 9.7267], [-63.5497, 9.683], [-63.4541, 9.7197], [-63.456, 9.7201], [-63.4971, 9.8699], [-63.5473, 9.9231], [-63.5624, 9.9366], [-63.57, 9.9939], [-63.589, 10.0142], [-63.6094, 10.0224], [-63.6206, 10.0569], [-63.634, 10.0574], [-63.6976, 10.0109], [-63.7135, 10.0086], [-63.7368, 10.0228], [-63.8046, 10.0019], [-63.8461, 10.0134], [-63.8934, 9.9997], [-63.9396, 10.0452], [-63.9603, 10.0393], [-63.9733, 10.0251], [-63.9839, 10.017], [-64.0437, 10.0064], [-64.0565, 9.9901], [-64.0564, 9.9426], [-64.0437, 9.9153], [-64.029, 9.8995], [-64.0103, 9.8961], [-63.9814, 9.8999], [-63.975, 9.8863], [-63.9554, 9.877], [-63.9266, 9.8463], [-63.946, 9.8064], [-63.9544, 9.7517], [-63.9518, 9.6986], [-63.8339, 9.5435]]]}}, {"type": "Feature", "properties": {"municipio": "Ezequiel Zamora", "estado": "Monagas", "gid": "VEN.17.6_1"}, "geometry": {"type": "Polygon", "coordinates": [[[-63.6396, 9.5001], [-63.6345, 9.6562], [-63.5383, 9.6409], [-63.5249, 9.6452], [-63.5241, 9.6612], [-63.5436, 9.6751], [-63.5786, 9.7267], [-63.5986, 9.7398], [-63.6823, 9.7436], [-63.6906, 9.6895], [-63.7067, 9.7024], [-63.7111, 9.6985], [-63.8339, 9.5435], [-63.7675, 9.5199], [-63.7171, 9.5195], [-63.6534, 9.4977], [-63.6396, 9.5001]]]}}, {"type": "Feature", "properties": {"municipio": "Libertador", "estado": "Monagas", "gid": "VEN.17.7_1"}, "geometry": {"type": "Polygon", "coordinates": [[[-62.6852, 8.3917], [-62.616, 8.6959], [-62.6098, 8.7167], [-62.5958, 8.7788], [-62.5977, 8.8319], [-62.5903, 8.8535], [-62.5503, 8.8702], [-62.5359, 8.8998], [-62.5073, 8.9219], [-62.4762, 8.9274], [-62.4535, 8.9415], [-62.4235, 8.9353], [-62.3785, 8.9398], [-62.3683, 8.9636], [-62.338, 8.969], [-62.3193, 8.9909], [-62.3169, 9.0133], [-62.297, 9.026], [-62.2935, 9.0931], [-62.2754, 9.1001], [-62.2762, 9.1067], [-62.2818, 9.1125], [-62.3006, 9.105], [-62.3226, 9.1035], [-62.3326, 9.1138], [-62.3434, 9.1342], [-62.3449, 9.1905], [-62.3395, 9.1988], [-62.3232, 9.2161], [-62.3442, 9.2402], [-62.3474, 9.2761], [-62.365, 9.2983], [-62.3541, 9.3247], [-62.3728, 9.3555], [-62.3932, 9.3533], [-62.4039, 9.369], [-62.4156, 9.3795], [-62.4192, 9.3867], [-62.4236, 9.356], [-62.4266, 9.3597], [-62.4649, 9.3029], [-62.4579, 9.2631], [-62.5085, 9.2357], [-62.521, 9.2003], [-62.5486, 9.1795], [-62.5464, 9.1421], [-62.5589, 9.1189], [-62.6194, 9.1163], [-62.654, 9.1441], [-62.6747, 9.1753], [-62.7016, 9.1753], [-62.7476, 9.1909], [-62.7624, 9.1873], [-62.7958, 9.1555], [-62.7955, 9.1015], [-62.8103, 9.0637], [-62.7917, 9.0153], [-62.7889, 8.9835], [-62.7998, 8.9311], [-62.8137, 8.9057], [-62.8284, 8.8459], [-62.8343, 8.8347], [-62.8557, 8.8179], [-62.9012, 8.7715], [-62.9417, 8.7507], [-62.9482, 8.7175], [-62.9624, 8.6988], [-62.9768, 8.6929], [-63.0077, 8.6949], [-63.0325, 8.6855], [-63.065, 8.6499], [-63.0582, 8.6247], [-63.0318, 8.5435], [-63.0052, 8.5097], [-62.9764, 8.4947], [-62.9468, 8.4843], [-62.8586, 8.4601], [-62.7406, 8.4225], [-62.699, 8.4089], [-62.6911, 8.4021], [-62.6852, 8.3917]]]}}, {"type": "Feature", "properties": {"municipio": "Maturín", "estado": "Monagas", "gid": "VEN.17.8_1"}, "geometry": {"type": "MultiPolygon", "coordinates": [[[[-63.3997, 8.9951], [-63.3705, 8.9265], [-63.2947, 8.7521], [-63.2924, 8.7411], [-62.946, 8.7287], [-62.9417, 8.7507], [-62.9012, 8.7715], [-62.8557, 8.8179], [-62.8343, 8.8347], [-62.8284, 8.8459], [-62.8137, 8.9057], [-62.7998, 8.9311], [-62.7889, 8.9835], [-62.7917, 9.0153], [-62.8103, 9.0637], [-62.7955, 9.1015], [-62.7958, 9.1555], [-62.7624, 9.1873], [-62.7476, 9.1909], [-62.7016, 9.1753], [-62.6747, 9.1753], [-62.654, 9.1441], [-62.6194, 9.1163], [-62.5589, 9.1189], [-62.5464, 9.1421], [-62.5486, 9.1795], [-62.521, 9.2003], [-62.5085, 9.2357], [-62.4579, 9.2631], [-62.4649, 9.3029], [-62.4266, 9.3597], [-62.4236, 9.356], [-62.4192, 9.3868], [-62.4256, 9.3997], [-62.4416, 9.4139], [-62.4317, 9.4365], [-62.4275, 9.4408], [-62.4483, 9.4558], [-62.4605, 9.4837], [-62.4619, 9.5179], [-62.4575, 9.5407], [-62.3825, 9.6398], [-62.3637, 9.6997], [-62.3356, 9.7546], [-62.3521, 9.8853], [-62.3674, 9.8837], [-62.3851, 9.8957], [-62.4196, 9.9318], [-62.444, 9.9288], [-62.4157, 9.9679], [-62.4287, 9.9871], [-62.4349, 10.0282], [-62.4582, 10.0546], [-62.4671, 10.0549], [-62.461, 10.0596], [-62.4621, 10.0737], [-62.4815, 10.1368], [-62.5101, 10.1904], [-62.5393, 10.2124], [-62.5943, 10.2335], [-62.6646, 10.2326], [-62.6488, 10.2067], [-62.6263, 10.1897], [-62.6124, 10.1515], [-62.6141, 10.1363], [-62.6359, 10.1101], [-62.6797, 10.0933], [-62.71, 10.0911], [-62.7398, 10.1085], [-62.7713, 10.1097], [-62.7893, 10.0693], [-62.8049, 10.0707], [-62.8314, 10.1087], [-62.8705, 10.0917], [-62.8906, 10.1257], [-62.9009, 10.1311], [-62.9245, 10.1245], [-62.9456, 10.1057], [-63.0833, 9.897], [-63.0985, 9.8847], [-63.1275, 9.9001], [-63.1656, 9.9125], [-63.1958, 9.9053], [-63.2289, 9.8727], [-63.2652, 9.8553], [-63.3016, 9.8567], [-63.3326, 9.8688], [-63.3396, 9.8622], [-63.329, 9.8029], [-63.3893, 9.8137], [-63.4433, 9.8049], [-63.4745, 9.8329], [-63.4857, 9.8309], [-63.456, 9.7201], [-63.4541, 9.7197], [-63.5497, 9.6831], [-63.5436, 9.6751], [-63.5241, 9.6612], [-63.5249, 9.6452], [-63.5284, 9.6438], [-63.4537, 9.6393], [-63.447, 9.6526], [-63.4252, 9.6517], [-63.428, 9.6251], [-63.4176, 9.6223], [-63.4119, 9.4751], [-63.504, 9.4941], [-63.5135, 9.5064], [-63.5427, 9.5056], [-63.4318, 9.1818], [-63.3997, 8.9951]]], [[[-62.4341, 10.0518], [-62.446, 10.0435], [-62.4335, 10.0332], [-62.4268, 9.9913], [-62.4124, 9.9649], [-62.4129, 9.9471], [-62.4279, 9.9476], [-62.4296, 9.9401], [-62.4074, 9.9351], [-62.3963, 9.9479], [-62.3935, 9.9674], [-62.3715, 9.9788], [-62.3954, 10.0119], [-62.4054, 10.0093], [-62.4179, 10.044], [-62.4341, 10.0518]]]]}}, {"type": "Feature", "properties": {"municipio": "Piar", "estado": "Monagas", "gid": "VEN.17.9_1"}, "geometry": {"type": "Polygon", "coordinates": [[[-63.6262, 10.0589], [-63.6206, 10.0569], [-63.6094, 10.0224], [-63.589, 10.0142], [-63.57, 9.9939], [-63.5624, 9.9366], [-63.5473, 9.9231], [-63.4971, 9.8699], [-63.4903, 9.8511], [-63.4856, 9.8309], [-63.4745, 9.8329], [-63.4433, 9.8049], [-63.3893, 9.8137], [-63.329, 9.8029], [-63.3396, 9.8622], [-63.3326, 9.8688], [-63.3016, 9.8567], [-63.2652, 9.8553], [-63.2289, 9.8727], [-63.1958, 9.9053], [-63.1674, 9.9123], [-63.2007, 9.918], [-63.3133, 9.9512], [-63.309, 10.0352], [-63.3458, 10.0369], [-63.3246, 10.0702], [-63.3479, 10.0798], [-63.3704, 10.0755], [-63.4095, 10.097], [-63.4576, 10.0917], [-63.4634, 10.1007], [-63.4616, 10.126], [-63.471, 10.1356], [-63.5432, 10.1072], [-63.5877, 10.1282], [-63.602, 10.1185], [-63.6143, 10.0746], [-63.6262, 10.0589]]]}}, {"type": "Feature", "properties": {"municipio": "Punceres", "estado": "Monagas", "gid": "VEN.17.10_1"}, "geometry": {"type": "Polygon", "coordinates": [[[-63.2305, 10.1498], [-63.2574, 10.1126], [-63.2574, 10.0845], [-63.2897, 10.0721], [-63.3246, 10.0702], [-63.3458, 10.0369], [-63.309, 10.0352], [-63.3133, 9.9512], [-63.2007, 9.918], [-63.1581, 9.9105], [-63.1275, 9.9001], [-63.0985, 9.8847], [-63.0833, 9.897], [-62.9456, 10.1057], [-62.9298, 10.1254], [-62.9546, 10.1293], [-62.9777, 10.1258], [-62.9885, 10.1315], [-63.0273, 10.0995], [-63.0399, 10.0692], [-63.0989, 10.0686], [-63.1478, 10.0409], [-63.1626, 10.0507], [-63.1511, 10.0692], [-63.1533, 10.0782], [-63.1815, 10.1074], [-63.2195, 10.1277], [-63.2231, 10.1494], [-63.2305, 10.1498]]]}}, {"type": "Feature", "properties": {"municipio": "Santa Barbara", "estado": "Monagas", "gid": "VEN.17.11_1"}, "geometry": {"type": "Polygon", "coordinates": [[[-63.5427, 9.5056], [-63.5135, 9.5064], [-63.504, 9.4941], [-63.4119, 9.4751], [-63.4176, 9.6223], [-63.428, 9.6251], [-63.4252, 9.6517], [-63.447, 9.6526], [-63.4537, 9.6393], [-63.5284, 9.6438], [-63.5383, 9.6409], [-63.6345, 9.6562], [-63.6396, 9.5001], [-63.5628, 9.4922], [-63.5427, 9.5056]]]}}, {"type": "Feature", "properties": {"municipio": "Sotillo", "estado": "Monagas", "gid": "VEN.17.12_1"}, "geometry": {"type": "Polygon", "coordinates": [[[-62.6494, 8.3225], [-62.6339, 8.3222], [-62.581, 8.3574], [-62.5617, 8.388], [-62.5481, 8.3971], [-62.5355, 8.391], [-62.5285, 8.3903], [-62.4847, 8.4217], [-62.3348, 8.4508], [-62.3088, 8.4608], [-62.277, 8.488], [-62.2169, 8.5068], [-62.1788, 8.5457], [-62.1545, 8.6048], [-62.0995, 8.652], [-62.0949, 8.6777], [-62.0552, 8.7214], [-62.0479, 8.7682], [-62.0455, 8.7859], [-62.1911, 8.7802], [-62.3981, 8.6701], [-62.4303, 8.71], [-62.4417, 8.6967], [-62.4645, 8.6929], [-62.4873, 8.6701], [-62.4968, 8.672], [-62.5841, 8.5923], [-62.624, 8.5904], [-62.6398, 8.5921], [-62.6852, 8.3917], [-62.6814, 8.3837], [-62.674, 8.3528], [-62.666, 8.3416], [-62.6574, 8.3345], [-62.6494, 8.3225]]]}}, {"type": "Feature", "properties": {"municipio": "Uracoa", "estado": "Monagas", "gid": "VEN.17.13_1"}, "geometry": {"type": "Polygon", "coordinates": [[[-62.2754, 9.1001], [-62.2935, 9.0931], [-62.297, 9.026], [-62.3169, 9.0133], [-62.3193, 8.9909], [-62.338, 8.969], [-62.3683, 8.9636], [-62.3785, 8.9398], [-62.4235, 8.9353], [-62.4535, 8.9415], [-62.4762, 8.9274], [-62.5073, 8.9219], [-62.5359, 8.8998], [-62.5503, 8.8702], [-62.5903, 8.8535], [-62.5977, 8.8319], [-62.5958, 8.7788], [-62.6398, 8.5921], [-62.624, 8.5904], [-62.5841, 8.5923], [-62.4968, 8.672], [-62.4873, 8.6701], [-62.4645, 8.6929], [-62.4417, 8.6967], [-62.4303, 8.71], [-62.3981, 8.6701], [-62.1911, 8.7802], [-62.0455, 8.7859], [-62.0387, 8.799], [-62.0061, 8.8326], [-62.0035, 8.8481], [-62.0182, 8.8494], [-62.0373, 8.8399], [-62.0564, 8.8448], [-62.0733, 8.8823], [-62.094, 8.9593], [-62.0889, 8.9733], [-62.0671, 8.984], [-62.0589, 8.998], [-62.0572, 9.0148], [-62.0842, 9.0487], [-62.1409, 9.0136], [-62.1643, 9.0151], [-62.1798, 9.0306], [-62.2201, 9.043], [-62.2426, 9.0819], [-62.2731, 9.0926], [-62.2754, 9.1001]]]}}]}