{"type": "FeatureCollection", "features": [{"type": "Feature", "properties": {"municipio": "Antolíndel Campo", "estado": "Nueva Esparta", "gid": "VEN.18.1_1"}, "geometry": {"type": "MultiPolygon", "coordinates": [[[[-63.8902, 11.097], [-63.8765, 11.0927], [-63.8749, 11.079], [-63.8739, 11.0734], [-63.8388, 11.0731], [-63.8296, 11.0675], [-63.8221, 11.0689], [-63.844, 11.1132], [-63.8404, 11.1271], [-63.871, 11.1554], [-63.8804, 11.1801], [-63.8893, 11.1732], [-63.8913, 11.1582], [-63.906, 11.1546], [-63.894, 11.139], [-63.8826, 11.1329], [-63.8755, 11.122], [-63.8763, 11.1155], [-63.8792, 11.1129], [-63.8967, 11.1033], [-63.8902, 11.097]]], [[[-63.7526, 11.211], [-63.7551, 11.204], [-63.7485, 11.1993], [-63.7526, 11.211]]], [[[-63.7387, 11.2032], [-63.7432, 11.1987], [-63.7287, 11.1868], [-63.7387, 11.2032]]]]}}, {"type": "Feature", "properties": {"municipio": "Arismendi", "estado": "Nueva Esparta", "gid": "VEN.18.2_1"}, "geometry": {"type": "Polygon", "coordinates": [[[-63.8739, 11.0734], [-63.8703, 11.0467], [-63.8785, 11.0392], [-63.8922, 10.9971], [-63.8557, 11.0149], [-63.8458, 11.0098], [-63.8337, 11.0198], [-63.8245, 11.0321], [-63.8153, 11.0298], [-63.8023, 11.0342], [-63.8162, 11.0557], [-63.8221, 11.0689], [-63.8296, 11.0675], [-63.8388, 11.0731], [-63.8739, 11.0734]]]}}, {"type": "Feature", "properties": {"municipio": "Díaz", "estado": "Nueva Esparta", "gid": "VEN.18.3_1"}, "geometry": {"type": "MultiPolygon", "coordinates": [[[[-63.9415, 10.9013], [-63.951, 10.8979], [-63.9407, 10.894], [-63.9415, 10.9013]]], [[[-63.8922, 10.9971], [-63.8844, 11.0257], [-63.9107, 11.0409], [-63.9357, 11.0432], [-63.9398, 11.0336], [-63.9576, 11.0245], [-63.993, 11.0531], [-64.0149, 11.0574], [-64.0137, 11.0313], [-64.0229, 11.0196], [-64.0265, 10.9951], [-63.9776, 10.8968], [-63.9443, 10.9018], [-63.9507, 10.9054], [-63.9432, 10.9099], [-63.9474, 10.9182], [-63.9574, 10.9207], [-63.9512, 10.9307], [-63.9382, 10.9274], [-63.9331, 10.9515], [-63.9176, 10.9887], [-63.8922, 10.9971]]]]}}, {"type": "Feature", "properties": {"municipio": "García", "estado": "Nueva Esparta", "gid": "VEN.18.4_1"}, "geometry": {"type": "Polygon", "coordinates": [[[-63.8922, 10.9971], [-63.9176, 10.9887], [-63.9331, 10.9515], [-63.9382, 10.9274], [-63.921, 10.9237], [-63.9279, 10.9179], [-63.9193, 10.914], [-63.9021, 10.9124], [-63.9165, 10.9032], [-63.9368, 10.9115], [-63.9382, 10.8949], [-63.896, 10.8835], [-63.8932, 10.9028], [-63.8786, 10.9583], [-63.8442, 10.9659], [-63.8461, 10.9853], [-63.8385, 10.994], [-63.8337, 11.0198], [-63.8458, 11.0098], [-63.8557, 11.0149], [-63.8922, 10.9971]]]}}, {"type": "Feature", "properties": {"municipio": "Gómez", "estado": "Nueva Esparta", "gid": "VEN.18.5_1"}, "geometry": {"type": "Polygon", "coordinates": [[[-63.894, 11.139], [-63.9054, 11.1504], [-63.9235, 11.1262], [-63.9335, 11.1265], [-63.9338, 11.1185], [-63.9562, 11.1129], [-63.9309, 11.0579], [-63.9357, 11.0432], [-63.9107, 11.0409], [-63.8844, 11.0257], [-63.8785, 11.0392], [-63.8703, 11.0467], [-63.8764, 11.0837], [-63.876, 11.0913], [-63.8779, 11.0936], [-63.8902, 11.097], [-63.8967, 11.1033], [-63.8792, 11.1129], [-63.875, 11.119], [-63.8826, 11.1329], [-63.894, 11.139]]]}}, {"type": "Feature", "properties": {"municipio": "Islade Coche", "estado": "Nueva Esparta", "gid": "VEN.18.6_1"}, "geometry": {"type": "Polygon", "coordinates": [[[-63.9929, 10.8171], [-63.9876, 10.7924], [-64.0001, 10.7799], [-63.9485, 10.7663], [-63.9415, 10.7543], [-63.9585, 10.7554], [-63.9182, 10.7362], [-63.8924, 10.7407], [-63.8879, 10.7646], [-63.9096, 10.7946], [-63.9929, 10.8171]]]}}, {"type": "Feature", "properties": {"municipio": "Maneiro", "estado": "Nueva Esparta", "gid": "VEN.18.7_1"}, "geometry": {"type": "Polygon", "coordinates": [[[-63.8337, 11.0198], [-63.8368, 10.9969], [-63.804, 10.9817], [-63.796, 10.9987], [-63.7768, 10.9971], [-63.7921, 11.0063], [-63.7874, 11.011], [-63.7793, 11.0007], [-63.8021, 11.0343], [-63.8153, 11.0298], [-63.8245, 11.0321], [-63.8337, 11.0198]]]}}, {"type": "Feature", "properties": {"municipio": "Marcano", "estado": "Nueva Esparta", "gid": "VEN.18.8_1"}, "geometry": {"type": "Polygon", "coordinates": [[[-63.9357, 11.0432], [-63.9309, 11.0579], [-63.9562, 11.1129], [-63.9776, 11.111], [-63.9829, 11.0985], [-63.9721, 11.0824], [-63.9871, 11.0701], [-64.0115, 11.0688], [-64.0149, 11.0574], [-63.993, 11.0531], [-63.9576, 11.0245], [-63.9398, 11.0336], [-63.9357, 11.0432]]]}}, {"type": "Feature", "properties": {"municipio": "Mariño", "estado": "Nueva Esparta", "gid": "VEN.18.9_1"}, "geometry": {"type": "Polygon", "coordinates": [[[-63.8932, 10.9028], [-63.8913, 10.8862], [-63.8846, 10.9335], [-63.8726, 10.9446], [-63.8357, 10.9587], [-63.8154, 10.944], [-63.8174, 10.9796], [-63.804, 10.9817], [-63.8368, 10.9969], [-63.8385, 10.994], [-63.8461, 10.9853], [-63.8442, 10.9659], [-63.8786, 10.9583], [-63.8932, 10.9028]]]}}, {"type": "Feature", "properties": {"municipio": "Peninsulade Macanao", "estado": "Nueva Esparta", "gid": "VEN.18.10_1"}, "geometry": {"type": "Polygon", "coordinates": [[[-64.0265, 10.9951], [-64.0449, 10.9849], [-64.0715, 10.9821], [-64.1349, 10.996], [-64.206, 11.0515], [-64.194, 11.0693], [-64.1943, 11.084], [-64.2162, 11.0863], [-64.2476, 11.0676], [-64.2685, 11.0624], [-64.296, 11.069], [-64.3157, 11.0568], [-64.3451, 11.049], [-64.3604, 11.0538], [-64.3838, 11.044], [-64.3835, 11.0299], [-64.3751, 11.0271], [-64.3821, 10.9999], [-64.4029, 10.9863], [-64.4076, 10.9738], [-64.4037, 10.9779], [-64.3921, 10.9685], [-64.339, 10.956], [-64.3121, 10.9571], [-64.2949, 10.9449], [-64.2663, 10.9487], [-64.2076, 10.934], [-64.1837, 10.949], [-64.1679, 10.9762], [-64.1696, 10.9651], [-64.1599, 10.9665], [-64.1599, 10.9568], [-64.1354, 10.946], [-64.1179, 10.9229], [-64.1068, 10.9271], [-64.1165, 10.9226], [-64.1113, 10.8988], [-64.0754, 10.8982], [-64.0618, 10.8899], [-64.0543, 10.8757], [-64.0646, 10.8651], [-64.0599, 10.861], [-64.029, 10.874], [-64.0143, 10.8721], [-63.9783, 10.8979], [-64.0265, 10.9951]]]}}, {"type": "Feature", "properties": {"municipio": "Tubores", "estado": "Nueva Esparta", "gid": "VEN.18.11_1"}, "geometry": {"type": "Polygon", "coordinates": [[[-64.1849, 10.8324], [-64.2115, 10.8312], [-64.2254, 10.8185], [-64.2151, 10.799], [-64.1513, 10.806], [-64.1401, 10.8226], [-64.1849, 10.8324]]]}}]}