{"type": "FeatureCollection", "features": [{"type": "Feature", "properties": {"municipio": "Agua Blanca", "estado": "Portuguesa", "gid": "VEN.19.1_1"}, "geometry": {"type": "Polygon", "coordinates": [[[-69.1705, 9.7664], [-69.1744, 9.7448], [-69.1645, 9.7211], [-69.0735, 9.6658], [-69.0597, 9.6368], [-69.0252, 9.5999], [-69.0239, 9.5962], [-68.9445, 9.6108], [-68.9539, 9.6307], [-68.956, 9.6577], [-68.9643, 9.6709], [-69.0089, 9.6969], [-69.0241, 9.7167], [-69.0476, 9.7615], [-69.0655, 9.7613], [-69.093, 9.754], [-69.1613, 9.7632], [-69.1705, 9.7664]]]}}, {"type": "Feature", "properties": {"municipio": "Araure", "estado": "Portuguesa", "gid": "VEN.19.2_1"}, "geometry": {"type": "Polygon", "coordinates": [[[-69.4045, 9.6321], [-69.3953, 9.6268], [-69.3842, 9.6173], [-69.3768, 9.6036], [-69.3676, 9.5566], [-69.2939, 9.4865], [-69.28, 9.5126], [-69.224, 9.5596], [-69.1952, 9.6421], [-69.1842, 9.6537], [-69.0523, 9.5837], [-69.0321, 9.5806], [-69.0217, 9.5899], [-69.0252, 9.5999], [-69.0597, 9.6368], [-69.0735, 9.6658], [-69.1645, 9.7211], [-69.1744, 9.7448], [-69.1705, 9.7664], [-69.1973, 9.7764], [-69.2112, 9.7857], [-69.2232, 9.8111], [-69.2027, 9.8475], [-69.2181, 9.8875], [-69.211, 9.9304], [-69.2185, 9.9369], [-69.2364, 9.9332], [-69.2485, 9.901], [-69.2546, 9.8895], [-69.2728, 9.8693], [-69.3135, 9.847], [-69.3261, 9.8318], [-69.3251, 9.8045], [-69.3193, 9.7658], [-69.329, 9.7432], [-69.3306, 9.7056], [-69.3463, 9.6666], [-69.3834, 9.6491], [-69.4045, 9.6321]]]}}, {"type": "Feature", "properties": {"municipio": "Esteller", "estado": "Portuguesa", "gid": "VEN.19.3_1"}, "geometry": {"type": "Polygon", "coordinates": [[[-69.2939, 9.4865], [-69.2553, 9.4273], [-69.2653, 9.3872], [-69.2599, 9.3318], [-69.2357, 9.2892], [-69.2242, 9.2107], [-69.1875, 9.0878], [-69.1416, 9.0636], [-69.1267, 9.0326], [-69.0444, 8.9612], [-69.0387, 8.9376], [-69.0113, 8.9427], [-68.9991, 8.9407], [-68.966, 8.9269], [-68.9629, 8.9598], [-68.9699, 8.9753], [-69.0327, 9.0226], [-69.059, 9.0745], [-69.0564, 9.0939], [-69.0383, 9.1166], [-69.0486, 9.1446], [-69.0761, 9.1435], [-69.0616, 9.1679], [-69.0632, 9.2131], [-69.064, 9.2438], [-69.0682, 9.259], [-69.0714, 9.2688], [-69.104, 9.2949], [-69.1415, 9.444], [-69.1654, 9.4874], [-69.177, 9.516], [-69.2356, 9.548], [-69.28, 9.5126], [-69.2939, 9.4865]]]}}, {"type": "Feature", "properties": {"municipio": "Guanare", "estado": "Portuguesa", "gid": "VEN.19.4_1"}, "geometry": {"type": "Polygon", "coordinates": [[[-69.8847, 9.4744], [-69.9153, 9.4568], [-69.9376, 9.4221], [-69.916, 9.3993], [-69.8752, 9.3077], [-69.8759, 9.2901], [-69.904, 9.2547], [-69.9357, 9.2419], [-69.9876, 9.2608], [-70.0069, 9.2612], [-69.8816, 8.9832], [-69.8761, 8.9587], [-69.8646, 8.9541], [-69.854, 8.9201], [-69.8336, 8.9152], [-69.7402, 8.9565], [-69.7264, 8.9704], [-69.6682, 8.9661], [-69.6049, 8.9845], [-69.5961, 8.9968], [-69.6004, 9.0087], [-69.5708, 8.9908], [-69.5495, 8.9867], [-69.5439, 8.9901], [-69.5624, 9.0096], [-69.5625, 9.0195], [-69.5477, 9.0233], [-69.5188, 9.0153], [-69.5144, 9.0202], [-69.522, 9.0367], [-69.4937, 9.0501], [-69.4914, 9.0716], [-69.4799, 9.0758], [-69.438, 9.0673], [-69.4287, 9.0704], [-69.4119, 9.0849], [-69.4224, 9.1046], [-69.4207, 9.1459], [-69.4366, 9.1644], [-69.4678, 9.231], [-69.4686, 9.2726], [-69.4769, 9.2972], [-69.5109, 9.3242], [-69.5444, 9.3377], [-69.5884, 9.3427], [-69.6092, 9.3338], [-69.651, 9.3379], [-69.6626, 9.3512], [-69.6791, 9.4007], [-69.6554, 9.4289], [-69.6057, 9.4592], [-69.6251, 9.4823], [-69.6481, 9.4749], [-69.6881, 9.4685], [-69.7217, 9.4935], [-69.7438, 9.4996], [-69.8136, 9.4739], [-69.8578, 9.4711], [-69.8847, 9.4744]]]}}, {"type": "Feature", "properties": {"municipio": "Guanarito", "estado": "Portuguesa", "gid": "VEN.19.5_1"}, "geometry": {"type": "Polygon", "coordinates": [[[-68.4284, 8.5106], [-68.4529, 8.5468], [-68.495, 8.5954], [-68.5785, 8.6562], [-68.6181, 8.7104], [-68.6889, 8.7636], [-68.6919, 8.7886], [-68.682, 8.7956], [-68.6376, 8.8013], [-68.6391, 8.8105], [-68.6544, 8.8155], [-68.7134, 8.8142], [-68.7437, 8.8006], [-68.7733, 8.7789], [-68.8071, 8.7838], [-68.8952, 8.7755], [-69.0093, 8.8166], [-69.0292, 8.8211], [-69.0531, 8.8151], [-68.9966, 8.7149], [-69.0998, 8.6738], [-69.1507, 8.7111], [-69.2351, 8.7309], [-69.3619, 8.7355], [-69.4483, 8.723], [-69.5576, 8.7501], [-69.5341, 8.6994], [-69.5195, 8.679], [-69.4767, 8.6321], [-69.4492, 8.6143], [-69.3098, 8.5602], [-69.2298, 8.5441], [-69.1521, 8.4792], [-69.1242, 8.4382], [-69.1089, 8.354], [-69.0896, 8.3264], [-69.0807, 8.2799], [-68.9718, 8.2122], [-68.9684, 8.1759], [-68.9603, 8.1652], [-68.8437, 8.0797], [-68.8059, 8.0669], [-68.7985, 8.084], [-68.8062, 8.1238], [-68.7429, 8.2491], [-68.7296, 8.2596], [-68.6565, 8.2839], [-68.4862, 8.468], [-68.4284, 8.5106]]]}}, {"type": "Feature", "properties": {"municipio": "Monseñor José Vicentede Unda", "estado": "Portuguesa", "gid": "VEN.19.6_1"}, "geometry": {"type": "Polygon", "coordinates": [[[-70.0193, 9.4758], [-70.0288, 9.4666], [-70.0193, 9.4609], [-70.0088, 9.4577], [-69.9623, 9.4515], [-69.9376, 9.4221], [-69.9153, 9.4568], [-69.8847, 9.4744], [-69.8932, 9.4763], [-69.8939, 9.4876], [-69.876, 9.5105], [-69.8261, 9.5678], [-69.8297, 9.5818], [-69.9081, 9.5729], [-69.948, 9.5869], [-69.9659, 9.577], [-69.9992, 9.5033], [-70.0193, 9.4758]]]}}, {"type": "Feature", "properties": {"municipio": "Ospino", "estado": "Portuguesa", "gid": "VEN.19.7_1"}, "geometry": {"type": "Polygon", "coordinates": [[[-69.5923, 9.6125], [-69.6026, 9.5656], [-69.6292, 9.5456], [-69.6106, 9.5155], [-69.6087, 9.4959], [-69.6166, 9.4858], [-69.6251, 9.4823], [-69.6057, 9.4592], [-69.6554, 9.4289], [-69.6791, 9.4007], [-69.6626, 9.3512], [-69.651, 9.3379], [-69.6092, 9.3338], [-69.5884, 9.3427], [-69.5444, 9.3377], [-69.5109, 9.3242], [-69.4769, 9.2972], [-69.4686, 9.2726], [-69.4678, 9.231], [-69.4366, 9.1644], [-69.4207, 9.1459], [-69.4224, 9.1046], [-69.4112, 9.0836], [-69.397, 9.0483], [-69.3482, 9.0322], [-69.3267, 9.0166], [-69.2977, 9.0201], [-69.254, 9.0044], [-69.2079, 8.9779], [-69.1872, 8.9551], [-69.0998, 8.9506], [-69.0576, 8.9378], [-69.0387, 8.9376], [-69.0444, 8.9612], [-69.1267, 9.0326], [-69.1416, 9.0636], [-69.1875, 9.0878], [-69.2242, 9.2107], [-69.2357, 9.2892], [-69.2599, 9.3318], [-69.2653, 9.3872], [-69.2553, 9.4273], [-69.2939, 9.4865], [-69.3676, 9.5566], [-69.3768, 9.6036], [-69.3842, 9.6173], [-69.3953, 9.6268], [-69.4045, 9.6321], [-69.4211, 9.6274], [-69.5622, 9.6232], [-69.5923, 9.6125]]]}}, {"type": "Feature", "properties": {"municipio": "Páez", "estado": "Portuguesa", "gid": "VEN.19.8_1"}, "geometry": {"type": "Polygon", "coordinates": [[[-68.8983, 9.6429], [-68.9541, 9.6338], [-68.9445, 9.6108], [-69.0239, 9.5962], [-69.0217, 9.5899], [-69.0321, 9.5806], [-69.0523, 9.5837], [-69.1842, 9.6537], [-69.1952, 9.6421], [-69.224, 9.5596], [-69.2356, 9.548], [-69.177, 9.516], [-69.1734, 9.5075], [-69.0645, 9.5362], [-69.0445, 9.5346], [-69.0047, 9.5173], [-68.9899, 9.5049], [-68.9666, 9.4608], [-68.8926, 9.4084], [-68.8164, 9.395], [-68.796, 9.3994], [-68.8006, 9.4035], [-68.8566, 9.4309], [-68.876, 9.4526], [-68.8877, 9.4895], [-68.8895, 9.5057], [-68.8837, 9.5714], [-68.8912, 9.6223], [-68.8983, 9.6429]]]}}, {"type": "Feature", "properties": {"municipio": "Papelón", "estado": "Portuguesa", "gid": "VEN.19.9_1"}, "geometry": {"type": "Polygon", "coordinates": [[[-69.5576, 8.7501], [-69.4483, 8.723], [-69.3619, 8.7355], [-69.2351, 8.7309], [-69.1507, 8.7111], [-69.0998, 8.6738], [-68.9966, 8.7149], [-69.0531, 8.8151], [-69.0292, 8.8211], [-69.0093, 8.8166], [-68.8952, 8.7755], [-68.8071, 8.7838], [-68.7733, 8.7789], [-68.7437, 8.8006], [-68.7134, 8.8142], [-68.6544, 8.8155], [-68.6391, 8.8105], [-68.6376, 8.8013], [-68.5289, 8.8174], [-68.5199, 8.8246], [-68.5164, 8.8457], [-68.5194, 8.8499], [-68.5274, 8.8486], [-68.5711, 8.8483], [-68.5822, 8.8515], [-68.7112, 8.9094], [-68.7268, 8.8966], [-68.8016, 8.8872], [-68.8352, 8.8555], [-68.8784, 8.8555], [-68.9319, 8.9121], [-68.9991, 8.9407], [-69.0113, 8.9427], [-69.0379, 8.9376], [-69.0576, 8.9378], [-69.0998, 8.9506], [-69.1872, 8.9551], [-69.2079, 8.9779], [-69.254, 9.0044], [-69.2977, 9.0201], [-69.3267, 9.0166], [-69.3482, 9.0322], [-69.397, 9.0483], [-69.4119, 9.0849], [-69.4287, 9.0704], [-69.438, 9.0673], [-69.4799, 9.0758], [-69.4914, 9.0716], [-69.4937, 9.0501], [-69.522, 9.0367], [-69.5144, 9.0202], [-69.5188, 9.0153], [-69.5477, 9.0233], [-69.5625, 9.0195], [-69.5624, 9.0096], [-69.5439, 8.9901], [-69.5495, 8.9867], [-69.5708, 8.9908], [-69.6004, 9.0087], [-69.5961, 8.9968], [-69.6049, 8.9845], [-69.6682, 8.9661], [-69.7155, 8.9691], [-69.7023, 8.9522], [-69.7018, 8.9293], [-69.643, 8.8879], [-69.6365, 8.8313], [-69.648, 8.8165], [-69.6415, 8.8074], [-69.5876, 8.7892], [-69.5819, 8.7814], [-69.5847, 8.7624], [-69.561, 8.7569], [-69.5576, 8.7501]]]}}, {"type": "Feature", "properties": {"municipio": "San Genarode Boconoito", "estado": "Portuguesa", "gid": "VEN.19.10_1"}, "geometry": {"type": "Polygon", "coordinates": [[[-69.7291, 8.7534], [-69.6854, 8.75], [-69.6187, 8.7702], [-69.5847, 8.7624], [-69.5819, 8.7814], [-69.5876, 8.7892], [-69.6415, 8.8074], [-69.648, 8.8165], [-69.6365, 8.8313], [-69.643, 8.8879], [-69.7018, 8.9293], [-69.7023, 8.9522], [-69.7155, 8.9691], [-69.7264, 8.9704], [-69.7402, 8.9565], [-69.8336, 8.9152], [-69.854, 8.9201], [-69.8646, 8.9541], [-69.8761, 8.9587], [-69.8816, 8.9832], [-70.0069, 9.2612], [-70.0163, 9.2597], [-70.0242, 9.2557], [-70.0261, 9.2382], [-70.0473, 9.2342], [-70.0772, 9.2545], [-70.0934, 9.2601], [-70.1021, 9.2609], [-70.1154, 9.226], [-70.1183, 9.164], [-70.1291, 9.1481], [-70.1978, 9.1031], [-70.2032, 9.0858], [-70.1976, 9.0468], [-70.194, 9.0411], [-70.1695, 9.0203], [-70.1128, 8.9939], [-70.0907, 8.9686], [-70.0666, 8.9182], [-70.0453, 8.9009], [-69.9036, 8.807], [-69.8871, 8.7968], [-69.7291, 8.7534]]]}}, {"type": "Feature", "properties": {"municipio": "San Rafaelde Onoto", "estado": "Portuguesa", "gid": "VEN.19.11_1"}, "geometry": {"type": "Polygon", "coordinates": [[[-68.9749, 9.7913], [-69.0021, 9.8017], [-69.032, 9.7632], [-69.0476, 9.7615], [-69.0241, 9.7167], [-69.0089, 9.6969], [-68.9643, 9.6709], [-68.956, 9.6577], [-68.9541, 9.6338], [-68.8983, 9.6429], [-68.9072, 9.675], [-68.9412, 9.7345], [-68.9448, 9.7553], [-68.9749, 9.7913]]]}}, {"type": "Feature", "properties": {"municipio": "Santa Rosalía", "estado": "Portuguesa", "gid": "VEN.19.12_1"}, "geometry": {"type": "Polygon", "coordinates": [[[-68.6294, 9.0372], [-68.6829, 9.0474], [-68.6944, 9.0628], [-68.7287, 9.0675], [-68.7328, 9.0867], [-68.7485, 9.0951], [-68.836, 9.0508], [-68.8402, 9.1928], [-68.9372, 9.1953], [-69.0052, 9.2553], [-69.0349, 9.2626], [-69.07, 9.2645], [-69.0682, 9.259], [-69.064, 9.2438], [-69.0632, 9.2131], [-69.0616, 9.1679], [-69.0761, 9.1435], [-69.0486, 9.1446], [-69.0383, 9.1166], [-69.0564, 9.0939], [-69.059, 9.0745], [-69.0327, 9.0226], [-68.9699, 8.9753], [-68.9629, 8.9598], [-68.966, 8.9269], [-68.9319, 8.9121], [-68.8784, 8.8555], [-68.8352, 8.8555], [-68.8016, 8.8872], [-68.7268, 8.8966], [-68.7112, 8.9094], [-68.5822, 8.8515], [-68.5711, 8.8483], [-68.5274, 8.8486], [-68.5194, 8.8499], [-68.523, 8.8548], [-68.5697, 8.8697], [-68.5979, 8.8879], [-68.6172, 8.9136], [-68.631, 8.9542], [-68.6346, 9.0034], [-68.6294, 9.0372]]]}}, {"type": "Feature", "properties": {"municipio": "Sucre", "estado": "Portuguesa", "gid": "VEN.19.13_1"}, "geometry": {"type": "Polygon", "coordinates": [[[-69.9376, 9.4221], [-69.9623, 9.4515], [-70.0088, 9.4577], [-70.0193, 9.4609], [-70.0288, 9.4666], [-70.0518, 9.4396], [-70.1086, 9.3885], [-70.1129, 9.3455], [-70.0817, 9.3132], [-70.0843, 9.2924], [-70.1021, 9.2609], [-70.0934, 9.2601], [-70.0772, 9.2545], [-70.0473, 9.2342], [-70.0261, 9.2382], [-70.0242, 9.2557], [-70.0163, 9.2597], [-70.0048, 9.2615], [-69.9876, 9.2608], [-69.9357, 9.2419], [-69.904, 9.2547], [-69.8759, 9.2901], [-69.8752, 9.3077], [-69.916, 9.3993], [-69.9376, 9.4221]]]}}, {"type": "Feature", "properties": {"municipio": "Turén", "estado": "Portuguesa", "gid": "VEN.19.14_1"}, "geometry": {"type": "Polygon", "coordinates": [[[-68.6047, 9.2353], [-68.6319, 9.2692], [-68.7079, 9.3187], [-68.796, 9.3994], [-68.8164, 9.395], [-68.8926, 9.4084], [-68.9666, 9.4608], [-68.9899, 9.5049], [-69.0047, 9.5173], [-69.0445, 9.5346], [-69.0645, 9.5362], [-69.1734, 9.5075], [-69.1654, 9.4874], [-69.1415, 9.444], [-69.104, 9.2949], [-69.0714, 9.2688], [-69.07, 9.2645], [-69.0349, 9.2626], [-69.0052, 9.2553], [-68.9372, 9.1953], [-68.8402, 9.1928], [-68.836, 9.0508], [-68.7485, 9.0951], [-68.7328, 9.0867], [-68.7287, 9.0675], [-68.6944, 9.0628], [-68.6829, 9.0474], [-68.6294, 9.0372], [-68.6005, 9.1993], [-68.6047, 9.2353]]]}}]}