{"type": "FeatureCollection", "features": [{"type": "Feature", "properties": {"municipio": "Andrés Eloy Blanco", "estado": "Sucre", "gid": "VEN.20.1_1"}, "geometry": {"type": "Polygon", "coordinates": [[[-63.1012, 10.2332], [-63.0983, 10.2281], [-63.1011, 10.2335], [-63.0833, 10.2676], [-63.0881, 10.2907], [-63.1253, 10.291], [-63.1404, 10.3006], [-63.1495, 10.3122], [-63.1613, 10.333], [-63.187, 10.3316], [-63.2102, 10.3535], [-63.2148, 10.3749], [-63.2101, 10.389], [-63.2229, 10.3671], [-63.2231, 10.3846], [-63.2358, 10.3972], [-63.3426, 10.4495], [-63.3723, 10.5122], [-63.373, 10.5269], [-63.361, 10.5392], [-63.406, 10.6021], [-63.4069, 10.6142], [-63.4079, 10.6676], [-63.4257, 10.6613], [-63.4376, 10.6685], [-63.4332, 10.6565], [-63.4418, 10.6526], [-63.444, 10.6588], [-63.449, 10.6449], [-63.4476, 10.6059], [-63.3937, 10.4782], [-63.3744, 10.4494], [-63.3644, 10.4401], [-63.333, 10.4224], [-63.3094, 10.3957], [-63.3347, 10.3981], [-63.3933, 10.38], [-63.4107, 10.3471], [-63.4154, 10.304], [-63.3928, 10.2939], [-63.3577, 10.2722], [-63.2454, 10.2201], [-63.2104, 10.2175], [-63.182, 10.2305], [-63.1498, 10.2379], [-63.1012, 10.2332]]]}}, {"type": "Feature", "properties": {"municipio": "Andrés Mata", "estado": "Sucre", "gid": "VEN.20.2_1"}, "geometry": {"type": "Polygon", "coordinates": [[[-63.2101, 10.389], [-63.2049, 10.3955], [-63.2048, 10.4125], [-63.2187, 10.4257], [-63.2735, 10.4493], [-63.2769, 10.4598], [-63.264, 10.4987], [-63.2527, 10.5217], [-63.2463, 10.5447], [-63.2414, 10.6223], [-63.2433, 10.6376], [-63.2929, 10.633], [-63.3185, 10.6522], [-63.3656, 10.6495], [-63.4054, 10.638], [-63.4069, 10.6142], [-63.406, 10.6021], [-63.361, 10.5392], [-63.373, 10.5269], [-63.3723, 10.5122], [-63.3426, 10.4495], [-63.2358, 10.3972], [-63.2231, 10.3846], [-63.2229, 10.3671], [-63.2101, 10.389]]]}}, {"type": "Feature", "properties": {"municipio": "Arismendi", "estado": "Sucre", "gid": "VEN.20.3_1"}, "geometry": {"type": "Polygon", "coordinates": [[[-62.2792, 10.6741], [-62.1784, 10.6833], [-62.0966, 10.6734], [-62.0385, 10.6967], [-61.93, 10.7016], [-61.8989, 10.7234], [-61.8896, 10.7301], [-61.8929, 10.7307], [-61.8946, 10.7288], [-61.8957, 10.731], [-61.9026, 10.731], [-61.9049, 10.7288], [-61.9146, 10.734], [-61.9257, 10.714], [-61.9585, 10.7243], [-61.9604, 10.716], [-61.9779, 10.7113], [-61.9799, 10.719], [-61.9993, 10.7279], [-62.006, 10.7082], [-62.014, 10.7115], [-62.0199, 10.7054], [-62.0315, 10.7085], [-62.0262, 10.7171], [-62.0493, 10.7176], [-62.0571, 10.7013], [-62.0846, 10.706], [-62.0962, 10.6996], [-62.1046, 10.7093], [-62.1118, 10.7007], [-62.1304, 10.701], [-62.1426, 10.7082], [-62.1396, 10.6985], [-62.1554, 10.6849], [-62.171, 10.6835], [-62.1857, 10.686], [-62.1996, 10.7004], [-62.2135, 10.6954], [-62.2429, 10.7007], [-62.2532, 10.6938], [-62.2643, 10.7007], [-62.2829, 10.6893], [-62.2951, 10.7032], [-62.3007, 10.696], [-62.3107, 10.7071], [-62.321, 10.7038], [-62.344, 10.7129], [-62.429, 10.7168], [-62.4665, 10.7263], [-62.4796, 10.7226], [-62.5246, 10.7346], [-62.5838, 10.7349], [-62.634, 10.7462], [-62.6701, 10.7413], [-62.6946, 10.7476], [-62.7104, 10.766], [-62.746, 10.7501], [-62.7574, 10.7376], [-62.8051, 10.729], [-62.8076, 10.7215], [-62.8476, 10.7143], [-62.8743, 10.6985], [-62.8937, 10.7018], [-62.9032, 10.6921], [-62.9643, 10.6996], [-63.0013, 10.7243], [-63.0149, 10.7113], [-63.0318, 10.7076], [-63.0526, 10.7179], [-63.0693, 10.7157], [-63.074, 10.7082], [-63.0871, 10.7129], [-63.1074, 10.7085], [-63.1193, 10.7004], [-63.1479, 10.7076], [-63.1582, 10.7204], [-63.151, 10.726], [-63.166, 10.7276], [-63.1618, 10.7143], [-63.1821, 10.7071], [-63.1647, 10.7007], [-63.1458, 10.6865], [-63.1386, 10.6422], [-63.1403, 10.6248], [-63.1434, 10.621], [-63.1205, 10.6287], [-63.0917, 10.6163], [-63.086, 10.6061], [-63.0666, 10.5987], [-63.036, 10.6004], [-63.003, 10.612], [-62.9814, 10.6132], [-62.9374, 10.6043], [-62.9127, 10.5868], [-62.8924, 10.6798], [-62.8318, 10.6787], [-62.7895, 10.6902], [-62.7696, 10.6641], [-62.7032, 10.6941], [-62.6776, 10.6882], [-62.6515, 10.6776], [-62.6232, 10.6844], [-62.5851, 10.709], [-62.5233, 10.6886], [-62.4957, 10.6952], [-62.4602, 10.6888], [-62.4152, 10.6941], [-62.3537, 10.6945], [-62.3061, 10.6759], [-62.2792, 10.6741]]]}}, {"type": "Feature", "properties": {"municipio": "Benítez", "estado": "Sucre", "gid": "VEN.20.4_1"}, "geometry": {"type": "Polygon", "coordinates": [[[-62.9885, 10.1315], [-62.9777, 10.1258], [-62.9546, 10.1293], [-62.9245, 10.1245], [-62.9009, 10.1311], [-62.8906, 10.1257], [-62.8705, 10.0917], [-62.8314, 10.1087], [-62.8049, 10.0707], [-62.7893, 10.0693], [-62.7713, 10.1097], [-62.7398, 10.1085], [-62.71, 10.0911], [-62.6797, 10.0933], [-62.6359, 10.1101], [-62.6141, 10.1363], [-62.6124, 10.1515], [-62.6263, 10.1897], [-62.6488, 10.2067], [-62.6693, 10.2349], [-62.6704, 10.2718], [-62.6876, 10.3043], [-62.6629, 10.3063], [-62.6499, 10.3315], [-62.6535, 10.3512], [-62.7468, 10.4551], [-62.7702, 10.4988], [-62.8354, 10.4999], [-62.8299, 10.5357], [-62.8193, 10.5382], [-62.809, 10.5447], [-62.8344, 10.5449], [-62.8649, 10.5443], [-62.8992, 10.5301], [-62.9395, 10.4903], [-62.9476, 10.4841], [-62.9613, 10.4874], [-63.1032, 10.5716], [-63.1086, 10.5769], [-63.1039, 10.5883], [-63.0984, 10.5936], [-63.089, 10.6115], [-63.0917, 10.6163], [-63.1205, 10.6287], [-63.1358, 10.6227], [-63.1825, 10.6098], [-63.1934, 10.6041], [-63.1888, 10.5897], [-63.1984, 10.5635], [-63.2103, 10.5561], [-63.245, 10.557], [-63.2499, 10.5303], [-63.264, 10.4987], [-63.2769, 10.4598], [-63.2735, 10.4493], [-63.2187, 10.4257], [-63.2048, 10.4125], [-63.2049, 10.3955], [-63.2148, 10.3749], [-63.2102, 10.3535], [-63.187, 10.3316], [-63.1613, 10.333], [-63.1495, 10.3122], [-63.1404, 10.3006], [-63.1253, 10.291], [-63.0881, 10.2907], [-63.0833, 10.2676], [-63.1011, 10.2335], [-63.098, 10.2275], [-63.0837, 10.2207], [-63.053, 10.2253], [-63.0386, 10.1725], [-62.9885, 10.1315]]]}}, {"type": "Feature", "properties": {"municipio": "Bermúdez", "estado": "Sucre", "gid": "VEN.20.5_1"}, "geometry": {"type": "Polygon", "coordinates": [[[-63.4054, 10.638], [-63.3656, 10.6495], [-63.3185, 10.6522], [-63.2929, 10.633], [-63.2433, 10.6376], [-63.2414, 10.6223], [-63.245, 10.557], [-63.2103, 10.5561], [-63.1984, 10.5635], [-63.1888, 10.5897], [-63.1934, 10.6041], [-63.1825, 10.6098], [-63.1434, 10.621], [-63.1403, 10.6248], [-63.1386, 10.6422], [-63.1458, 10.6865], [-63.1647, 10.7007], [-63.1868, 10.7063], [-63.2287, 10.6888], [-63.234, 10.6751], [-63.2451, 10.6774], [-63.2551, 10.6701], [-63.2724, 10.6771], [-63.2782, 10.6637], [-63.3257, 10.6838], [-63.3285, 10.6699], [-63.3396, 10.6685], [-63.3554, 10.676], [-63.3618, 10.6901], [-63.3713, 10.6793], [-63.386, 10.6924], [-63.3965, 10.6771], [-63.3996, 10.6863], [-63.4074, 10.6754], [-63.4054, 10.638]]]}}, {"type": "Feature", "properties": {"municipio": "Bolívar", "estado": "Sucre", "gid": "VEN.20.6_1"}, "geometry": {"type": "Polygon", "coordinates": [[[-63.84, 10.4468], [-63.8737, 10.4421], [-63.9087, 10.4551], [-63.914, 10.4485], [-63.9415, 10.4463], [-63.9415, 10.4518], [-63.9576, 10.4532], [-64.024, 10.4357], [-64.0318, 10.4446], [-64.0379, 10.4388], [-64.062, 10.4426], [-64.0521, 10.4324], [-64.0548, 10.4239], [-64.0361, 10.395], [-64.0259, 10.3591], [-64.0271, 10.3571], [-63.9914, 10.3368], [-63.9308, 10.3402], [-63.9072, 10.335], [-63.8921, 10.3392], [-63.8755, 10.3542], [-63.8668, 10.3737], [-63.84, 10.4468]]]}}, {"type": "Feature", "properties": {"municipio": "Cajigal", "estado": "Sucre", "gid": "VEN.20.7_1"}, "geometry": {"type": "Polygon", "coordinates": [[[-62.9127, 10.5868], [-62.9092, 10.5643], [-62.8649, 10.5443], [-62.8344, 10.5449], [-62.8088, 10.5446], [-62.7826, 10.5593], [-62.7562, 10.5599], [-62.7571, 10.5654], [-62.7535, 10.5704], [-62.7282, 10.5818], [-62.7549, 10.5676], [-62.754, 10.5615], [-62.7493, 10.5571], [-62.7459, 10.5576], [-62.6971, 10.5817], [-62.6604, 10.6114], [-62.6659, 10.6829], [-62.6776, 10.6882], [-62.7032, 10.6941], [-62.7696, 10.6641], [-62.7895, 10.6902], [-62.8318, 10.6787], [-62.8924, 10.6798], [-62.9127, 10.5868]]]}}, {"type": "Feature", "properties": {"municipio": "Cruz Salmerón Acosta", "estado": "Sucre", "gid": "VEN.20.8_1"}, "geometry": {"type": "MultiPolygon", "coordinates": [[[[-63.7007, 10.631], [-63.7007, 10.6496], [-63.7121, 10.6571], [-63.7346, 10.6532], [-63.7632, 10.6593], [-63.8104, 10.7085], [-63.8162, 10.7065], [-63.8146, 10.6888], [-63.8335, 10.6468], [-63.9162, 10.6251], [-63.9443, 10.6346], [-63.9657, 10.6285], [-63.9887, 10.6354], [-64.0113, 10.6288], [-64.0413, 10.6338], [-64.0532, 10.6385], [-64.0529, 10.6465], [-64.046, 10.6471], [-64.0515, 10.6507], [-64.0607, 10.6499], [-64.0651, 10.639], [-64.1054, 10.6346], [-64.1207, 10.619], [-64.1521, 10.6182], [-64.1704, 10.6296], [-64.1932, 10.6118], [-64.1982, 10.6185], [-64.1904, 10.6249], [-64.1907, 10.6401], [-64.2396, 10.6382], [-64.2607, 10.6654], [-64.2968, 10.6313], [-64.2729, 10.5829], [-64.2585, 10.5721], [-64.2613, 10.5404], [-64.2337, 10.5071], [-64.2185, 10.5165], [-64.2146, 10.5401], [-64.2035, 10.5543], [-64.1276, 10.5793], [-64.1218, 10.5785], [-64.1235, 10.5693], [-64.1126, 10.571], [-64.1176, 10.5649], [-64.0757, 10.5782], [-64.071, 10.5721], [-64.0537, 10.5757], [-64.0604, 10.5832], [-64.0488, 10.5868], [-64.0501, 10.5957], [-64.046, 10.5885], [-64.0218, 10.5938], [-64.0454, 10.5824], [-64.0446, 10.5751], [-63.954, 10.5807], [-63.9129, 10.5546], [-63.8232, 10.5515], [-63.791, 10.5279], [-63.7654, 10.5243], [-63.7007, 10.631]]], [[[-63.8501, 10.6929], [-63.8549, 10.6907], [-63.8429, 10.6907], [-63.8501, 10.6929]]]]}}, {"type": "Feature", "properties": {"municipio": "Libertador", "estado": "Sucre", "gid": "VEN.20.9_1"}, "geometry": {"type": "Polygon", "coordinates": [[[-63.089, 10.6115], [-63.0984, 10.5936], [-63.1039, 10.5883], [-63.1086, 10.5769], [-63.1032, 10.5716], [-62.9613, 10.4874], [-62.9476, 10.4841], [-62.9395, 10.4903], [-62.8992, 10.5301], [-62.8649, 10.5443], [-62.9092, 10.5643], [-62.9127, 10.5868], [-62.9374, 10.6043], [-62.9814, 10.6132], [-63.003, 10.612], [-63.036, 10.6004], [-63.0666, 10.5987], [-63.086, 10.6061], [-63.089, 10.6115]]]}}, {"type": "Feature", "properties": {"municipio": "Mariño", "estado": "Sucre", "gid": "VEN.20.10_1"}, "geometry": {"type": "Polygon", "coordinates": [[[-62.6659, 10.6829], [-62.6604, 10.6114], [-62.6971, 10.5817], [-62.7487, 10.5565], [-62.6899, 10.5604], [-62.6729, 10.5763], [-62.6579, 10.5779], [-62.5782, 10.5657], [-62.5276, 10.5435], [-62.4979, 10.5535], [-62.4674, 10.5526], [-62.441, 10.5332], [-62.4101, 10.5513], [-62.3817, 10.5504], [-62.3902, 10.5809], [-62.4342, 10.6307], [-62.436, 10.6752], [-62.4321, 10.693], [-62.4602, 10.6888], [-62.4957, 10.6952], [-62.5233, 10.6886], [-62.5851, 10.709], [-62.6232, 10.6844], [-62.6515, 10.6776], [-62.6659, 10.6829]]]}}, {"type": "Feature", "properties": {"municipio": "Mejía", "estado": "Sucre", "gid": "VEN.20.11_1"}, "geometry": {"type": "Polygon", "coordinates": [[[-63.8709, 10.3633], [-63.8431, 10.3571], [-63.8088, 10.3151], [-63.7894, 10.3036], [-63.7571, 10.3123], [-63.7501, 10.3161], [-63.7217, 10.3494], [-63.6854, 10.3879], [-63.6563, 10.4593], [-63.658, 10.4758], [-63.6546, 10.489], [-63.6585, 10.4885], [-63.6601, 10.4865], [-63.6635, 10.4757], [-63.6799, 10.469], [-63.7379, 10.4646], [-63.7971, 10.441], [-63.8143, 10.4449], [-63.8318, 10.4396], [-63.84, 10.4468], [-63.8668, 10.3737], [-63.8709, 10.3633]]]}}, {"type": "Feature", "properties": {"municipio": "Montes", "estado": "Sucre", "gid": "VEN.20.12_1"}, "geometry": {"type": "Polygon", "coordinates": [[[-63.9434, 10.0724], [-63.8448, 10.0997], [-63.8041, 10.1423], [-63.7636, 10.1963], [-63.7429, 10.2028], [-63.7032, 10.2095], [-63.6977, 10.2191], [-63.6928, 10.2344], [-63.6998, 10.26], [-63.7384, 10.3262], [-63.7501, 10.3161], [-63.7571, 10.3123], [-63.7894, 10.3036], [-63.8088, 10.3151], [-63.8431, 10.3571], [-63.8709, 10.3633], [-63.8755, 10.3542], [-63.8921, 10.3392], [-63.9072, 10.335], [-63.9308, 10.3402], [-63.9914, 10.3368], [-64.0271, 10.3571], [-64.0415, 10.3402], [-64.0899, 10.2179], [-64.1044, 10.1946], [-64.1262, 10.1737], [-64.1178, 10.0295], [-64.0805, 10.0383], [-64.0413, 10.0583], [-63.9434, 10.0724]]]}}, {"type": "Feature", "properties": {"municipio": "Ribero", "estado": "Sucre", "gid": "VEN.20.13_1"}, "geometry": {"type": "Polygon", "coordinates": [[[-63.6596, 10.2152], [-63.6084, 10.2317], [-63.5747, 10.2515], [-63.4963, 10.305], [-63.4494, 10.3117], [-63.4154, 10.304], [-63.4107, 10.3471], [-63.3933, 10.38], [-63.3347, 10.3981], [-63.3094, 10.3957], [-63.333, 10.4224], [-63.3695, 10.4444], [-63.3786, 10.4551], [-63.3937, 10.4782], [-63.4476, 10.6059], [-63.449, 10.6449], [-63.4468, 10.6615], [-63.4649, 10.6624], [-63.4721, 10.6474], [-63.4957, 10.6563], [-63.5024, 10.6538], [-63.4929, 10.6468], [-63.4985, 10.6343], [-63.5321, 10.6271], [-63.6321, 10.6343], [-63.7007, 10.649], [-63.7007, 10.631], [-63.7654, 10.5243], [-63.739, 10.4932], [-63.734, 10.4979], [-63.7115, 10.4935], [-63.7043, 10.4801], [-63.6487, 10.4946], [-63.6443, 10.4896], [-63.6546, 10.4896], [-63.658, 10.4758], [-63.6563, 10.4593], [-63.6854, 10.3879], [-63.7217, 10.3494], [-63.7384, 10.3262], [-63.6998, 10.26], [-63.6928, 10.2344], [-63.6977, 10.2191], [-63.7035, 10.2091], [-63.6596, 10.2152]]]}}, {"type": "Feature", "properties": {"municipio": "Sucre", "estado": "Sucre", "gid": "VEN.20.14_1"}, "geometry": {"type": "MultiPolygon", "coordinates": [[[[-64.2929, 10.0326], [-64.2625, 10.0209], [-64.2459, 10.009], [-64.1908, 10.0035], [-64.179, 10.0066], [-64.1581, 10.0158], [-64.1178, 10.0295], [-64.1262, 10.1737], [-64.1044, 10.1946], [-64.0899, 10.2179], [-64.0415, 10.3402], [-64.0259, 10.3591], [-64.0361, 10.395], [-64.0548, 10.4239], [-64.0521, 10.4324], [-64.062, 10.4426], [-64.0926, 10.4529], [-64.1149, 10.4796], [-64.1171, 10.4726], [-64.1854, 10.479], [-64.1937, 10.4721], [-64.1901, 10.4579], [-64.196, 10.4426], [-64.2224, 10.4168], [-64.2787, 10.4132], [-64.2951, 10.4024], [-64.2957, 10.4093], [-64.3063, 10.4104], [-64.321, 10.3987], [-64.3351, 10.3999], [-64.3337, 10.3926], [-64.341, 10.3888], [-64.3279, 10.3829], [-64.3451, 10.381], [-64.336, 10.3668], [-64.3435, 10.3682], [-64.3393, 10.3576], [-64.3454, 10.3535], [-64.3365, 10.3485], [-64.369, 10.3382], [-64.3704, 10.3471], [-64.3576, 10.3518], [-64.3624, 10.3557], [-64.3496, 10.3613], [-64.3457, 10.3721], [-64.346, 10.389], [-64.351, 10.3851], [-64.3579, 10.3935], [-64.3526, 10.3965], [-64.364, 10.3979], [-64.3724, 10.3832], [-64.3768, 10.3932], [-64.3949, 10.3801], [-64.3776, 10.3687], [-64.3893, 10.3615], [-64.3743, 10.3482], [-64.379, 10.3365], [-64.4151, 10.3324], [-64.429, 10.3185], [-64.4618, 10.3301], [-64.4571, 10.3151], [-64.4476, 10.3185], [-64.4429, 10.3115], [-64.4215, 10.3182], [-64.4171, 10.3085], [-64.4129, 10.3146], [-64.4071, 10.3104], [-64.3763, 10.3207], [-64.3643, 10.3107], [-64.3646, 10.301], [-64.3799, 10.3054], [-64.379, 10.299], [-64.3999, 10.2901], [-64.4013, 10.2832], [-64.4212, 10.2863], [-64.4504, 10.2785], [-64.4437, 10.2732], [-64.4465, 10.2646], [-64.4801, 10.2443], [-64.4452, 10.2028], [-64.4187, 10.1583], [-64.4026, 10.1224], [-64.3733, 10.0436], [-64.3613, 10.0332], [-64.3425, 10.0305], [-64.2929, 10.0326]]], [[[-64.4013, 10.3721], [-64.4029, 10.3582], [-64.4135, 10.3479], [-64.3935, 10.3585], [-64.4013, 10.3721]]], [[[-64.474, 10.2629], [-64.4788, 10.2618], [-64.4701, 10.2604], [-64.474, 10.2629]]], [[[-64.4576, 10.3746], [-64.4701, 10.3632], [-64.4474, 10.3579], [-64.4407, 10.3493], [-64.4271, 10.3499], [-64.4413, 10.3532], [-64.4424, 10.3674], [-64.4488, 10.3638], [-64.4576, 10.3746]]], [[[-64.421, 10.381], [-64.4365, 10.3712], [-64.431, 10.3563], [-64.411, 10.3657], [-64.4174, 10.3707], [-64.4126, 10.3785], [-64.421, 10.381]]]]}}, {"type": "Feature", "properties": {"municipio": "Valdez", "estado": "Sucre", "gid": "VEN.20.15_1"}, "geometry": {"type": "Polygon", "coordinates": [[[-61.8894, 10.7303], [-61.8989, 10.7234], [-61.93, 10.7016], [-62.0385, 10.6967], [-62.0966, 10.6734], [-62.1784, 10.6833], [-62.2792, 10.6741], [-62.3061, 10.6759], [-62.3537, 10.6945], [-62.4321, 10.693], [-62.436, 10.6752], [-62.4342, 10.6307], [-62.3902, 10.5809], [-62.3817, 10.5504], [-62.3599, 10.5324], [-62.3221, 10.5388], [-62.3063, 10.5621], [-62.2912, 10.5668], [-62.2949, 10.5751], [-62.2882, 10.5662], [-62.2926, 10.5749], [-62.286, 10.591], [-62.2729, 10.599], [-62.2501, 10.6349], [-62.1868, 10.6332], [-62.154, 10.6429], [-62.1468, 10.634], [-62.1338, 10.6329], [-62.1301, 10.6399], [-62.1137, 10.6293], [-62.1085, 10.6343], [-62.0735, 10.631], [-62.0746, 10.6415], [-62.0632, 10.6321], [-62.0488, 10.641], [-62.0468, 10.6326], [-62.0343, 10.6313], [-62.0246, 10.644], [-62.0151, 10.6446], [-62.0135, 10.6379], [-61.9968, 10.641], [-61.9879, 10.6518], [-61.9771, 10.6421], [-61.9549, 10.6435], [-61.934, 10.664], [-61.9249, 10.6563], [-61.9015, 10.6649], [-61.9099, 10.6765], [-61.8974, 10.6957], [-61.8999, 10.6771], [-61.8879, 10.676], [-61.8771, 10.7004], [-61.8787, 10.7229], [-61.8474, 10.7343], [-61.8637, 10.7451], [-61.8765, 10.7296], [-61.8894, 10.7303]]]}}]}