{"type": "FeatureCollection", "features": [{"type": "Feature", "properties": {"municipio": "Andrés Bello", "estado": "Táchira", "gid": "VEN.21.1_1"}, "geometry": {"type": "Polygon", "coordinates": [[[-72.0824, 7.8663], [-72.0653, 7.89], [-72.0608, 7.9179], [-72.0677, 7.9274], [-72.1301, 7.9448], [-72.1394, 7.9311], [-72.1822, 7.9023], [-72.1767, 7.9004], [-72.1897, 7.8888], [-72.2011, 7.8749], [-72.1778, 7.8345], [-72.1469, 7.8324], [-72.0975, 7.8025], [-72.0987, 7.839], [-72.0824, 7.8663]]]}}, {"type": "Feature", "properties": {"municipio": "Antonio Rómulo Costa", "estado": "Táchira", "gid": "VEN.21.2_1"}, "geometry": {"type": "Polygon", "coordinates": [[[-72.1793, 8.1031], [-72.1617, 8.1245], [-72.1265, 8.1795], [-72.109, 8.2502], [-72.0924, 8.2498], [-72.0871, 8.2526], [-72.0893, 8.2726], [-72.0993, 8.2843], [-72.131, 8.2911], [-72.2187, 8.1932], [-72.2043, 8.1889], [-72.1788, 8.1256], [-72.1793, 8.1031]]]}}, {"type": "Feature", "properties": {"municipio": "Ayacucho", "estado": "Táchira", "gid": "VEN.21.3_1"}, "geometry": {"type": "Polygon", "coordinates": [[[-72.3923, 8.3286], [-72.3959, 8.3253], [-72.3823, 8.3161], [-72.3809, 8.306], [-72.387, 8.3035], [-72.3856, 8.2779], [-72.3945, 8.2519], [-72.3816, 8.2464], [-72.3874, 8.2416], [-72.37, 8.2007], [-72.375, 8.1949], [-72.3634, 8.1913], [-72.3674, 8.1851], [-72.3554, 8.1655], [-72.3554, 8.1544], [-72.3677, 8.1427], [-72.359, 8.1202], [-72.3749, 8.1074], [-72.3703, 8.0936], [-72.3508, 8.0802], [-72.3465, 8.0369], [-72.3552, 8.0266], [-72.3476, 8.018], [-72.3492, 8.0052], [-72.3312, 8.0032], [-72.2639, 7.98], [-72.2545, 8.018], [-72.2378, 8.0054], [-72.2148, 8.0074], [-72.1852, 8.0181], [-72.161, 8.048], [-72.1456, 8.0936], [-72.1793, 8.1026], [-72.1788, 8.1256], [-72.2043, 8.1889], [-72.251, 8.1973], [-72.2678, 8.2013], [-72.2907, 8.2334], [-72.3155, 8.2472], [-72.328, 8.2997], [-72.3453, 8.3177], [-72.3869, 8.3253], [-72.3923, 8.3286]]]}}, {"type": "Feature", "properties": {"municipio": "Bolívar", "estado": "Táchira", "gid": "VEN.21.4_1"}, "geometry": {"type": "Polygon", "coordinates": [[[-72.4762, 7.6471], [-72.4561, 7.6497], [-72.4379, 7.6447], [-72.4337, 7.667], [-72.4055, 7.6802], [-72.4188, 7.7034], [-72.3849, 7.7553], [-72.3725, 7.7629], [-72.3484, 7.7608], [-72.3556, 7.784], [-72.3911, 7.8253], [-72.4067, 7.8531], [-72.4331, 7.8563], [-72.445, 7.8595], [-72.4475, 7.8283], [-72.4672, 7.7943], [-72.4733, 7.7581], [-72.4699, 7.7043], [-72.4762, 7.6471]]]}}, {"type": "Feature", "properties": {"municipio": "Cárdenas", "estado": "Táchira", "gid": "VEN.21.5_1"}, "geometry": {"type": "Polygon", "coordinates": [[[-72.1778, 7.8345], [-72.2479, 7.7963], [-72.2899, 7.795], [-72.2935, 7.7843], [-72.2935, 7.7753], [-72.2916, 7.7692], [-72.2739, 7.7507], [-72.254, 7.7675], [-72.2371, 7.7719], [-72.1267, 7.7754], [-72.0682, 7.741], [-72.0602, 7.6916], [-72.0552, 7.677], [-72.0484, 7.6634], [-72.0421, 7.6694], [-72.0039, 7.6833], [-71.9776, 7.703], [-71.9584, 7.7376], [-71.9495, 7.7401], [-71.9455, 7.7358], [-71.9449, 7.7464], [-71.9536, 7.7764], [-71.9956, 7.7919], [-72.0283, 7.8372], [-72.0446, 7.8404], [-72.0632, 7.8324], [-72.0824, 7.8663], [-72.0987, 7.839], [-72.0975, 7.8025], [-72.1469, 7.8324], [-72.1778, 7.8345]]]}}, {"type": "Feature", "properties": {"municipio": "Córdoba", "estado": "Táchira", "gid": "VEN.21.6_1"}, "geometry": {"type": "Polygon", "coordinates": [[[-72.1638, 7.417], [-72.1284, 7.4208], [-72.0481, 7.4758], [-72.0466, 7.4887], [-72.08, 7.4931], [-72.0991, 7.5149], [-72.1476, 7.5313], [-72.1726, 7.5592], [-72.2143, 7.5996], [-72.251, 7.6439], [-72.2793, 7.6693], [-72.2995, 7.6527], [-72.2929, 7.6175], [-72.3539, 7.6151], [-72.3289, 7.5343], [-72.3297, 7.5169], [-72.3572, 7.4684], [-72.3384, 7.4712], [-72.2481, 7.4618], [-72.1638, 7.417]]]}}, {"type": "Feature", "properties": {"municipio": "Fernández Feo", "estado": "Táchira", "gid": "VEN.21.7_1"}, "geometry": {"type": "Polygon", "coordinates": [[[-71.8049, 7.4365], [-71.8267, 7.4611], [-71.8677, 7.4776], [-71.8615, 7.4886], [-71.8262, 7.5013], [-71.8114, 7.5021], [-71.8152, 7.5085], [-71.8008, 7.5499], [-71.7854, 7.5668], [-71.7926, 7.577], [-71.7896, 7.5899], [-71.7596, 7.644], [-71.7593, 7.666], [-71.7636, 7.6716], [-71.7652, 7.6677], [-71.8163, 7.618], [-71.8832, 7.5859], [-71.9187, 7.6335], [-71.9548, 7.6529], [-71.9595, 7.694], [-71.9642, 7.7069], [-71.9704, 7.716], [-71.9776, 7.703], [-72.0039, 7.6833], [-72.0421, 7.6694], [-72.0603, 7.6527], [-72.0655, 7.6375], [-72.0589, 7.6026], [-72.0766, 7.5883], [-72.1141, 7.5788], [-72.1575, 7.5882], [-72.1787, 7.5806], [-72.1882, 7.5736], [-72.1726, 7.5592], [-72.1476, 7.5313], [-72.0991, 7.5149], [-72.08, 7.4931], [-72.0466, 7.4887], [-72.0481, 7.4758], [-72.1284, 7.4208], [-72.1638, 7.417], [-72.1123, 7.3785], [-72.0651, 7.3493], [-71.9752, 7.3206], [-71.947, 7.3253], [-71.8877, 7.3529], [-71.8231, 7.4293], [-71.8049, 7.4365]]]}}, {"type": "Feature", "properties": {"municipio": "Franciscode Miranda", "estado": "Táchira", "gid": "VEN.21.8_1"}, "geometry": {"type": "Polygon", "coordinates": [[[-71.9616, 8.0134], [-71.9422, 7.9975], [-71.941, 7.9408], [-71.9651, 7.8616], [-71.8974, 7.8538], [-71.8673, 7.8212], [-71.8205, 7.7923], [-71.8023, 7.805], [-71.7654, 7.8438], [-71.7774, 7.8994], [-71.8232, 7.9161], [-71.8758, 7.9664], [-71.8905, 8.0164], [-71.8948, 8.0298], [-71.941, 8.0338], [-71.9616, 8.0134]]]}}, {"type": "Feature", "properties": {"municipio": "Garcíade Hevia", "estado": "Táchira", "gid": "VEN.21.9_1"}, "geometry": {"type": "Polygon", "coordinates": [[[-72.3923, 8.3286], [-72.3869, 8.3253], [-72.3453, 8.3177], [-72.328, 8.2997], [-72.3155, 8.2472], [-72.2907, 8.2334], [-72.2678, 8.2013], [-72.251, 8.1973], [-72.2187, 8.1932], [-72.131, 8.2911], [-72.1376, 8.2943], [-72.1529, 8.3229], [-72.1469, 8.3318], [-72.1157, 8.3452], [-72.1162, 8.3701], [-72.1411, 8.4038], [-72.1447, 8.4441], [-72.1767, 8.476], [-72.1765, 8.5047], [-72.1813, 8.5332], [-72.1907, 8.5431], [-72.2122, 8.5563], [-72.2236, 8.556], [-72.2893, 8.5694], [-72.3324, 8.5587], [-72.3625, 8.5396], [-72.3779, 8.513], [-72.3761, 8.4696], [-72.4098, 8.4359], [-72.4274, 8.3823], [-72.4088, 8.3744], [-72.4151, 8.3635], [-72.4077, 8.3667], [-72.4034, 8.356], [-72.3924, 8.3572], [-72.3923, 8.3286]]]}}, {"type": "Feature", "properties": {"municipio": "Guasimos", "estado": "Táchira", "gid": "VEN.21.10_1"}, "geometry": {"type": "Polygon", "coordinates": [[[-72.2011, 7.8749], [-72.2065, 7.8699], [-72.2815, 7.8426], [-72.2842, 7.7967], [-72.2479, 7.7963], [-72.1778, 7.8345], [-72.2011, 7.8749]]]}}, {"type": "Feature", "properties": {"municipio": "Independencia", "estado": "Táchira", "gid": "VEN.21.11_1"}, "geometry": {"type": "Polygon", "coordinates": [[[-72.2842, 7.7967], [-72.2815, 7.8426], [-72.3106, 7.8443], [-72.3326, 7.8517], [-72.3357, 7.8038], [-72.3097, 7.7386], [-72.2973, 7.717], [-72.2761, 7.694], [-72.3025, 7.7475], [-72.3002, 7.7577], [-72.2871, 7.7644], [-72.2929, 7.772], [-72.2935, 7.7843], [-72.2899, 7.795], [-72.2842, 7.7967]]]}}, {"type": "Feature", "properties": {"municipio": "Jauregui", "estado": "Táchira", "gid": "VEN.21.12_1"}, "geometry": {"type": "Polygon", "coordinates": [[[-71.8282, 8.3018], [-71.8544, 8.3125], [-71.8624, 8.3624], [-71.8816, 8.3931], [-71.8929, 8.4], [-71.9149, 8.4188], [-71.9529, 8.423], [-71.9751, 8.4096], [-71.998, 8.3793], [-72.02, 8.3568], [-71.9858, 8.3511], [-71.9719, 8.3392], [-71.9334, 8.2847], [-71.9335, 8.2735], [-71.9821, 8.212], [-72.0146, 8.2092], [-72.0263, 8.2105], [-72.0264, 8.1516], [-72.035, 8.1324], [-71.9979, 8.1221], [-71.9917, 8.1164], [-71.9932, 8.0737], [-72.0036, 8.029], [-72.0198, 8.0101], [-72.0139, 8.0167], [-71.9941, 8.0245], [-71.9698, 8.0196], [-71.9616, 8.0134], [-71.941, 8.0338], [-71.8948, 8.0298], [-71.8992, 8.0574], [-71.898, 8.0842], [-71.8939, 8.1103], [-71.8869, 8.1326], [-71.881, 8.1587], [-71.8904, 8.1653], [-71.8985, 8.1774], [-71.9, 8.2073], [-71.8472, 8.2681], [-71.8282, 8.3018]]]}}, {"type": "Feature", "properties": {"municipio": "José María Vargas", "estado": "Táchira", "gid": "VEN.21.13_1"}, "geometry": {"type": "Polygon", "coordinates": [[[-72.0738, 7.9294], [-72.0213, 8.0081], [-72.0036, 8.029], [-71.9932, 8.0737], [-71.9917, 8.1135], [-71.9932, 8.1188], [-71.9979, 8.1221], [-72.035, 8.1324], [-72.0399, 8.1159], [-72.0437, 8.1095], [-72.0877, 8.1042], [-72.114, 8.088], [-72.1293, 8.0883], [-72.1456, 8.0936], [-72.1536, 8.0669], [-72.1438, 8.0537], [-72.1388, 8.0104], [-72.1189, 7.9918], [-72.1301, 7.9448], [-72.0738, 7.9294]]]}}, {"type": "Feature", "properties": {"municipio": "Junín", "estado": "Táchira", "gid": "VEN.21.14_1"}, "geometry": {"type": "Polygon", "coordinates": [[[-72.3572, 7.4684], [-72.3297, 7.5169], [-72.3289, 7.5343], [-72.3539, 7.6151], [-72.2929, 7.6175], [-72.2995, 7.6527], [-72.2793, 7.6693], [-72.3433, 7.7383], [-72.3484, 7.7608], [-72.3725, 7.7629], [-72.3849, 7.7553], [-72.4188, 7.7034], [-72.4055, 7.6802], [-72.4337, 7.667], [-72.4386, 7.6448], [-72.4194, 7.5976], [-72.3895, 7.5577], [-72.389, 7.506], [-72.3706, 7.4661], [-72.3572, 7.4684]]]}}, {"type": "Feature", "properties": {"municipio": "Libertad", "estado": "Táchira", "gid": "VEN.21.15_1"}, "geometry": {"type": "Polygon", "coordinates": [[[-72.3484, 7.7608], [-72.3433, 7.7383], [-72.2793, 7.6693], [-72.2702, 7.6839], [-72.2973, 7.717], [-72.3097, 7.7386], [-72.3357, 7.8038], [-72.336, 7.833], [-72.332, 7.8597], [-72.3378, 7.8679], [-72.3756, 7.8845], [-72.4001, 7.878], [-72.4005, 7.8522], [-72.4067, 7.8531], [-72.3911, 7.8253], [-72.3556, 7.784], [-72.3484, 7.7608]]]}}, {"type": "Feature", "properties": {"municipio": "Libertador", "estado": "Táchira", "gid": "VEN.21.16_1"}, "geometry": {"type": "Polygon", "coordinates": [[[-71.3516, 7.4644], [-71.3546, 7.4888], [-71.4025, 7.4982], [-71.4138, 7.5404], [-71.4345, 7.5296], [-71.4497, 7.563], [-71.507, 7.5871], [-71.5096, 7.5982], [-71.4976, 7.6319], [-71.5141, 7.6711], [-71.5188, 7.7908], [-71.5388, 7.7732], [-71.5579, 7.7125], [-71.6098, 7.8035], [-71.6349, 7.762], [-71.7148, 7.7434], [-71.7321, 7.7333], [-71.7461, 7.7136], [-71.7636, 7.6716], [-71.7593, 7.666], [-71.7596, 7.644], [-71.7896, 7.5899], [-71.7926, 7.577], [-71.7854, 7.5668], [-71.8008, 7.5499], [-71.8152, 7.5085], [-71.8114, 7.5021], [-71.7893, 7.5009], [-71.7374, 7.4897], [-71.6952, 7.4963], [-71.5911, 7.4725], [-71.4963, 7.4605], [-71.4234, 7.4633], [-71.3995, 7.4502], [-71.3516, 7.4644]]]}}, {"type": "Feature", "properties": {"municipio": "Lobatera", "estado": "Táchira", "gid": "VEN.21.17_1"}, "geometry": {"type": "Polygon", "coordinates": [[[-72.3564, 8.0069], [-72.3952, 7.9361], [-72.387, 7.9325], [-72.3756, 7.8845], [-72.3378, 7.8679], [-72.332, 7.8597], [-72.3326, 7.8517], [-72.3106, 7.8443], [-72.2815, 7.8426], [-72.2065, 7.8699], [-72.1897, 7.8888], [-72.1767, 7.9004], [-72.1822, 7.9023], [-72.1394, 7.9311], [-72.1301, 7.9448], [-72.1742, 7.9503], [-72.216, 7.9406], [-72.2545, 7.9424], [-72.2636, 7.9492], [-72.2639, 7.98], [-72.3312, 8.0032], [-72.3505, 8.0033], [-72.3564, 8.0069]]]}}, {"type": "Feature", "properties": {"municipio": "Michelena", "estado": "Táchira", "gid": "VEN.21.18_1"}, "geometry": {"type": "Polygon", "coordinates": [[[-72.2639, 7.98], [-72.2636, 7.9492], [-72.2545, 7.9424], [-72.216, 7.9406], [-72.1742, 7.9503], [-72.1301, 7.9448], [-72.1189, 7.9918], [-72.1388, 8.0104], [-72.1438, 8.0537], [-72.1536, 8.0669], [-72.161, 8.048], [-72.1852, 8.0181], [-72.2148, 8.0074], [-72.2378, 8.0054], [-72.2545, 8.018], [-72.2639, 7.98]]]}}, {"type": "Feature", "properties": {"municipio": "Panamericano", "estado": "Táchira", "gid": "VEN.21.19_1"}, "geometry": {"type": "Polygon", "coordinates": [[[-72.1157, 8.3452], [-72.071, 8.3471], [-72.0482, 8.3566], [-72.0231, 8.3414], [-72.0202, 8.3566], [-71.998, 8.3793], [-71.9751, 8.4096], [-71.9529, 8.423], [-71.9149, 8.4188], [-71.9244, 8.4297], [-71.929, 8.4821], [-71.9535, 8.5058], [-71.9495, 8.5565], [-71.9978, 8.5861], [-72.0034, 8.5743], [-72.0425, 8.5662], [-72.1968, 8.5566], [-72.2122, 8.5563], [-72.1907, 8.5431], [-72.1813, 8.5332], [-72.1765, 8.5047], [-72.1767, 8.476], [-72.1447, 8.4441], [-72.1411, 8.4038], [-72.1162, 8.3701], [-72.1157, 8.3452]]]}}, {"type": "Feature", "properties": {"municipio": "Pedro María Ureña", "estado": "Táchira", "gid": "VEN.21.20_1"}, "geometry": {"type": "Polygon", "coordinates": [[[-72.3564, 8.0069], [-72.3832, 8.0337], [-72.4158, 8.0335], [-72.4204, 7.9957], [-72.4276, 7.9894], [-72.4389, 7.9919], [-72.4474, 7.9686], [-72.4756, 7.9601], [-72.4879, 7.9443], [-72.4849, 7.9311], [-72.4583, 7.9117], [-72.463, 7.9085], [-72.4582, 7.8816], [-72.445, 7.8595], [-72.4331, 7.8563], [-72.4005, 7.8522], [-72.4001, 7.878], [-72.3756, 7.8845], [-72.387, 7.9325], [-72.3952, 7.9361], [-72.3564, 8.0069]]]}}, {"type": "Feature", "properties": {"municipio": "Rafael Urdaneta", "estado": "Táchira", "gid": "VEN.21.21_1"}, "geometry": {"type": "Polygon", "coordinates": [[[-72.4414, 7.4367], [-72.3861, 7.4629], [-72.3706, 7.4661], [-72.389, 7.506], [-72.3895, 7.5577], [-72.4194, 7.5976], [-72.4386, 7.6448], [-72.4561, 7.6497], [-72.4762, 7.6471], [-72.4518, 7.5586], [-72.4734, 7.5182], [-72.4743, 7.4896], [-72.4479, 7.4633], [-72.4414, 7.4367]]]}}, {"type": "Feature", "properties": {"municipio": "Samuel Dario Maldonado", "estado": "Táchira", "gid": "VEN.21.22_1"}, "geometry": {"type": "Polygon", "coordinates": [[[-71.9705, 8.6356], [-71.9827, 8.6591], [-72.0016, 8.6638], [-71.9961, 8.6285], [-71.9978, 8.5861], [-71.9495, 8.5565], [-71.9535, 8.5058], [-71.929, 8.4821], [-71.9244, 8.4297], [-71.8929, 8.4], [-71.8816, 8.3931], [-71.8711, 8.3764], [-71.8531, 8.4173], [-71.7956, 8.4211], [-71.792, 8.4342], [-71.7644, 8.4756], [-71.768, 8.5114], [-71.8011, 8.5764], [-71.8277, 8.6053], [-71.9244, 8.617], [-71.9549, 8.6268], [-71.9705, 8.6356]]]}}, {"type": "Feature", "properties": {"municipio": "San Cristóbal", "estado": "Táchira", "gid": "VEN.21.23_1"}, "geometry": {"type": "Polygon", "coordinates": [[[-72.2871, 7.7644], [-72.3002, 7.7577], [-72.3025, 7.7475], [-72.2702, 7.6839], [-72.2793, 7.6693], [-72.251, 7.6439], [-72.2425, 7.6331], [-72.23, 7.6484], [-72.2243, 7.6598], [-72.2215, 7.6902], [-72.212, 7.6902], [-72.1845, 7.6683], [-72.1038, 7.6617], [-72.1009, 7.6493], [-72.0762, 7.6579], [-72.061, 7.6617], [-72.0499, 7.6621], [-72.0484, 7.6634], [-72.0552, 7.677], [-72.0602, 7.6916], [-72.0682, 7.741], [-72.1267, 7.7754], [-72.2371, 7.7719], [-72.254, 7.7675], [-72.2739, 7.7507], [-72.2871, 7.7644]]]}}, {"type": "Feature", "properties": {"municipio": "San Judas Tadeo", "estado": "Táchira", "gid": "VEN.21.24_1"}, "geometry": {"type": "Polygon", "coordinates": [[[-72.0871, 8.2526], [-72.0646, 8.2423], [-72.0414, 8.2136], [-72.0146, 8.2092], [-71.9821, 8.212], [-71.9335, 8.2735], [-71.9334, 8.2847], [-71.9719, 8.3392], [-71.9858, 8.3511], [-72.02, 8.3568], [-72.0231, 8.3414], [-72.0492, 8.3566], [-72.071, 8.3471], [-72.1181, 8.3452], [-72.1469, 8.3318], [-72.1529, 8.3229], [-72.1376, 8.2943], [-72.0993, 8.2843], [-72.0893, 8.2726], [-72.0871, 8.2526]]]}}, {"type": "Feature", "properties": {"municipio": "Seboruco", "estado": "Táchira", "gid": "VEN.21.25_1"}, "geometry": {"type": "Polygon", "coordinates": [[[-72.1793, 8.1031], [-72.1293, 8.0883], [-72.114, 8.088], [-72.0877, 8.1042], [-72.0437, 8.1095], [-72.0399, 8.1159], [-72.0358, 8.1304], [-72.0264, 8.1516], [-72.0263, 8.2105], [-72.0414, 8.2136], [-72.0646, 8.2423], [-72.0871, 8.2526], [-72.0924, 8.2498], [-72.109, 8.2502], [-72.1265, 8.1795], [-72.1617, 8.1245], [-72.1793, 8.1031]]]}}, {"type": "Feature", "properties": {"municipio": "Simón Rodriguez", "estado": "Táchira", "gid": "VEN.21.26_1"}, "geometry": {"type": "Polygon", "coordinates": [[[-71.8257, 8.3104], [-71.8201, 8.3573], [-71.8003, 8.397], [-71.7956, 8.4211], [-71.8531, 8.4173], [-71.8711, 8.3764], [-71.8624, 8.3624], [-71.8544, 8.3125], [-71.8282, 8.3018], [-71.8257, 8.3104]]]}}, {"type": "Feature", "properties": {"municipio": "Sucre", "estado": "Táchira", "gid": "VEN.21.27_1"}, "geometry": {"type": "Polygon", "coordinates": [[[-72.0824, 7.8663], [-72.0632, 7.8324], [-72.0446, 7.8404], [-72.0283, 7.8372], [-71.9956, 7.7919], [-71.9536, 7.7764], [-71.9449, 7.7464], [-71.9455, 7.7358], [-71.94, 7.7308], [-71.8427, 7.7714], [-71.8302, 7.7854], [-71.8205, 7.7923], [-71.8673, 7.8212], [-71.8974, 7.8538], [-71.9651, 7.8616], [-71.941, 7.9408], [-71.9422, 7.9975], [-71.9698, 8.0196], [-71.9941, 8.0245], [-72.0139, 8.0167], [-72.0213, 8.0081], [-72.0738, 7.9294], [-72.0677, 7.9274], [-72.0608, 7.9179], [-72.0653, 7.89], [-72.0824, 7.8663]]]}}, {"type": "Feature", "properties": {"municipio": "Torbes", "estado": "Táchira", "gid": "VEN.21.28_1"}, "geometry": {"type": "Polygon", "coordinates": [[[-72.1882, 7.5736], [-72.1787, 7.5806], [-72.1575, 7.5882], [-72.1141, 7.5788], [-72.0766, 7.5883], [-72.0589, 7.6026], [-72.0655, 7.6375], [-72.0603, 7.6527], [-72.0499, 7.6621], [-72.061, 7.6617], [-72.0762, 7.6579], [-72.1009, 7.6493], [-72.1038, 7.6617], [-72.1845, 7.6683], [-72.212, 7.6902], [-72.2215, 7.6902], [-72.2243, 7.6598], [-72.23, 7.6484], [-72.2425, 7.6331], [-72.2143, 7.5996], [-72.1882, 7.5736]]]}}, {"type": "Feature", "properties": {"municipio": "Uribante", "estado": "Táchira", "gid": "VEN.21.29_1"}, "geometry": {"type": "Polygon", "coordinates": [[[-71.5673, 7.9879], [-71.6377, 7.9718], [-71.6567, 7.975], [-71.6778, 7.9941], [-71.6914, 8.0242], [-71.7416, 8.069], [-71.7689, 8.1085], [-71.7946, 8.1313], [-71.8723, 8.1525], [-71.881, 8.1587], [-71.8869, 8.1326], [-71.8939, 8.1103], [-71.8992, 8.0705], [-71.8983, 8.0466], [-71.8905, 8.0164], [-71.8758, 7.9664], [-71.8232, 7.9161], [-71.7774, 7.8994], [-71.7654, 7.8438], [-71.8023, 7.805], [-71.8302, 7.7854], [-71.8427, 7.7714], [-71.94, 7.7308], [-71.9495, 7.7401], [-71.9584, 7.7376], [-71.9704, 7.716], [-71.9642, 7.7069], [-71.9595, 7.694], [-71.9548, 7.6529], [-71.9187, 7.6335], [-71.8832, 7.5859], [-71.8163, 7.618], [-71.7652, 7.6677], [-71.7461, 7.7136], [-71.7321, 7.7333], [-71.7148, 7.7434], [-71.6349, 7.762], [-71.6098, 7.8035], [-71.5579, 7.7125], [-71.5388, 7.7732], [-71.5188, 7.7908], [-71.519, 7.8967], [-71.5251, 7.915], [-71.5614, 7.9576], [-71.5673, 7.9879]]]}}]}