{"type": "FeatureCollection", "features": [{"type": "Feature", "properties": {"municipio": "Andrés Bello", "estado": "Trujillo", "gid": "VEN.22.1_1"}, "geometry": {"type": "Polygon", "coordinates": [[[-70.6692, 9.7738], [-70.6973, 9.7619], [-70.765, 9.6908], [-70.8236, 9.6312], [-70.8174, 9.6272], [-70.8072, 9.6159], [-70.6612, 9.6033], [-70.631, 9.7322], [-70.6409, 9.7494], [-70.6398, 9.7667], [-70.6692, 9.7738]]]}}, {"type": "Feature", "properties": {"municipio": "Boconó", "estado": "Trujillo", "gid": "VEN.22.2_1"}, "geometry": {"type": "Polygon", "coordinates": [[[-70.1976, 9.0468], [-70.2032, 9.0858], [-70.1978, 9.1031], [-70.1291, 9.1481], [-70.1183, 9.164], [-70.1154, 9.226], [-70.1052, 9.2553], [-70.0843, 9.2924], [-70.0817, 9.3132], [-70.1129, 9.3455], [-70.1091, 9.3968], [-70.1027, 9.4317], [-70.1205, 9.4402], [-70.1269, 9.4559], [-70.1077, 9.478], [-70.0813, 9.4979], [-70.0806, 9.5178], [-70.1174, 9.5638], [-70.1567, 9.5202], [-70.186, 9.4975], [-70.1921, 9.4695], [-70.2356, 9.4773], [-70.2542, 9.5144], [-70.2731, 9.5173], [-70.3048, 9.4796], [-70.3196, 9.4718], [-70.3046, 9.4645], [-70.2912, 9.4349], [-70.2826, 9.4165], [-70.3101, 9.3835], [-70.3723, 9.3205], [-70.4093, 9.2575], [-70.418, 9.2548], [-70.4254, 9.2367], [-70.4456, 9.2298], [-70.4521, 9.2137], [-70.4417, 9.1747], [-70.4632, 9.1627], [-70.498, 9.1579], [-70.5388, 9.13], [-70.546, 9.0978], [-70.5705, 9.0895], [-70.5891, 9.0615], [-70.5641, 9.0384], [-70.5404, 8.9988], [-70.4632, 9.0579], [-70.4459, 9.0654], [-70.4125, 9.0649], [-70.3632, 9.0801], [-70.2732, 9.0814], [-70.2514, 9.0905], [-70.236, 9.0855], [-70.2121, 9.0676], [-70.1976, 9.0468]]]}}, {"type": "Feature", "properties": {"municipio": "Bolívar", "estado": "Trujillo", "gid": "VEN.22.3_1"}, "geometry": {"type": "Polygon", "coordinates": [[[-70.7896, 9.3043], [-70.793, 9.3148], [-70.7958, 9.344], [-70.7609, 9.3675], [-70.7716, 9.3903], [-70.7545, 9.4167], [-70.7559, 9.451], [-70.7817, 9.4691], [-70.8145, 9.5029], [-70.8347, 9.5081], [-70.851, 9.498], [-70.9056, 9.4518], [-70.9063, 9.3935], [-70.9086, 9.3689], [-70.8643, 9.359], [-70.8407, 9.3542], [-70.8292, 9.3177], [-70.8246, 9.3032], [-70.799, 9.3029], [-70.7896, 9.3043]]]}}, {"type": "Feature", "properties": {"municipio": "Candelaria", "estado": "Trujillo", "gid": "VEN.22.4_1"}, "geometry": {"type": "Polygon", "coordinates": [[[-70.2921, 9.5904], [-70.2888, 9.591], [-70.2906, 9.639], [-70.2829, 9.6874], [-70.3055, 9.7002], [-70.344, 9.7009], [-70.3774, 9.7124], [-70.429, 9.6944], [-70.4433, 9.7067], [-70.493, 9.7132], [-70.4106, 9.7777], [-70.3825, 9.8283], [-70.3805, 9.8359], [-70.3803, 9.8528], [-70.5598, 9.7646], [-70.5565, 9.766], [-70.5268, 9.737], [-70.5305, 9.6951], [-70.5499, 9.6884], [-70.545, 9.6565], [-70.5321, 9.6513], [-70.5091, 9.6591], [-70.457, 9.6573], [-70.4419, 9.6531], [-70.4358, 9.6362], [-70.4344, 9.5821], [-70.4242, 9.5579], [-70.3926, 9.5521], [-70.3306, 9.5673], [-70.3127, 9.5525], [-70.3034, 9.5681], [-70.2921, 9.5904]]]}}, {"type": "Feature", "properties": {"municipio": "Carache", "estado": "Trujillo", "gid": "VEN.22.5_1"}, "geometry": {"type": "Polygon", "coordinates": [[[-70.0978, 9.8051], [-70.1544, 9.8185], [-70.1903, 9.8555], [-70.2148, 9.8688], [-70.2228, 9.8642], [-70.2337, 9.826], [-70.2458, 9.8211], [-70.2625, 9.8356], [-70.2827, 9.8746], [-70.3258, 9.8751], [-70.328, 9.8781], [-70.3547, 9.864], [-70.3803, 9.8528], [-70.3805, 9.8359], [-70.3825, 9.8283], [-70.4106, 9.7777], [-70.493, 9.7132], [-70.4433, 9.7067], [-70.429, 9.6944], [-70.3774, 9.7124], [-70.344, 9.7009], [-70.3055, 9.7002], [-70.2829, 9.6874], [-70.2906, 9.639], [-70.2888, 9.591], [-70.2852, 9.591], [-70.2698, 9.5358], [-70.2731, 9.5173], [-70.2542, 9.5144], [-70.2356, 9.4773], [-70.1921, 9.4695], [-70.186, 9.4975], [-70.1567, 9.5202], [-70.1224, 9.5595], [-70.1079, 9.5705], [-70.1117, 9.6103], [-70.0949, 9.6801], [-70.0786, 9.6927], [-70.0028, 9.7013], [-69.988, 9.7121], [-69.9928, 9.7357], [-70.0187, 9.7627], [-70.0668, 9.7803], [-70.0978, 9.8051]]]}}, {"type": "Feature", "properties": {"municipio": "Escuque", "estado": "Trujillo", "gid": "VEN.22.6_1"}, "geometry": {"type": "Polygon", "coordinates": [[[-70.8246, 9.3032], [-70.8244, 9.3011], [-70.8182, 9.2969], [-70.8014, 9.2785], [-70.7768, 9.2556], [-70.7564, 9.247], [-70.725, 9.247], [-70.7249, 9.2419], [-70.6951, 9.2713], [-70.6379, 9.3226], [-70.6169, 9.3671], [-70.6207, 9.403], [-70.6549, 9.4316], [-70.6596, 9.4159], [-70.6727, 9.3906], [-70.6844, 9.3765], [-70.6898, 9.3774], [-70.7206, 9.3477], [-70.7831, 9.3065], [-70.799, 9.3029], [-70.8246, 9.3032]]]}}, {"type": "Feature", "properties": {"municipio": "José Felipe Márquez Cañizalez", "estado": "Trujillo", "gid": "VEN.22.7_1"}, "geometry": {"type": "Polygon", "coordinates": [[[-70.662, 9.9007], [-70.6329, 9.8099], [-70.646, 9.783], [-70.6692, 9.7738], [-70.6398, 9.7667], [-70.6409, 9.7494], [-70.631, 9.7322], [-70.5598, 9.7646], [-70.328, 9.8781], [-70.3327, 9.8844], [-70.3528, 9.9229], [-70.4106, 9.9155], [-70.4356, 9.8977], [-70.4583, 9.8914], [-70.4924, 9.9177], [-70.5217, 9.9273], [-70.5579, 9.9776], [-70.5642, 10.0176], [-70.6002, 10.0362], [-70.6173, 10.0317], [-70.6475, 9.9804], [-70.6622, 9.9364], [-70.662, 9.9007]]]}}, {"type": "Feature", "properties": {"municipio": "Juan Vicente Campos Elías", "estado": "Trujillo", "gid": "VEN.22.8_1"}, "geometry": {"type": "Polygon", "coordinates": [[[-70.1079, 9.5705], [-70.1174, 9.5638], [-70.0806, 9.5178], [-70.0813, 9.4979], [-70.1077, 9.478], [-70.1269, 9.4559], [-70.1205, 9.4402], [-70.1027, 9.4317], [-70.1091, 9.3968], [-70.1091, 9.3837], [-70.1086, 9.3885], [-70.0518, 9.4396], [-70.0193, 9.4758], [-70.1079, 9.5705]]]}}, {"type": "Feature", "properties": {"municipio": "La Ceiba", "estado": "Trujillo", "gid": "VEN.22.9_1"}, "geometry": {"type": "Polygon", "coordinates": [[[-70.9055, 9.4519], [-70.9045, 9.5929], [-70.9454, 9.599], [-71.0607, 9.6131], [-71.0676, 9.5765], [-71.0854, 9.5485], [-71.0774, 9.4985], [-71.0974, 9.4896], [-71.0779, 9.4913], [-71.0685, 9.481], [-71.0704, 9.3818], [-71.0098, 9.4121], [-70.9809, 9.412], [-70.9686, 9.3886], [-70.9311, 9.3727], [-70.9086, 9.3689], [-70.9063, 9.3935], [-70.9055, 9.4519]]]}}, {"type": "Feature", "properties": {"municipio": "Miranda", "estado": "Trujillo", "gid": "VEN.22.10_1"}, "geometry": {"type": "Polygon", "coordinates": [[[-70.8072, 9.6159], [-70.8002, 9.5964], [-70.8077, 9.5532], [-70.7874, 9.546], [-70.7579, 9.5053], [-70.7033, 9.4691], [-70.6548, 9.4698], [-70.6512, 9.4599], [-70.6362, 9.473], [-70.6129, 9.4893], [-70.6306, 9.5336], [-70.6283, 9.589], [-70.6096, 9.5955], [-70.5861, 9.6175], [-70.5684, 9.6436], [-70.5413, 9.654], [-70.545, 9.6565], [-70.5499, 9.6884], [-70.5305, 9.6951], [-70.5268, 9.737], [-70.5565, 9.766], [-70.631, 9.7322], [-70.6612, 9.6033], [-70.8072, 9.6159]]]}}, {"type": "Feature", "properties": {"municipio": "Monte Carmelo", "estado": "Trujillo", "gid": "VEN.22.11_1"}, "geometry": {"type": "Polygon", "coordinates": [[[-70.8042, 9.1125], [-70.727, 9.2292], [-70.725, 9.247], [-70.7564, 9.247], [-70.769, 9.2513], [-70.7837, 9.2617], [-70.8182, 9.2969], [-70.8244, 9.3011], [-70.8292, 9.3177], [-70.8407, 9.3542], [-70.8643, 9.359], [-70.9311, 9.3727], [-70.9686, 9.3886], [-70.9809, 9.412], [-71.0098, 9.4121], [-71.0704, 9.3818], [-71.0521, 9.3391], [-71.0227, 9.3509], [-70.9941, 9.3475], [-70.9739, 9.3492], [-70.9198, 9.3023], [-70.879, 9.1249], [-70.8173, 9.1144], [-70.8042, 9.1125]]]}}, {"type": "Feature", "properties": {"municipio": "Motatán", "estado": "Trujillo", "gid": "VEN.22.12_1"}, "geometry": {"type": "Polygon", "coordinates": [[[-70.6178, 9.3928], [-70.5967, 9.4017], [-70.566, 9.4904], [-70.5612, 9.507], [-70.5633, 9.5185], [-70.5867, 9.5748], [-70.6035, 9.6], [-70.6096, 9.5955], [-70.6283, 9.589], [-70.6306, 9.5336], [-70.6129, 9.4893], [-70.6362, 9.473], [-70.6512, 9.4599], [-70.6516, 9.4539], [-70.6611, 9.4449], [-70.6713, 9.4418], [-70.6479, 9.4265], [-70.6207, 9.403], [-70.6178, 9.3928]]]}}, {"type": "Feature", "properties": {"municipio": "Pampán", "estado": "Trujillo", "gid": "VEN.22.13_1"}, "geometry": {"type": "Polygon", "coordinates": [[[-70.2731, 9.5173], [-70.2698, 9.5358], [-70.2852, 9.591], [-70.2921, 9.5904], [-70.3034, 9.5681], [-70.3127, 9.5525], [-70.3306, 9.5673], [-70.3926, 9.5521], [-70.4242, 9.5579], [-70.4344, 9.5821], [-70.4358, 9.6362], [-70.4419, 9.6531], [-70.457, 9.6573], [-70.5091, 9.6591], [-70.5321, 9.6513], [-70.5413, 9.654], [-70.5684, 9.6436], [-70.5861, 9.6175], [-70.6035, 9.6], [-70.5867, 9.5748], [-70.5736, 9.5476], [-70.5366, 9.5243], [-70.5152, 9.4885], [-70.4756, 9.4731], [-70.4294, 9.4715], [-70.4136, 9.4742], [-70.4028, 9.479], [-70.3597, 9.4748], [-70.3404, 9.4617], [-70.3048, 9.4796], [-70.2731, 9.5173]]]}}, {"type": "Feature", "properties": {"municipio": "Pampanito", "estado": "Trujillo", "gid": "VEN.22.14_1"}, "geometry": {"type": "Polygon", "coordinates": [[[-70.563, 9.5007], [-70.5327, 9.4686], [-70.5341, 9.4266], [-70.5444, 9.4158], [-70.5372, 9.4039], [-70.518, 9.4035], [-70.5073, 9.4242], [-70.4521, 9.4131], [-70.445, 9.4309], [-70.4553, 9.4441], [-70.4518, 9.4569], [-70.4208, 9.4591], [-70.4204, 9.4658], [-70.4243, 9.4731], [-70.4294, 9.4715], [-70.4756, 9.4731], [-70.5152, 9.4885], [-70.5366, 9.5243], [-70.5736, 9.5476], [-70.5633, 9.5185], [-70.5612, 9.507], [-70.563, 9.5007]]]}}, {"type": "Feature", "properties": {"municipio": "Rafael Rangel", "estado": "Trujillo", "gid": "VEN.22.15_1"}, "geometry": {"type": "Polygon", "coordinates": [[[-70.7896, 9.3043], [-70.7831, 9.3065], [-70.7206, 9.3477], [-70.6898, 9.3774], [-70.6844, 9.3765], [-70.6675, 9.3987], [-70.6553, 9.4269], [-70.6549, 9.4316], [-70.6713, 9.4418], [-70.6924, 9.4388], [-70.7271, 9.4403], [-70.7559, 9.451], [-70.7545, 9.4167], [-70.7716, 9.3903], [-70.7609, 9.3675], [-70.7958, 9.344], [-70.793, 9.3148], [-70.7896, 9.3043]]]}}, {"type": "Feature", "properties": {"municipio": "San Rafaelde Carvajal", "estado": "Trujillo", "gid": "VEN.22.16_1"}, "geometry": {"type": "Polygon", "coordinates": [[[-70.5967, 9.4017], [-70.5947, 9.3196], [-70.5768, 9.3105], [-70.5696, 9.3208], [-70.5513, 9.3393], [-70.5594, 9.3825], [-70.5544, 9.4015], [-70.5489, 9.4105], [-70.5341, 9.4266], [-70.5327, 9.4686], [-70.563, 9.5007], [-70.566, 9.4904], [-70.5967, 9.4017]]]}}, {"type": "Feature", "properties": {"municipio": "Sucre", "estado": "Trujillo", "gid": "VEN.22.17_1"}, "geometry": {"type": "Polygon", "coordinates": [[[-70.8236, 9.6312], [-70.8401, 9.6136], [-70.8761, 9.5963], [-70.9045, 9.5929], [-70.9055, 9.4519], [-70.875, 9.4785], [-70.8418, 9.5047], [-70.8347, 9.5081], [-70.8145, 9.5029], [-70.7817, 9.4691], [-70.7271, 9.4403], [-70.6924, 9.4388], [-70.6611, 9.4449], [-70.6516, 9.4539], [-70.6548, 9.4698], [-70.7033, 9.4691], [-70.7579, 9.5053], [-70.7874, 9.546], [-70.8077, 9.5532], [-70.8002, 9.5964], [-70.8174, 9.6272], [-70.8236, 9.6312]]]}}, {"type": "Feature", "properties": {"municipio": "Trujillo", "estado": "Trujillo", "gid": "VEN.22.18_1"}, "geometry": {"type": "Polygon", "coordinates": [[[-70.3196, 9.4718], [-70.3404, 9.4617], [-70.3597, 9.4748], [-70.4028, 9.479], [-70.4136, 9.4742], [-70.4243, 9.4731], [-70.4204, 9.4658], [-70.4208, 9.4591], [-70.4518, 9.4569], [-70.4553, 9.4441], [-70.445, 9.4309], [-70.4521, 9.4131], [-70.5073, 9.4242], [-70.518, 9.4035], [-70.5372, 9.4039], [-70.5444, 9.4158], [-70.5544, 9.4015], [-70.5594, 9.3825], [-70.5513, 9.3393], [-70.5543, 9.3366], [-70.5367, 9.3324], [-70.5238, 9.3265], [-70.4776, 9.2633], [-70.4456, 9.2518], [-70.4093, 9.2575], [-70.3723, 9.3205], [-70.3101, 9.3835], [-70.2898, 9.4005], [-70.2826, 9.4165], [-70.2912, 9.4349], [-70.3046, 9.4645], [-70.3196, 9.4718]]]}}, {"type": "Feature", "properties": {"municipio": "Urdaneta", "estado": "Trujillo", "gid": "VEN.22.19_1"}, "geometry": {"type": "Polygon", "coordinates": [[[-70.6735, 9.0229], [-70.5999, 9.0682], [-70.5891, 9.0615], [-70.5705, 9.0895], [-70.546, 9.0978], [-70.5388, 9.13], [-70.498, 9.1579], [-70.4632, 9.1627], [-70.4417, 9.1747], [-70.4521, 9.2137], [-70.4456, 9.2298], [-70.4254, 9.2367], [-70.418, 9.2548], [-70.4456, 9.2518], [-70.4776, 9.2633], [-70.5238, 9.3265], [-70.5367, 9.3324], [-70.5543, 9.3366], [-70.5696, 9.3208], [-70.584, 9.2897], [-70.5981, 9.2896], [-70.6103, 9.2791], [-70.6333, 9.2181], [-70.6571, 9.1901], [-70.6527, 9.1708], [-70.7031, 9.1435], [-70.7106, 9.1023], [-70.7348, 9.0644], [-70.713, 9.0329], [-70.6943, 9.0215], [-70.6735, 9.0229]]]}}, {"type": "Feature", "properties": {"municipio": "Valera", "estado": "Trujillo", "gid": "VEN.22.20_1"}, "geometry": {"type": "Polygon", "coordinates": [[[-70.8025, 9.1116], [-70.752, 9.0857], [-70.7348, 9.0644], [-70.7106, 9.1023], [-70.7031, 9.1435], [-70.6527, 9.1708], [-70.6571, 9.1901], [-70.6333, 9.2181], [-70.6103, 9.2791], [-70.5981, 9.2896], [-70.584, 9.2897], [-70.5768, 9.3105], [-70.5947, 9.3196], [-70.5967, 9.4017], [-70.6178, 9.3928], [-70.6169, 9.3671], [-70.6379, 9.3226], [-70.6951, 9.2713], [-70.7249, 9.2419], [-70.727, 9.2292], [-70.8042, 9.1125], [-70.8025, 9.1116]]]}}]}