{"type": "FeatureCollection", "features": [{"type": "Feature", "properties": {"municipio": "Arístides Bastidas", "estado": "Yaracuy", "gid": "VEN.24.1_1"}, "geometry": {"type": "Polygon", "coordinates": [[[-68.8825, 10.3582], [-68.8533, 10.34], [-68.7888, 10.2563], [-68.777, 10.2542], [-68.7799, 10.2623], [-68.7799, 10.2794], [-68.7849, 10.3015], [-68.8027, 10.3492], [-68.8184, 10.3635], [-68.8268, 10.3837], [-68.8469, 10.366], [-68.8579, 10.3614], [-68.8825, 10.3582]]]}}, {"type": "Feature", "properties": {"municipio": "Bolívar", "estado": "Yaracuy", "gid": "VEN.24.2_1"}, "geometry": {"type": "Polygon", "coordinates": [[[-68.9904, 10.3209], [-68.9555, 10.3227], [-68.923, 10.3436], [-68.9178, 10.3508], [-68.9101, 10.3573], [-68.8579, 10.3614], [-68.8469, 10.366], [-68.8194, 10.3899], [-68.7873, 10.3997], [-68.7742, 10.4052], [-68.7498, 10.4336], [-68.7392, 10.4418], [-68.6813, 10.4817], [-68.6646, 10.4879], [-68.6616, 10.5379], [-68.7015, 10.5942], [-68.6987, 10.6533], [-68.8176, 10.632], [-68.839, 10.6597], [-68.8674, 10.7058], [-68.8672, 10.6998], [-68.8703, 10.6902], [-68.9179, 10.6564], [-68.9429, 10.6059], [-68.9846, 10.5784], [-69.0262, 10.5235], [-69.0327, 10.4906], [-69.0231, 10.4622], [-68.9832, 10.47], [-68.991, 10.4089], [-68.9737, 10.3475], [-68.9784, 10.3332], [-68.9904, 10.3209]]]}}, {"type": "Feature", "properties": {"municipio": "Bruzual", "estado": "Yaracuy", "gid": "VEN.24.3_1"}, "geometry": {"type": "Polygon", "coordinates": [[[-68.8825, 10.3582], [-68.9101, 10.3573], [-68.9213, 10.3459], [-68.913, 10.3456], [-68.9103, 10.3439], [-68.9076, 10.3357], [-68.9269, 10.3014], [-68.9287, 10.2843], [-68.9089, 10.263], [-68.893, 10.2288], [-68.8524, 10.1921], [-68.84, 10.1638], [-68.807, 10.1555], [-68.7606, 10.1558], [-68.7147, 10.1969], [-68.6887, 10.2063], [-68.7362, 10.2444], [-68.746, 10.258], [-68.7582, 10.2549], [-68.7797, 10.2542], [-68.7888, 10.2563], [-68.8533, 10.34], [-68.8825, 10.3582]]]}}, {"type": "Feature", "properties": {"municipio": "Cocorote", "estado": "Yaracuy", "gid": "VEN.24.4_1"}, "geometry": {"type": "Polygon", "coordinates": [[[-68.7753, 10.4047], [-68.761, 10.3688], [-68.726, 10.3263], [-68.6981, 10.3088], [-68.6338, 10.2796], [-68.6291, 10.2685], [-68.6289, 10.2565], [-68.6195, 10.2623], [-68.6569, 10.3159], [-68.6768, 10.3368], [-68.6948, 10.3662], [-68.711, 10.4099], [-68.7129, 10.4298], [-68.7186, 10.4507], [-68.7186, 10.4559], [-68.7498, 10.4336], [-68.7753, 10.4047]]]}}, {"type": "Feature", "properties": {"municipio": "Independencia", "estado": "Yaracuy", "gid": "VEN.24.5_1"}, "geometry": {"type": "Polygon", "coordinates": [[[-68.7186, 10.4559], [-68.7186, 10.4507], [-68.7129, 10.4298], [-68.711, 10.4099], [-68.6948, 10.3662], [-68.6768, 10.3368], [-68.6569, 10.3159], [-68.6195, 10.2623], [-68.614, 10.2664], [-68.6151, 10.2931], [-68.6132, 10.314], [-68.618, 10.3615], [-68.7119, 10.4602], [-68.7186, 10.4559]]]}}, {"type": "Feature", "properties": {"municipio": "José Antonio Páez", "estado": "Yaracuy", "gid": "VEN.24.6_1"}, "geometry": {"type": "Polygon", "coordinates": [[[-68.9064, 10.0485], [-68.8903, 10.0625], [-68.8795, 10.1263], [-68.871, 10.1522], [-68.8829, 10.1681], [-68.9026, 10.1712], [-68.9216, 10.1853], [-68.9275, 10.197], [-68.925, 10.2223], [-68.9597, 10.2198], [-68.9895, 10.2005], [-68.9646, 10.1598], [-68.9582, 10.1211], [-68.9589, 10.0582], [-68.9414, 10.0684], [-68.9173, 10.0662], [-68.9064, 10.0485]]]}}, {"type": "Feature", "properties": {"municipio": "La Trinidad", "estado": "Yaracuy", "gid": "VEN.24.7_1"}, "geometry": {"type": "Polygon", "coordinates": [[[-68.715, 10.3181], [-68.72, 10.2936], [-68.6737, 10.2701], [-68.6431, 10.248], [-68.6289, 10.2565], [-68.6291, 10.2685], [-68.6338, 10.2796], [-68.6981, 10.3088], [-68.715, 10.3181]]]}}, {"type": "Feature", "properties": {"municipio": "Manuel Monge", "estado": "Yaracuy", "gid": "VEN.24.8_1"}, "geometry": {"type": "Polygon", "coordinates": [[[-68.8674, 10.7078], [-68.839, 10.6597], [-68.8176, 10.632], [-68.6987, 10.6533], [-68.7015, 10.5942], [-68.6616, 10.5379], [-68.6646, 10.4879], [-68.6442, 10.4933], [-68.6416, 10.5333], [-68.6119, 10.5853], [-68.6227, 10.6474], [-68.617, 10.661], [-68.5981, 10.6562], [-68.5829, 10.6617], [-68.5888, 10.6671], [-68.5946, 10.7211], [-68.5993, 10.7633], [-68.6022, 10.7687], [-68.6328, 10.76], [-68.7098, 10.7566], [-68.7502, 10.7638], [-68.7641, 10.7601], [-68.8051, 10.725], [-68.8407, 10.7111], [-68.8674, 10.7078]]]}}, {"type": "Feature", "properties": {"municipio": "Nirgua", "estado": "Yaracuy", "gid": "VEN.24.9_1"}, "geometry": {"type": "Polygon", "coordinates": [[[-68.3443, 10.3979], [-68.4174, 10.3829], [-68.4359, 10.3717], [-68.4544, 10.3301], [-68.445, 10.2658], [-68.5392, 10.262], [-68.5652, 10.279], [-68.5841, 10.2822], [-68.6007, 10.2756], [-68.6204, 10.2617], [-68.6495, 10.2442], [-68.6608, 10.2348], [-68.6837, 10.2092], [-68.6919, 10.2044], [-68.7147, 10.1969], [-68.7606, 10.1558], [-68.807, 10.1555], [-68.8549, 10.165], [-68.8629, 10.1605], [-68.8795, 10.1263], [-68.8903, 10.0625], [-68.9064, 10.0485], [-68.898, 10.0343], [-68.862, 10.0023], [-68.8714, 9.9864], [-68.9015, 9.9707], [-68.9193, 9.9498], [-68.9301, 9.9105], [-68.9219, 9.8949], [-68.872, 9.9124], [-68.8289, 9.9022], [-68.7533, 9.9042], [-68.7021, 9.9183], [-68.6538, 9.9448], [-68.6183, 9.9912], [-68.5809, 10.0159], [-68.5405, 10.0179], [-68.4993, 9.9976], [-68.4925, 9.9894], [-68.4905, 9.958], [-68.4763, 9.9468], [-68.4143, 9.976], [-68.3823, 10.0045], [-68.3217, 10.026], [-68.3228, 10.0517], [-68.3587, 10.176], [-68.3592, 10.2227], [-68.3417, 10.2565], [-68.3122, 10.3114], [-68.3452, 10.3876], [-68.3443, 10.3979]]]}}, {"type": "Feature", "properties": {"municipio": "Peña", "estado": "Yaracuy", "gid": "VEN.24.10_1"}, "geometry": {"type": "Polygon", "coordinates": [[[-69.1381, 10.2487], [-69.1773, 10.2264], [-69.1806, 10.1992], [-69.1725, 10.1583], [-69.1519, 10.1186], [-69.1, 10.0847], [-69.104, 10.0323], [-69.1019, 10.0157], [-69.0821, 9.9823], [-69.0675, 9.9456], [-69.0557, 9.9359], [-69.0498, 9.9422], [-69.0454, 10.0124], [-69.0267, 10.0276], [-68.9932, 10.0389], [-68.9589, 10.0582], [-68.9582, 10.1211], [-68.9646, 10.1598], [-68.9955, 10.2102], [-69.0008, 10.2234], [-69.0009, 10.2555], [-68.9835, 10.2952], [-68.9872, 10.3156], [-68.9917, 10.3198], [-69.0028, 10.3091], [-69.0179, 10.2959], [-69.0279, 10.2971], [-69.0374, 10.3119], [-69.0478, 10.314], [-69.0804, 10.2735], [-69.1381, 10.2487]]]}}, {"type": "Feature", "properties": {"municipio": "San Felipe", "estado": "Yaracuy", "gid": "VEN.24.11_1"}, "geometry": {"type": "Polygon", "coordinates": [[[-68.5829, 10.6617], [-68.5981, 10.6562], [-68.617, 10.661], [-68.6227, 10.6474], [-68.6119, 10.5853], [-68.6416, 10.5333], [-68.6442, 10.4933], [-68.6813, 10.4817], [-68.7119, 10.4602], [-68.618, 10.3615], [-68.6132, 10.314], [-68.6151, 10.2931], [-68.614, 10.2664], [-68.6007, 10.2756], [-68.5841, 10.2822], [-68.5704, 10.281], [-68.561, 10.352], [-68.5629, 10.4156], [-68.5648, 10.4592], [-68.5762, 10.4649], [-68.5335, 10.5266], [-68.5705, 10.5817], [-68.562, 10.6206], [-68.5689, 10.6539], [-68.5829, 10.6617]]]}}, {"type": "Feature", "properties": {"municipio": "Sucre", "estado": "Yaracuy", "gid": "VEN.24.12_1"}, "geometry": {"type": "Polygon", "coordinates": [[[-68.777, 10.2542], [-68.7582, 10.2549], [-68.746, 10.258], [-68.7362, 10.2444], [-68.6887, 10.2063], [-68.6837, 10.2092], [-68.6608, 10.2348], [-68.6431, 10.248], [-68.6737, 10.2701], [-68.72, 10.2936], [-68.715, 10.3181], [-68.726, 10.3263], [-68.761, 10.3688], [-68.7753, 10.4047], [-68.7873, 10.3997], [-68.8194, 10.3899], [-68.8268, 10.3837], [-68.8184, 10.3635], [-68.8027, 10.3492], [-68.7849, 10.3015], [-68.7799, 10.2794], [-68.7799, 10.2623], [-68.777, 10.2542]]]}}, {"type": "Feature", "properties": {"municipio": "Urachiche", "estado": "Yaracuy", "gid": "VEN.24.13_1"}, "geometry": {"type": "Polygon", "coordinates": [[[-68.9917, 10.3198], [-68.9872, 10.3156], [-68.9835, 10.2952], [-69.0009, 10.2555], [-69.0008, 10.2234], [-68.9955, 10.2102], [-68.9895, 10.2005], [-68.9597, 10.2198], [-68.925, 10.2223], [-68.9275, 10.197], [-68.9216, 10.1853], [-68.9026, 10.1712], [-68.8829, 10.1681], [-68.871, 10.1522], [-68.8629, 10.1605], [-68.8549, 10.165], [-68.84, 10.1638], [-68.8524, 10.1921], [-68.893, 10.2288], [-68.9089, 10.263], [-68.9287, 10.2843], [-68.9269, 10.3014], [-68.9076, 10.3357], [-68.9103, 10.3439], [-68.913, 10.3456], [-68.9213, 10.3459], [-68.923, 10.3436], [-68.9555, 10.3227], [-68.9904, 10.3209], [-68.9917, 10.3198]]]}}, {"type": "Feature", "properties": {"municipio": "Veroes", "estado": "Yaracuy", "gid": "VEN.24.14_1"}, "geometry": {"type": "Polygon", "coordinates": [[[-68.3439, 10.4019], [-68.329, 10.4794], [-68.3326, 10.545], [-68.3159, 10.5759], [-68.2536, 10.584], [-68.2399, 10.5827], [-68.2657, 10.6221], [-68.4262, 10.626], [-68.468, 10.6295], [-68.4895, 10.6321], [-68.5272, 10.6394], [-68.5466, 10.6446], [-68.5689, 10.6539], [-68.562, 10.6206], [-68.5705, 10.5817], [-68.5335, 10.5266], [-68.5762, 10.4649], [-68.5648, 10.4592], [-68.5629, 10.4156], [-68.561, 10.352], [-68.5704, 10.281], [-68.5652, 10.279], [-68.5392, 10.262], [-68.445, 10.2658], [-68.4544, 10.3301], [-68.4359, 10.3717], [-68.4174, 10.3829], [-68.3443, 10.3979], [-68.3439, 10.4019]]]}}]}