{"type": "FeatureCollection", "features": [{"type": "Feature", "properties": {"municipio": "Almirante Padilla", "estado": "Zulia", "gid": "VEN.25.1_1"}, "geometry": {"type": "MultiPolygon", "coordinates": [[[[-71.5963, 10.9435], [-71.6021, 10.9354], [-71.5996, 10.9185], [-71.5912, 10.9351], [-71.5963, 10.9435]]], [[[-71.586, 10.999], [-71.5896, 10.9793], [-71.5788, 10.9829], [-71.5765, 10.9726], [-71.554, 10.9624], [-71.5457, 10.9654], [-71.5338, 10.9446], [-71.5376, 10.9393], [-71.5224, 10.9301], [-71.5354, 10.9629], [-71.586, 10.999]]], [[[-71.6193, 10.9907], [-71.629, 10.9682], [-71.6137, 10.9546], [-71.6043, 10.9696], [-71.6193, 10.9907]]], [[[-71.661, 10.9651], [-71.681, 10.9582], [-71.6588, 10.9493], [-71.6249, 10.9554], [-71.661, 10.9651]]], [[[-71.7884, 11.0544], [-71.7787, 11.0264], [-71.7701, 11.0246], [-71.7646, 11.0114], [-71.7396, 11.0187], [-71.6957, 10.9965], [-71.6687, 10.996], [-71.6743, 10.9774], [-71.6612, 10.976], [-71.6471, 10.9874], [-71.6432, 10.9743], [-71.6293, 10.9768], [-71.6276, 10.9824], [-71.6338, 10.9804], [-71.6224, 10.9932], [-71.6082, 10.9843], [-71.6121, 10.9943], [-71.6029, 10.9976], [-71.624, 11.0026], [-71.7321, 11.0621], [-71.8065, 11.1252], [-71.8134, 11.1186], [-71.8052, 11.1034], [-71.7725, 11.0883], [-71.773, 11.0785], [-71.7873, 11.0668], [-71.7884, 11.0544]]]]}}, {"type": "Feature", "properties": {"municipio": "Baralt", "estado": "Zulia", "gid": "VEN.25.2_1"}, "geometry": {"type": "Polygon", "coordinates": [[[-70.7336, 10.3358], [-70.7337, 10.288], [-70.7491, 10.2772], [-70.7832, 10.2732], [-70.8152, 10.2467], [-70.8433, 10.2086], [-70.8919, 10.1795], [-70.9043, 10.1639], [-70.926, 10.1194], [-70.9494, 10.0956], [-70.9557, 10.0363], [-70.9766, 10.0045], [-70.9919, 9.9286], [-71.0194, 9.903], [-71.0879, 9.8639], [-71.0771, 9.8329], [-71.0779, 9.8235], [-71.0832, 9.8232], [-71.0813, 9.8321], [-71.0865, 9.8263], [-71.0915, 9.7988], [-71.079, 9.7949], [-71.0382, 9.7415], [-71.0265, 9.7104], [-71.036, 9.7115], [-71.0485, 9.6946], [-71.046, 9.6701], [-71.0607, 9.6131], [-70.9454, 9.599], [-70.8761, 9.5963], [-70.8401, 9.6136], [-70.7867, 9.6679], [-70.765, 9.6908], [-70.6973, 9.7619], [-70.646, 9.783], [-70.6329, 9.8099], [-70.662, 9.9007], [-70.6805, 9.9016], [-70.7331, 9.9427], [-70.7899, 9.9647], [-70.843, 10.0207], [-70.8611, 10.0566], [-70.8608, 10.0779], [-70.838, 10.108], [-70.7159, 10.1828], [-70.7032, 10.1989], [-70.6686, 10.2847], [-70.657, 10.3018], [-70.6577, 10.3051], [-70.6914, 10.3073], [-70.7161, 10.3171], [-70.7281, 10.327], [-70.7336, 10.3358]]]}}, {"type": "Feature", "properties": {"municipio": "Cabimas", "estado": "Zulia", "gid": "VEN.25.3_1"}, "geometry": {"type": "Polygon", "coordinates": [[[-70.9213, 10.4626], [-71.0248, 10.4572], [-71.1667, 10.4812], [-71.2131, 10.4651], [-71.3939, 10.4758], [-71.4255, 10.4835], [-71.4571, 10.4791], [-71.4524, 10.4479], [-71.4674, 10.4282], [-71.4799, 10.3915], [-71.4371, 10.3629], [-71.4218, 10.3343], [-71.3491, 10.332], [-71.3415, 10.3377], [-71.3434, 10.3624], [-71.3358, 10.3757], [-71.2257, 10.3852], [-71.1397, 10.3864], [-71.1281, 10.3912], [-70.9986, 10.3925], [-70.9517, 10.4118], [-70.882, 10.4558], [-70.9125, 10.4594], [-70.9213, 10.4626]]]}}, {"type": "Feature", "properties": {"municipio": "Catatumbo", "estado": "Zulia", "gid": "VEN.25.4_1"}, "geometry": {"type": "Polygon", "coordinates": [[[-72.4274, 8.3823], [-72.4098, 8.4359], [-72.3761, 8.4696], [-72.3779, 8.513], [-72.3625, 8.5396], [-72.3324, 8.5587], [-72.2893, 8.5694], [-72.2236, 8.556], [-72.1968, 8.5566], [-72.1638, 8.5602], [-72.16, 8.6291], [-72.1301, 8.8308], [-72.1403, 8.942], [-72.1363, 9.0496], [-72.1558, 9.0854], [-72.1284, 9.0995], [-72.1337, 9.1216], [-72.1298, 9.1513], [-72.115, 9.162], [-72.1028, 9.1583], [-72.0926, 9.1326], [-72.043, 9.1293], [-72.0215, 9.1039], [-71.9959, 9.1024], [-71.8421, 9.2289], [-71.8204, 9.228], [-71.8057, 9.2468], [-71.7726, 9.2571], [-71.7732, 9.286], [-71.7674, 9.2846], [-71.7674, 9.2935], [-71.7421, 9.2693], [-71.7354, 9.2724], [-71.7412, 9.286], [-71.729, 9.2857], [-71.7335, 9.3215], [-71.7451, 9.3332], [-71.7399, 9.3426], [-71.7337, 9.3382], [-71.7401, 9.3329], [-71.7307, 9.3307], [-71.7038, 9.3449], [-71.7365, 9.3518], [-71.7068, 9.401], [-71.7268, 9.3779], [-71.7657, 9.3601], [-71.789, 9.3793], [-71.7999, 9.3988], [-71.7996, 9.3754], [-71.8085, 9.3799], [-71.8107, 9.3732], [-71.8057, 9.4032], [-71.8193, 9.4207], [-71.8304, 9.4235], [-71.8343, 9.4163], [-71.8571, 9.414], [-71.8865, 9.4276], [-71.8824, 9.406], [-71.8904, 9.4063], [-71.8943, 9.3865], [-71.9029, 9.3901], [-71.9063, 9.3849], [-71.9082, 9.4007], [-71.8882, 9.431], [-71.8604, 9.4362], [-71.8201, 9.4243], [-71.9049, 9.4718], [-71.9226, 9.4732], [-71.9393, 9.5024], [-71.9574, 9.4913], [-71.9576, 9.5021], [-71.9413, 9.5065], [-71.9535, 9.5215], [-71.956, 9.5118], [-71.9726, 9.504], [-71.9682, 9.5188], [-71.9613, 9.5179], [-71.9796, 9.5574], [-71.9765, 9.5638], [-71.9957, 9.5535], [-72.0076, 9.5585], [-72.0051, 9.576], [-71.9971, 9.5796], [-71.9893, 9.5735], [-71.9835, 9.5893], [-71.9876, 9.5835], [-72.0031, 9.5874], [-72.0517, 9.6256], [-72.0972, 9.6392], [-72.1698, 9.6217], [-72.1777, 9.6144], [-72.1792, 9.5829], [-72.2029, 9.544], [-72.2174, 9.5326], [-72.226, 9.4882], [-72.2422, 9.4661], [-72.2819, 9.4656], [-72.3041, 9.4555], [-72.3237, 9.4319], [-72.3746, 9.4406], [-72.4043, 9.438], [-72.4332, 9.1587], [-72.3914, 9.1321], [-72.3838, 9.1131], [-72.3952, 9.098], [-72.3952, 9.0714], [-72.38, 9.0334], [-72.3838, 8.9954], [-72.3952, 8.9726], [-72.418, 8.9689], [-72.418, 8.9423], [-72.4559, 8.9423], [-72.4863, 8.7676], [-72.5281, 8.6309], [-72.5745, 8.5457], [-72.4274, 8.3823]]]}}, {"type": "Feature", "properties": {"municipio": "Colón", "estado": "Zulia", "gid": "VEN.25.5_1"}, "geometry": {"type": "Polygon", "coordinates": [[[-71.6836, 8.7057], [-71.6889, 8.7809], [-71.7022, 8.8454], [-71.7003, 8.8701], [-71.6794, 8.9043], [-71.6813, 9.003], [-71.6726, 9.0668], [-71.6951, 9.0576], [-71.7176, 9.0796], [-71.7151, 9.0971], [-71.7213, 9.0915], [-71.7376, 9.0971], [-71.7524, 9.1168], [-71.7596, 9.1082], [-71.7679, 9.1096], [-71.756, 9.1238], [-71.7565, 9.1462], [-71.7524, 9.1282], [-71.7396, 9.1518], [-71.7551, 9.1874], [-71.7493, 9.1868], [-71.7465, 9.1985], [-71.7524, 9.2129], [-71.749, 9.236], [-71.774, 9.2238], [-71.7676, 9.2104], [-71.7901, 9.2399], [-71.8015, 9.2251], [-71.819, 9.2232], [-71.8274, 9.2121], [-71.8201, 9.2279], [-71.8421, 9.2289], [-71.9959, 9.1024], [-72.0215, 9.1039], [-72.043, 9.1293], [-72.0926, 9.1326], [-72.1028, 9.1583], [-72.115, 9.162], [-72.1298, 9.1513], [-72.1337, 9.1216], [-72.1284, 9.0995], [-72.1558, 9.0854], [-72.1363, 9.0496], [-72.1403, 8.942], [-72.1301, 8.8308], [-72.16, 8.6291], [-72.1638, 8.5602], [-72.0425, 8.5662], [-72.0034, 8.5743], [-71.9961, 8.6285], [-72.0016, 8.6638], [-71.9827, 8.6591], [-71.9705, 8.6356], [-71.969, 8.6459], [-71.9505, 8.6633], [-71.898, 8.6734], [-71.8542, 8.7001], [-71.8326, 8.7031], [-71.8067, 8.6951], [-71.7645, 8.6584], [-71.7324, 8.6676], [-71.6836, 8.7057]]]}}, {"type": "Feature", "properties": {"municipio": "Francisco Javier Pulgar", "estado": "Zulia", "gid": "VEN.25.6_1"}, "geometry": {"type": "Polygon", "coordinates": [[[-71.6136, 8.7525], [-71.4141, 8.9091], [-71.3933, 8.9525], [-71.3889, 8.9595], [-71.411, 8.9659], [-71.4289, 8.9875], [-71.4641, 9.0075], [-71.5027, 9.0423], [-71.6079, 9.0365], [-71.6185, 9.0399], [-71.624, 9.0724], [-71.6404, 9.0635], [-71.6593, 9.0704], [-71.6726, 9.0668], [-71.6813, 9.003], [-71.6794, 8.9043], [-71.7003, 8.8701], [-71.7022, 8.8454], [-71.6889, 8.7809], [-71.6836, 8.7057], [-71.6136, 8.7525]]]}}, {"type": "Feature", "properties": {"municipio": "Guajira", "estado": "Zulia", "gid": "VEN.25.7_1"}, "geometry": {"type": "MultiPolygon", "coordinates": [[[[-71.8065, 11.1252], [-71.8962, 11.2526], [-71.9493, 11.3807], [-71.9687, 11.5026], [-71.9574, 11.5846], [-71.9415, 11.6013], [-71.9085, 11.6051], [-71.839, 11.6371], [-71.7613, 11.659], [-71.7246, 11.6601], [-71.629, 11.6915], [-71.5757, 11.6932], [-71.4393, 11.7187], [-71.4279, 11.7432], [-71.4079, 11.741], [-71.3896, 11.7501], [-71.3782, 11.7749], [-71.3382, 11.794], [-71.3385, 11.834], [-71.3515, 11.8054], [-71.3449, 11.7937], [-71.3863, 11.8141], [-71.7292, 11.7076], [-71.9661, 11.6501], [-72.1259, 11.3629], [-72.1324, 11.3621], [-72.1281, 11.3588], [-72.249, 11.1397], [-72.3315, 11.1439], [-72.3491, 11.1509], [-72.3655, 11.1391], [-72.4236, 11.1249], [-72.4375, 11.1151], [-72.4432, 11.1272], [-72.4839, 11.099], [-72.4331, 11.1012], [-72.3617, 11.1117], [-72.3463, 11.0941], [-72.3417, 11.1128], [-72.332, 11.1164], [-72.2191, 11.0827], [-72.1907, 11.107], [-72.143, 11.0914], [-72.0631, 11.1188], [-71.9954, 11.086], [-71.964, 11.1213], [-71.9059, 11.1008], [-71.8566, 11.0699], [-71.8463, 11.0341], [-71.825, 11.0284], [-71.7988, 11.0142], [-71.7804, 11.0005], [-71.7646, 11.0114], [-71.7701, 11.0246], [-71.7787, 11.0264], [-71.7884, 11.0544], [-71.7873, 11.0668], [-71.773, 11.0785], [-71.7725, 11.0883], [-71.8052, 11.1034], [-71.8134, 11.1186], [-71.8065, 11.1252]]], [[[-71.3784, 11.8375], [-71.3849, 11.8296], [-71.381, 11.8338], [-71.371, 11.8332], [-71.3654, 11.8424], [-71.3784, 11.8375]]], [[[-71.3527, 11.8474], [-71.3596, 11.8418], [-71.3487, 11.8432], [-71.3527, 11.8474]]], [[[-71.3379, 11.8401], [-71.3432, 11.8365], [-71.3335, 11.8418], [-71.3379, 11.8401]]], [[[-71.3443, 11.8504], [-71.3476, 11.8421], [-71.3626, 11.8415], [-71.3693, 11.8326], [-71.3796, 11.8321], [-71.3607, 11.8251], [-71.3654, 11.8315], [-71.3587, 11.8329], [-71.356, 11.8262], [-71.354, 11.836], [-71.3621, 11.834], [-71.3635, 11.8399], [-71.3599, 11.8346], [-71.3521, 11.8368], [-71.3504, 11.8304], [-71.3451, 11.8363], [-71.3521, 11.8374], [-71.3388, 11.8396], [-71.3463, 11.841], [-71.3421, 11.849], [-71.3253, 11.8468], [-71.3443, 11.8504]]]]}}, {"type": "Feature", "properties": {"municipio": "Jesús Enrique Lossada", "estado": "Zulia", "gid": "VEN.25.8_1"}, "geometry": {"type": "Polygon", "coordinates": [[[-72.8834, 10.3836], [-72.8617, 10.3833], [-72.8115, 10.3651], [-72.7968, 10.4324], [-72.7807, 10.452], [-72.7703, 10.4307], [-72.7653, 10.4319], [-72.7356, 10.4988], [-72.7119, 10.5435], [-72.6703, 10.5875], [-72.5516, 10.636], [-72.4487, 10.64], [-72.4089, 10.6318], [-72.3813, 10.6127], [-72.3588, 10.5756], [-72.3088, 10.5199], [-72.3017, 10.5076], [-72.0822, 10.5216], [-71.7583, 10.5302], [-71.7581, 10.7995], [-71.8551, 10.7975], [-72.1595, 10.7859], [-72.6804, 10.7789], [-72.6814, 10.7616], [-72.7056, 10.7591], [-72.7122, 10.7511], [-72.7195, 10.72], [-72.7142, 10.705], [-72.7298, 10.6934], [-72.7482, 10.6375], [-72.7805, 10.6132], [-72.7915, 10.5864], [-72.8215, 10.5677], [-72.828, 10.5472], [-72.8429, 10.5378], [-72.8345, 10.5184], [-72.8437, 10.5049], [-72.8443, 10.4869], [-72.8601, 10.4736], [-72.8617, 10.4634], [-72.897, 10.4483], [-72.9018, 10.4331], [-72.8942, 10.4114], [-72.8993, 10.4039], [-72.8834, 10.3836]]]}}, {"type": "Feature", "properties": {"municipio": "Jesús María Semprún", "estado": "Zulia", "gid": "VEN.25.9_1"}, "geometry": {"type": "Polygon", "coordinates": [[[-73.1511, 9.5329], [-73.1768, 9.5007], [-73.1744, 9.4791], [-73.2014, 9.4714], [-73.1867, 9.448], [-73.2078, 9.4238], [-73.2212, 9.4244], [-73.24, 9.4045], [-73.247, 9.381], [-73.2604, 9.3721], [-73.2648, 9.3281], [-73.273, 9.3193], [-73.2826, 9.323], [-73.2885, 9.3139], [-73.2971, 9.2763], [-73.3283, 9.2231], [-73.3521, 9.2178], [-73.347, 9.1737], [-73.3029, 9.1721], [-73.2812, 9.1621], [-73.2525, 9.1641], [-73.2504, 9.1588], [-73.2136, 9.1844], [-73.1931, 9.1752], [-73.1769, 9.1776], [-73.1499, 9.2011], [-73.1529, 9.2111], [-73.1324, 9.22], [-73.1311, 9.2292], [-73.0897, 9.2262], [-73.0819, 9.2411], [-73.0733, 9.2433], [-73.0775, 9.2514], [-73.0717, 9.2647], [-73.0435, 9.2625], [-73.0357, 9.2834], [-73.0265, 9.2809], [-73.0098, 9.2921], [-73.0033, 9.2872], [-73.0053, 9.2757], [-72.9939, 9.2723], [-72.9971, 9.2597], [-72.9853, 9.2541], [-72.9875, 9.2306], [-72.9961, 9.2223], [-72.9852, 9.2236], [-72.9704, 9.2137], [-72.9557, 9.181], [-72.9648, 9.1569], [-72.9868, 9.1437], [-72.9719, 9.1365], [-72.96, 9.1143], [-72.9472, 9.1063], [-72.9473, 9.0926], [-72.932, 9.0835], [-72.9195, 9.0944], [-72.8866, 9.1042], [-72.8803, 9.1338], [-72.8217, 9.1229], [-72.8221, 9.142], [-72.8094, 9.1337], [-72.8107, 9.1203], [-72.7953, 9.1222], [-72.7952, 9.1041], [-72.7847, 9.1161], [-72.7754, 9.1146], [-72.7623, 9.0931], [-72.7725, 9.0872], [-72.7606, 9.0818], [-72.7012, 8.8137], [-72.6794, 8.7532], [-72.6583, 8.6216], [-72.6346, 8.6005], [-72.6287, 8.6063], [-72.6319, 8.5976], [-72.6171, 8.5951], [-72.5745, 8.5457], [-72.5281, 8.6309], [-72.4863, 8.7676], [-72.4559, 8.9423], [-72.418, 8.9423], [-72.418, 8.9689], [-72.3952, 8.9726], [-72.3838, 8.9954], [-72.38, 9.0334], [-72.3952, 9.0714], [-72.3952, 9.098], [-72.3838, 9.1131], [-72.3914, 9.1321], [-72.4332, 9.1587], [-72.4043, 9.438], [-72.4167, 9.4387], [-72.4565, 9.4483], [-72.4932, 9.4379], [-72.5406, 9.383], [-72.5934, 9.3682], [-72.6258, 9.3703], [-72.6845, 9.3789], [-72.7885, 9.3496], [-72.8471, 9.3222], [-72.8631, 9.3041], [-72.8741, 9.273], [-72.9007, 9.2557], [-72.9179, 9.255], [-72.9462, 9.267], [-72.9625, 9.2893], [-72.9347, 9.3366], [-72.9603, 9.3877], [-72.9506, 9.4279], [-72.9602, 9.4667], [-72.9748, 9.4725], [-73.0659, 9.4502], [-73.0843, 9.4597], [-73.1511, 9.5329]]]}}, {"type": "Feature", "properties": {"municipio": "La Cañadade Urdaneta", "estado": "Zulia", "gid": "VEN.25.10_1"}, "geometry": {"type": "Polygon", "coordinates": [[[-72.3017, 10.5076], [-72.2824, 10.48], [-72.2777, 10.4334], [-72.203, 10.3956], [-72.1555, 10.3582], [-72.1075, 10.3089], [-72.0596, 10.2453], [-71.9537, 10.1096], [-71.9472, 10.1064], [-71.9021, 10.1207], [-71.9071, 10.1218], [-71.8851, 10.1565], [-71.8671, 10.1585], [-71.8596, 10.1893], [-71.8396, 10.2074], [-71.8201, 10.2712], [-71.8065, 10.2851], [-71.7904, 10.3276], [-71.7343, 10.3793], [-71.6974, 10.3985], [-71.6646, 10.4276], [-71.6396, 10.4396], [-71.6312, 10.4371], [-71.634, 10.4621], [-71.6268, 10.4704], [-71.6332, 10.5149], [-71.624, 10.5321], [-71.7583, 10.5302], [-72.0822, 10.5216], [-72.3017, 10.5076]]]}}, {"type": "Feature", "properties": {"municipio": "Lagunillas", "estado": "Zulia", "gid": "VEN.25.11_1"}, "geometry": {"type": "Polygon", "coordinates": [[[-70.882, 10.4558], [-70.9517, 10.4118], [-70.9986, 10.3925], [-71.1281, 10.3912], [-71.1469, 10.3835], [-71.1739, 10.3615], [-71.194, 10.3237], [-71.2016, 10.284], [-71.2236, 10.2456], [-71.2896, 10.2393], [-71.3696, 10.2426], [-71.3585, 10.2104], [-71.2918, 10.1687], [-71.2665, 10.1351], [-71.2401, 10.0749], [-71.2404, 10.0487], [-71.2282, 10.021], [-71.2337, 10.0118], [-71.2193, 10.0059], [-71.0396, 10.1547], [-71.015, 10.1811], [-71.0004, 10.2594], [-70.9413, 10.3631], [-70.9261, 10.3819], [-70.8607, 10.4026], [-70.8144, 10.4532], [-70.8499, 10.451], [-70.882, 10.4558]]]}}, {"type": "Feature", "properties": {"municipio": "Machiquesde Perijá", "estado": "Zulia", "gid": "VEN.25.12_1"}, "geometry": {"type": "Polygon", "coordinates": [[[-72.8679, 10.3559], [-72.8981, 10.3627], [-72.907, 10.3511], [-72.9064, 10.3237], [-72.8995, 10.3129], [-72.9071, 10.2674], [-72.8974, 10.2166], [-72.9103, 10.2065], [-72.9079, 10.1761], [-72.9219, 10.1372], [-72.9115, 10.1125], [-72.922, 10.1089], [-72.9259, 10.0918], [-72.9549, 10.0661], [-72.9528, 10.0273], [-72.9845, 9.9731], [-72.9802, 9.9589], [-72.9984, 9.9214], [-72.9858, 9.9153], [-72.9882, 9.8986], [-72.9774, 9.8893], [-72.9928, 9.875], [-72.9724, 9.8685], [-72.9713, 9.8587], [-72.9486, 9.8484], [-72.9463, 9.8374], [-73.0109, 9.7605], [-73.0477, 9.656], [-73.0674, 9.6452], [-73.0944, 9.5717], [-73.1364, 9.5501], [-73.1511, 9.5329], [-73.0843, 9.4597], [-73.0659, 9.4502], [-72.9748, 9.4725], [-72.9602, 9.4667], [-72.9506, 9.4279], [-72.9603, 9.3877], [-72.9347, 9.3366], [-72.9625, 9.2893], [-72.9462, 9.267], [-72.9179, 9.255], [-72.9007, 9.2557], [-72.8741, 9.273], [-72.8631, 9.3041], [-72.8471, 9.3222], [-72.7885, 9.3496], [-72.6845, 9.3789], [-72.6258, 9.3703], [-72.5934, 9.3682], [-72.5406, 9.383], [-72.4932, 9.4379], [-72.4565, 9.4483], [-72.4167, 9.4387], [-72.3746, 9.4406], [-72.3237, 9.4319], [-72.3041, 9.4555], [-72.2819, 9.4656], [-72.2422, 9.4661], [-72.226, 9.4882], [-72.2174, 9.5326], [-72.2029, 9.544], [-72.1792, 9.5829], [-72.1777, 9.6144], [-72.1698, 9.6217], [-72.0972, 9.6392], [-72.0517, 9.6256], [-72.0031, 9.5874], [-71.9876, 9.5835], [-71.9841, 9.5889], [-71.9915, 9.5951], [-71.9868, 9.594], [-71.9801, 9.5865], [-71.9657, 9.5599], [-71.9732, 9.606], [-72.0921, 9.7504], [-72.1249, 9.8043], [-72.1271, 9.834], [-72.1071, 9.8368], [-72.106, 9.8479], [-72.0824, 9.8713], [-72.0912, 9.8644], [-72.1306, 9.9301], [-72.1485, 9.9433], [-72.2357, 9.9858], [-72.2513, 10.0172], [-72.2856, 10.0513], [-72.3343, 10.0759], [-72.3812, 10.1136], [-72.5097, 10.2635], [-72.5741, 10.2749], [-72.5913, 10.2181], [-72.5985, 10.2179], [-72.6414, 10.253], [-72.6989, 10.2575], [-72.72, 10.2839], [-72.7634, 10.2926], [-72.7711, 10.3328], [-72.8198, 10.3283], [-72.8679, 10.3559]]]}}, {"type": "Feature", "properties": {"municipio": "Mara", "estado": "Zulia", "gid": "VEN.25.13_1"}, "geometry": {"type": "Polygon", "coordinates": [[[-72.4331, 11.1012], [-72.4842, 11.0988], [-72.498, 11.0841], [-72.4814, 11.0587], [-72.5049, 11.0372], [-72.5083, 11.0224], [-72.5254, 11.0116], [-72.5181, 11.001], [-72.5357, 10.9848], [-72.5636, 10.9269], [-72.6029, 10.8986], [-72.6121, 10.8822], [-72.6204, 10.8866], [-72.6474, 10.8802], [-72.6616, 10.8303], [-72.6756, 10.8186], [-72.6804, 10.7789], [-72.1595, 10.7859], [-71.8551, 10.7975], [-71.6774, 10.8032], [-71.7135, 10.8821], [-71.7204, 10.9232], [-71.7124, 10.9387], [-71.7549, 10.991], [-71.7746, 10.9921], [-71.7804, 11.0005], [-71.7988, 11.0142], [-71.825, 11.0284], [-71.8463, 11.0341], [-71.8566, 11.0699], [-71.9059, 11.1008], [-71.964, 11.1213], [-71.9954, 11.086], [-72.0631, 11.1188], [-72.143, 11.0914], [-72.1907, 11.107], [-72.2191, 11.0827], [-72.332, 11.1164], [-72.3417, 11.1128], [-72.3463, 11.0941], [-72.3617, 11.1117], [-72.4331, 11.1012]]]}}, {"type": "Feature", "properties": {"municipio": "Maracaibo", "estado": "Zulia", "gid": "VEN.25.14_1"}, "geometry": {"type": "Polygon", "coordinates": [[[-71.7582, 10.6087], [-71.6062, 10.6137], [-71.6157, 10.6338], [-71.6032, 10.6365], [-71.5899, 10.656], [-71.5876, 10.6746], [-71.5965, 10.6901], [-71.5896, 10.7015], [-71.5818, 10.7018], [-71.621, 10.7304], [-71.6171, 10.7368], [-71.629, 10.7371], [-71.6457, 10.7524], [-71.6787, 10.8007], [-71.7581, 10.7995], [-71.7582, 10.6087]]]}}, {"type": "Feature", "properties": {"municipio": "Miranda", "estado": "Zulia", "gid": "VEN.25.15_1"}, "geometry": {"type": "MultiPolygon", "coordinates": [[[[-71.2356, 10.9523], [-71.2557, 10.9826], [-71.3329, 10.9599], [-71.4362, 10.9682], [-71.4604, 10.956], [-71.4518, 10.9546], [-71.4885, 10.946], [-71.4385, 10.9021], [-71.4262, 10.901], [-71.4085, 10.9135], [-71.424, 10.8837], [-71.4476, 10.8751], [-71.4332, 10.8226], [-71.4332, 10.7946], [-71.514, 10.7993], [-71.5693, 10.7932], [-71.5857, 10.7979], [-71.5912, 10.7918], [-71.5904, 10.7851], [-71.566, 10.7779], [-71.5612, 10.7632], [-71.536, 10.7546], [-71.544, 10.7446], [-71.5232, 10.7243], [-71.5304, 10.7046], [-71.5218, 10.6935], [-71.5332, 10.6699], [-71.5212, 10.6546], [-71.5247, 10.6369], [-71.5084, 10.6405], [-71.4953, 10.632], [-71.45, 10.6355], [-71.4294, 10.629], [-71.3839, 10.6461], [-71.3626, 10.6105], [-71.2995, 10.5903], [-71.2671, 10.56], [-71.2142, 10.5396], [-71.1634, 10.4967], [-71.162, 10.4806], [-71.0248, 10.4572], [-70.9213, 10.4626], [-70.9257, 10.4642], [-70.9499, 10.4872], [-70.9973, 10.5099], [-71.0267, 10.6005], [-71.062, 10.6592], [-71.0817, 10.7562], [-71.1153, 10.8035], [-71.1709, 10.8604], [-71.2356, 10.9523]]], [[[-71.4868, 10.9349], [-71.4918, 10.9382], [-71.4943, 10.9279], [-71.4871, 10.9265], [-71.4868, 10.9349]]], [[[-71.5062, 10.9446], [-71.5113, 10.9426], [-71.5135, 10.9315], [-71.4987, 10.936], [-71.5107, 10.941], [-71.5015, 10.9407], [-71.5062, 10.9446]]]]}}, {"type": "Feature", "properties": {"municipio": "Rosariode Perijá", "estado": "Zulia", "gid": "VEN.25.16_1"}, "geometry": {"type": "Polygon", "coordinates": [[[-72.8834, 10.3836], [-72.8981, 10.3628], [-72.8679, 10.3559], [-72.8198, 10.3283], [-72.7711, 10.3328], [-72.7634, 10.2926], [-72.72, 10.2839], [-72.6989, 10.2575], [-72.6414, 10.253], [-72.5985, 10.2179], [-72.5913, 10.2181], [-72.5741, 10.2749], [-72.5097, 10.2635], [-72.3812, 10.1136], [-72.3343, 10.0759], [-72.2856, 10.0513], [-72.2513, 10.0172], [-72.2357, 9.9858], [-72.1485, 9.9433], [-72.1306, 9.9301], [-72.0912, 9.8644], [-72.041, 9.9329], [-72.0082, 10.0088], [-71.9901, 10.0732], [-71.9571, 10.1015], [-71.961, 10.1065], [-71.9507, 10.1026], [-71.9385, 10.1068], [-71.9472, 10.1064], [-71.9537, 10.1096], [-72.0596, 10.2453], [-72.1075, 10.3089], [-72.1555, 10.3582], [-72.203, 10.3956], [-72.2777, 10.4334], [-72.2824, 10.48], [-72.3088, 10.5199], [-72.3588, 10.5756], [-72.3813, 10.6127], [-72.4089, 10.6318], [-72.4487, 10.64], [-72.5516, 10.636], [-72.6703, 10.5875], [-72.7119, 10.5435], [-72.7356, 10.4988], [-72.7653, 10.4319], [-72.7703, 10.4307], [-72.7807, 10.452], [-72.7968, 10.4324], [-72.8115, 10.3651], [-72.8617, 10.3833], [-72.8834, 10.3836]]]}}, {"type": "Feature", "properties": {"municipio": "San Francisco", "estado": "Zulia", "gid": "VEN.25.17_1"}, "geometry": {"type": "Polygon", "coordinates": [[[-71.7583, 10.5302], [-71.6193, 10.5349], [-71.6101, 10.5718], [-71.6151, 10.5957], [-71.6054, 10.6076], [-71.6057, 10.6129], [-71.7582, 10.6087], [-71.7583, 10.5302]]]}}, {"type": "Feature", "properties": {"municipio": "Santa Rita", "estado": "Zulia", "gid": "VEN.25.18_1"}, "geometry": {"type": "MultiPolygon", "coordinates": [[[[-71.2131, 10.4651], [-71.1649, 10.481], [-71.162, 10.4806], [-71.1634, 10.4967], [-71.2142, 10.5396], [-71.2671, 10.56], [-71.2995, 10.5903], [-71.3626, 10.6105], [-71.3839, 10.6461], [-71.4294, 10.629], [-71.45, 10.6355], [-71.4953, 10.632], [-71.5084, 10.6405], [-71.5247, 10.6369], [-71.5315, 10.6332], [-71.5049, 10.6207], [-71.4965, 10.6057], [-71.5307, 10.5893], [-71.5318, 10.5593], [-71.5407, 10.5499], [-71.5237, 10.5407], [-71.504, 10.5154], [-71.4685, 10.4976], [-71.4571, 10.4791], [-71.4255, 10.4835], [-71.3939, 10.4758], [-71.2131, 10.4651]]], [[[-71.5493, 10.6224], [-71.5471, 10.6113], [-71.541, 10.6121], [-71.5493, 10.6224]]]]}}, {"type": "Feature", "properties": {"municipio": "Simón Bolívar", "estado": "Zulia", "gid": "VEN.25.19_1"}, "geometry": {"type": "Polygon", "coordinates": [[[-71.4218, 10.3343], [-71.414, 10.3043], [-71.3776, 10.2696], [-71.3696, 10.2426], [-71.2896, 10.2393], [-71.2236, 10.2456], [-71.2016, 10.284], [-71.194, 10.3237], [-71.1739, 10.3615], [-71.1469, 10.3835], [-71.1397, 10.3864], [-71.2257, 10.3852], [-71.3358, 10.3757], [-71.3434, 10.3624], [-71.3415, 10.3377], [-71.3491, 10.332], [-71.4218, 10.3343]]]}}, {"type": "Feature", "properties": {"municipio": "Sucre", "estado": "Zulia", "gid": "VEN.25.20_1"}, "geometry": {"type": "MultiPolygon", "coordinates": [[[[-71.1954, 9.0049], [-71.1886, 8.9882], [-71.1738, 8.9945], [-71.1486, 9.0291], [-71.1412, 9.1142], [-71.2144, 9.1729], [-71.2196, 9.1746], [-71.2485, 9.1412], [-71.2593, 9.1424], [-71.2663, 9.1313], [-71.2868, 9.1324], [-71.339, 9.0912], [-71.5027, 9.0423], [-71.4641, 9.0075], [-71.4289, 8.9875], [-71.411, 8.9659], [-71.3889, 8.9595], [-71.3459, 8.9941], [-71.2334, 9.0466], [-71.2247, 9.0453], [-71.1954, 9.0049]]], [[[-70.9941, 9.3475], [-71.0227, 9.3509], [-71.0521, 9.3391], [-71.0626, 9.3135], [-71.1521, 9.2649], [-71.1935, 9.2254], [-71.1206, 9.1736], [-71.051, 9.1491], [-71.0129, 9.1532], [-70.9908, 9.1732], [-70.9895, 9.1857], [-70.9954, 9.2569], [-70.9941, 9.3475]]]]}}, {"type": "Feature", "properties": {"municipio": "Valmore Rodríguez", "estado": "Zulia", "gid": "VEN.25.21_1"}, "geometry": {"type": "Polygon", "coordinates": [[[-70.8144, 10.4532], [-70.8607, 10.4026], [-70.9261, 10.3819], [-70.9413, 10.3631], [-71.0004, 10.2594], [-71.015, 10.1811], [-71.0396, 10.1547], [-71.2193, 10.0059], [-71.2113, 9.974], [-71.179, 9.9693], [-71.1568, 9.9563], [-71.1521, 9.9493], [-71.1582, 9.9424], [-71.1501, 9.9479], [-71.139, 9.9371], [-71.0879, 9.8639], [-71.0194, 9.903], [-70.9919, 9.9286], [-70.9766, 10.0045], [-70.9557, 10.0363], [-70.9494, 10.0956], [-70.926, 10.1194], [-70.9043, 10.1639], [-70.8919, 10.1795], [-70.8433, 10.2086], [-70.8152, 10.2467], [-70.7832, 10.2732], [-70.7491, 10.2772], [-70.7337, 10.288], [-70.7336, 10.3358], [-70.739, 10.3447], [-70.7425, 10.3922], [-70.7583, 10.4267], [-70.7889, 10.4493], [-70.8144, 10.4532]]]}}]}